address,latitude,longitude,city,postcode
17 cours Jean Nicoli 20090 AJACCIO FR,42.462065,1.937261,Ur,66760
C.C. E.Leclerc - rue des Portes d'Albi ALBI FR,43.923305,2.149627,Albi,81000
97 Avenue de Saint-Juéry ALBI FR,43.935898,2.179227,Albi,81000
ZAC Les Portes de Bretagne 61000 ALENÇON FR,48.432597,0.069882,Alençon,61000
16 Place des Martyrs de la Résistance 30100 ALES FR,44.126526,4.079116,Alès,30100
Espace Littoral - Rue des Silènes 56190 AMBON-MUZILLAC FR,47.559614,-2.510624,Ambon,56190
15 boulevard Ambroise Paré 80000 AMIENS FR,49.879182,2.267523,Amiens,80000
230 boulevard de la République 33510 ANDERNOS FR,44.742476,-1.099264,Andernos-les-Bains,33510
Immeuble Cazalbon - rond-point Goutterons 42160 ANDRÉZIEUX-BOUTHÉON FR,45.53582,4.28695,Andrézieux-Bouthéon,42160
2 sq. Lafayette ANGERS FR,47.478427,-0.563167,Angers,49000
C.C. E.Leclerc - boulevard Albert Camus ANGERS FR,47.471547,-0.545611,Angers,49100
24 rue des Perreyeux ANGERS FR,47.491499,-0.525204,Angers,49100
49 boulevard Costa de Beauregard 74600 ANNECY FR,42.462065,1.937261,Ur,66760
C.C. Carrefour - Chemin Saint Claude 06600 ANTIBES FR,43.593964,7.110514,Antibes,06600
669 avenue Victor Hugo 84400 APT FR,43.879414,5.385495,Apt,84400
C.C. Intermarché 66700 ARGELÈS-SUR-MER FR,42.53805,3.013474,Argelès-sur-Mer,66700
21  rue de la République ARLES FR,43.676755,4.625405,Arles,13129
Avenue du Maréchal Juin ARLES FR,43.666671,4.635623,Arles,13200
20 place du Marché 91290 ARPAJON FR,48.588802,2.250165,Arpajon,91290
5 rue Pierre Brossolette 92600 ASNIÈRES FR,48.910659,2.29039,Asnières-sur-Seine,92600
C.C. Carrefour 91200 ATHIS-MONS FR,48.715463,2.404193,Athis-Mons,91200
"C.C. Auchan Barneoud, Rte de Gémenos, 13400 AUBAGNE FR",43.298087,5.604382,Aubagne,13400
9 rue Duquesne 56400 AURAY FR,47.663653,-3.006221,Auray,56400
5 place du Square 15000 AURILLAC FR,44.928443,2.444387,Aurillac,15000
C.C. Carrefour Market 31190 AUTERIVE FR,43.352067,1.479783,Auterive,31190
23 rue du Général Leclerc 89200 AVALLON FR,47.496361,3.908208,Avallon,89200
12 avenue Eisenhower AVIGNON FR,43.939248,4.797294,Avignon,84000
50 avenue Marcou De Langlade AVIGNON FR,43.92106,4.867725,Avignon,84140
12 cours Carnot AVIGNON FR,43.949317,4.805533,Avignon,84000
C.C. Carrefour 76360 BARENTIN FR,49.542269,0.948277,Barentin,76360
25 rue des Pierres Missigault 28630 BARJOUVILLE FR,48.414988,1.470132,Barjouville,28630
1244 Avenue Sampiero Corso 20600 Bastia FR,42.639807,9.439681,Furiani,20600
53 rue Saint Patrice 14400 BAYEUX FR,49.278938,-0.710017,Bayeux,14400
123 avenue du Maréchal Soult 64100 BAYONNE FR,43.483562,-1.500878,Bayonne,64100
C.C. Carrefour 30300 BEAUCAIRE FR,43.810034,4.627225,Beaucaire,30300
22 rue d'Alsace 21200 BEAUNE FR,47.022216,4.839766,Beaune,21200
24 rue de Malherbe 60000 BEAUVAIS FR,49.428055,2.081713,Beauvais,60000
ZAC La Cavaille - 129 avenue Charles de Gaulle 24100 BERGERAC FR,44.83631,0.450068,Bergerac,24100
ZAC Les Batterses 01700 BEYNOST FR,45.825822,4.989452,Beynost,01700
7 avenue Georges Clémenceau 34500 BÉZIERS FR,43.345389,3.216019,Béziers,34500
C.C. Brico Leclerc - route de la plage 40600 BISCARROSSE FR,44.437735,-1.234752,Biscarrosse,40600
3 rue du Bout des Haies 41000 BLOIS FR,47.614584,1.32334,Blois,41000
62 avenue Jean Jaurès 78390 BOIS-D'ARCY FR,48.80025,2.03514,Bois-d'Arcy,78390
69 bis avenue Victor Hugo 92100 BOULOGNE-BILLANCOURT FR,48.837101,2.24584,Boulogne-Billancourt,92100
99 avenue de Lyon 26500 BOURG-LÈS-VALENCE FR,44.952299,4.891237,Bourg-lès-Valence,26500
C.C. Carrefour Chaussée de Chappe 18000 BOURGES FR,47.080876,2.387939,Bourges,18000
ZAC - 15 avenue Henri Barbusse 38300 BOURGOIN-JALLIEU FR,45.596458,5.268584,Bourgoin-Jallieu,38300
26 rue d'Aiguillon - place Wilson 29200 BREST FR,48.385723,-4.488859,Brest,29200
C.C. Auchan 91220 BRÉTIGNY-SUR-ORGE FR,48.610762,2.27544,Brétigny-sur-Orge,91220
210 route de Paris 60600 BREUIL-LE-VERT FR,49.36687,2.418766,Breuil-le-Vert,60600
14 avenue Jean-Charles Rivet BRIVE-LA-GAILLARDE FR,45.150689,1.498369,Brive-la-Gaillarde,19100
Galerie E.Leclerc - 86 avenue Jacques et Bernadette Chirac BRIVE-LA-GAILLARDE FR,45.163406,1.531957,Brive-la-Gaillarde,19100
Zone Commerciale Mas Guérido 66330 CABESTANY FR,42.686495,2.932569,Cabestany,66330
130 rue Saint Jean 14000 CAEN FR,49.179698,-0.357863,Caen,14000
38 boulevard Gambetta 46000 CAHORS FR,44.446245,1.440937,Cahors,46000
C.C. - près du Casino 66140 CANET-EN-ROUSSILLON FR,42.699274,3.008144,Canet-en-Roussillon,66140
C.C. E.Leclerc 11000 CARCASSONNE FR,43.207786,2.374611,Carcassonne,11000
8 Route de Saint-Côme 50500 CARENTAN-LES-MARAIS FR,49.3068,-1.252367,Carentan les Marais,50500
23 avenue du Mont Ventoux 84200 CARPENTRAS FR,44.056012,5.05318,Carpentras,84200
790 route de Nîmes - Europe Elysées 2 34170 CASTELNAU-LE-LEZ FR,43.637479,3.929768,Castelnau-le-Lez,34170
60 rue de Dunkerque 11400 CASTELNAUDARY FR,43.318435,1.954463,Castelnaudary,11400
1382 Route de Moissac - Lieudit Artel Ouest 82100 CASTELSARRASIN FR,44.064325,1.09692,Castelsarrasin,82100
30 rue Henri IV 81100 CASTRES FR,43.605795,2.240725,Castres,81100
286 cours Bournissac 84300 CAVAILLON FR,43.835184,5.040123,Cavaillon,84300
C.C. 3 Fontaines 95000 CERGY FR,49.039575,2.083073,Cergy,95000
9 Rue Clemenceau 68700 CERNAY FR,47.809009,7.176535,Cernay,68700
C.C. Auchan Boissenart 77240 CESSON FR,48.587673,2.599946,Cesson,77240
C.C. Carrefour 35510 CESSON-SÉVIGNÉ FR,48.137179,-1.620461,Cesson-Sévigné,35510
C.C. Chamnord - 1097 avenue des Landiers 73000 CHAMBÉRY FR,45.603881,5.89266,Chambéry,73000
30 route de Bordeaux 37170 CHAMBRAY-LÈS-TOURS FR,47.350358,0.70032,Chambray-lès-Tours,37170
32 rue de l'Église – 2 place Lénine 94500 CHAMPIGNY-SUR-MARNE FR,48.811764,2.511368,Champigny-sur-Marne,94500
990 rue de l'Arêtier 16430 CHAMPNIERS FR,45.685579,0.178228,Champniers,16430
"Parc commercial CLOS DU CHENE, avenue de la Ferme Briarde 77600 CHANTELOUP-EN-BRIE FR",48.856019,2.753518,Chanteloup-en-Brie,77600
41 cours Briand 08000 CHARLEVILLE-MÉZIÈRES FR,49.76941,4.719709,Charleville-Mézières,08000
Z.I. rue de la Plaine 02400 CHATEAU-THIERRY FR,49.034244,3.391638,Château-Thierry,02400
12 cours Carnot 13160 CHÂTEAURENARD FR,43.882514,4.854187,Châteaurenard,13160
49-51 avenue de la Division Leclerc 92290 CHÂTENAY-MALABRY FR,48.761843,2.286838,Châtenay-Malabry,92290
5 boulevard Ampère 79180 CHAURAY FR,46.339625,-0.382122,Chauray,79180
Zone Commerciale Leclerc - 8 rue Henri Paul Spaak 49120 CHEMILLÉ-EN-ANJOU FR,47.209286,-0.727525,Chemillé-en-Anjou,49120
52 bis rue Longvic 21300 CHENÔVE FR,47.284964,5.021763,Chenôve,21300
48 bis boulevard Robert Schuman 50100 CHERBOURG FR,49.636129,-1.625882,Cherbourg-en-Cotentin,50100
35 avenue Edmond Michelet 49300 CHOLET FR,47.07391,-0.843867,Cholet,49300
62 avenue Jean Jaurès 92140 CLAMART FR,48.803737,2.265857,Clamart,92140
Shopping Promenade 77410 CLAYE-SOUILLY FR,48.94585,2.688381,Claye-Souilly,77410
103 route de Rouffach 68000 COLMAR FR,48.064228,7.34066,Colmar,68000
3 quai Carnot 29900 CONCARNEAU FR,47.874336,-3.918134,Concarneau,29900
10 rue Maurice Berteaux 78700 CONFLANS-SAINTE-HONORINE FR,48.991989,2.090925,Conflans-Sainte-Honorine,78700
Place de Cantorbery 62231 COQUELLES FR,50.93755,1.809907,Coquelles,62231
C.C. Carrefour Villabé 91100 CORBEIL-ESSONNES FR,48.592419,2.458998,Villabé,91100
ZAC - 2 rue des Alleux 51350 CORMONTREUIL FR,49.215088,4.049994,Cormontreuil,51350
2-4 place du Marché - 16 rue du Marché 77120 COULOMMIERS FR,48.814009,3.084249,Coulommiers,77120
C.C. Carrefour Les Bouchardes 71680 CRÊCHES-SUR-SAÔNE FR,46.249726,4.789279,Crêches-sur-Saône,71680
Place de la Prévôté 33670 CRÉON FR,44.77445,-0.348253,Créon,33670
C.C. Carrefour Créteil Soleil 94000 CRÉTEIL FR,48.785869,2.45101,Créteil,94000
162 Route de Toulouse 31270 CUGNAUX FR,43.558421,1.366407,Cugnaux,31270
57 rue de la République 07430 DAVEZIEUX FR,45.255797,4.696506,Davézieux,07430
C.C. Carrefour - La Toison d'Or DIJON FR,47.355813,5.054535,Dijon,21000
5 rue Mably DIJON FR,46.085925,4.062934,Mably,42300
52 bis rue Longvic DIJON FR,47.311065,5.047296,Dijon,21000
C.C. Carrefour DIJON FR,47.322035,5.041478,Dijon,21000
9 place Duclos 22100 DINAN FR,48.453675,-2.048076,Dinan,22100
3 rue Léon Bel - ZAC des Épenottes 39100 DOLE FR,47.107222,5.505664,Dole,39100
514 rue de Paris 59500 DOUAI FR,50.363729,3.078703,Douai,59500
16 Rue Jean Bart 29100 DOUARNENEZ FR,48.093942,-4.329603,Douarnenez,29100
36 boulevard Georges Clémenceau 83300 DRAGUIGNAN FR,43.536013,6.464173,Draguignan,83300
16 rue Nationale 59140 DUNKERQUE FR,51.033666,2.377384,Dunkerque,59140
C.C. E.Leclerc - ZAC de Comboire 38130 ÉCHIROLLES FR,45.147223,5.694049,Échirolles,38130
C.C. Carrefour - Le Pérollier 69130 ÉCULLY FR,45.789757,4.778636,Écully,69130
35  rue du Général de Gaulle 95880 ENGHIEN LES BAINS FR,48.971066,2.307671,Enghien-les-Bains,95880
15 place Léon Bourgeois 51200 ÉPERNAY FR,49.04554,3.954725,Épernay,51200
C.C. Art de Vivre 95610 ÉRAGNY FR,49.023796,2.102019,Éragny,95610
35 place Notre Dame 91150 ÉTAMPES FR,48.434115,2.163188,Étampes,91150
1 rue Charles Corbeau 27000 ÉVREUX FR,49.024536,1.15029,Évreux,27000
6 place Vival 46100 FIGEAC FR,44.608053,2.032768,Figeac,46100
49 rue Saint Louis 59610 FOURMIES FR,50.015712,4.045812,Fourmies,59610
C.C. Carrefour 69340 FRANCHEVILLE FR,45.738024,4.771169,Francheville,69340
C.C. Géant 83600 FRÉJUS FR,43.374062,6.71137,Fréjus,83370
20 rue des Moissons - SILIC 213 - ZAC de la Ceriseraie 94260 FRESNES FR,48.753503,2.330239,Fresnes,94260
14 route de Saurs 81600 GAILLAC FR,43.893405,1.878438,Gaillac,81600
ZI la Palun 57 avenue de Nice 13120 GARDANNE FR,43.450787,5.469014,Gardanne,13120
12 rue de Vienne 27140 GISORS FR,49.280235,1.776942,Gisors,27140
29 Rue de la Paix 69700 GIVORS FR,45.579343,4.737059,Givors,69700
150 cours du Général de Gaulle 33170 GRADIGNAN FR,44.771526,-0.614804,Gradignan,33170
15 rue de la République 38000 GRENOBLE FR,45.190574,5.730047,Grenoble,38000
69 rue du Milieu 59190 HAZEBROUCK FR,50.717098,2.545681,Hazebrouck,59190
C.C. Cora - RN 7 54180 HOUDEMONT FR,48.647165,6.176478,Houdemont,54180
6-8 rue de l'Église 78800 HOUILLES FR,48.925296,2.188428,Houilles,78800
ZAC Le Méridien - route de Pau 65420 IBOS FR,43.239779,0.015476,Ibos,65420
112 avenue de Fontainebleau 94270 KREMLIN-BICÊTRE FR,48.808878,2.362565,Le Kremlin-Bicêtre,94270
ZAC du Pont des Rayons - Bois de Cassan - C.C. Le Grand Val 95290 L'ISLE-ADAM FR,49.123334,2.228131,L'Isle-Adam,95290
146 avenue des Sorgues 84800 L'ISLE-SUR-LA-SORGUE FR,43.931511,5.062952,L'Isle-sur-la-Sorgue,84800
92 rue Moulin aux Moines 72650 LA CHAPELLE-SAINT-AUBIN FR,48.038247,0.176783,La Chapelle-Saint-Aubin,72650
C.C. Carrefour Virebelle 13600 LA CIOTAT FR,43.184897,5.60623,La Ciotat,13600
5 rue du 4 septembre 72400 LA FERTE-BERNARD FR,48.186412,0.648762,La Ferté-Bernard,72400
Carrefour des 4 Chemins 83130 LA GARDE FR,43.137528,6.026269,La Garde,83130
128 rue du Général de Gaulle 59110 LA MADELEINE FR,50.652867,3.073078,La Madeleine,59110
11 bis rue de Dompierre 17000 LA ROCHELLE FR,46.163814,-1.138,La Rochelle,17000
C.C. Auchan - La Trinité 06340 LA TRINITÉ FR,43.742048,7.313958,La Trinité,06340
C.C. Cap Océan 9000 avenue de Verdun 33260 LA-TESTE-DE-BUCH FR,44.636579,-1.152299,La Teste-de-Buch,33260
C.C. Carrefour - Labège 2 31671 LABÈGE FR,43.528982,1.529849,Labège,31670
1 Rue Docteur Calmette 22400 LAMBALLE-ARMOR FR,48.469357,-2.515809,Lamballe,22400
Rue Laennec - Rue de la Marne 29800 LANDERNEAU FR,48.449199,-4.262009,Landerneau,29800
25 rue Louis Pasteur 29400 LANDIVISIAU FR,48.510272,-4.070318,Landivisiau,29400
25 rue François Mauriac 56600 LANESTER FR,47.765597,-3.345618,Lanester,56600
84 cours du Général Leclerc 33210 LANGON FR,44.553451,-0.248108,Langon,33210
C.C. Carrefour - ZAC Île-de-France 02200 LAON FR,49.069367,2.425486,Mareil-en-France,95850
45 rue Albert Thomas 53000 LAVAL FR,48.067482,-0.803162,Laval,53000
75 avenue de Cocagne - Z.A. le Rouch 81500 LAVAUR FR,43.704531,1.799809,Lavaur,81500
20 rue de la Sapinière 54520 LAXOU FR,48.69155,6.128393,Laxou,54520
6 avenue de la Libération Charles de Gaulle 33110 LE BOUSCAT FR,44.854005,-0.593877,Le Bouscat,33110
1990 route Nationale N°7 83340 Le Cannet-des-Maures FR,43.404495,6.344627,Le Cannet-des-Maures,83340
C.C. Super U - Z.A. Port de Pêche 30240 LE GRAU-DU-ROI FR,43.533554,4.146377,Le Grau-du-Roi,30240
28 Place de l'Hôtel de ville 76600 LE HAVRE FR,49.492254,0.109148,Le Havre,76600
C.C. Carrefour LE-MANS FR,42.462065,1.937261,Ur,66760
11 place des Jacobins LE-MANS FR,48.007359,0.19988,Le Mans,72000
92 rue Moulin aux Moines LE-MANS FR,48.035139,0.17938,Le Mans,72000
Family Village LE-MANS FR,42.937677,2.193983,Fa,11260
ZAC La Baronnie 73330 LE PONT-DE-BEAUVOISIN FR,45.530393,5.684825,Le Pont-de-Beauvoisin,73330
24 rue René Lanoy 62300 LENS FR,50.43058,2.83346,Lens,62300
C.C. Carrefour - La Pioline 13290 LES MILLES FR,48.483567,4.611764,Lentilles,10330
2 rue des Romains 11200 LÉZIGNAN-CORBIÈRES FR,43.185599,2.7554,Lézignan-Corbières,11200
187 avenue du Maréchal Foch 33500 LIBOURNE FR,44.926747,-0.239758,Libourne,33500
C.C. Euralille 59000 LILLE FR,50.637721,3.073728,Lille,59777
44 rue Pont Mortain 14100 LISIEUX FR,49.143491,0.226755,Lisieux,14100
15 avenue des Frais Fonds 62219 LONGUENESSE FR,50.736174,2.274548,Longuenesse,62219
3 rue de l'Assemblée Nationale 56100 LORIENT FR,47.748481,-3.363199,Lorient,56100
Parc des Crozes 26270 LORIOL FR,44.758774,4.833698,Loriol-sur-Drôme,26270
C.C. Carrefour - 4 Pavillons 33310 LORMONT FR,44.868829,-0.5193,Lormont,33310
3 rue de Moncontour 22600 LOUDÉAC FR,48.177001,-2.755495,Loudéac,22600
121 boulevard de la République 34400 LUNEL FR,43.676831,4.131063,Lunel,34400
40 Grande rue de Vaise 69009 LYON FR,45.772859,4.842138,Lyon,69006
62 avenue Jean Jaurès 69007 LYON FR,45.748681,4.843737,Lyon,69007
48 avenue Maréchal de Saxe 69006 LYON FR,45.764671,4.844558,Lyon,69006
116 avenue des Frères Lumière 69008 LYON FR,45.744251,4.869332,Lyon,69008
Avenue Édouard Herriot - ZAC Carrefour de l'Europe 71000 MÂCON FR,46.296937,4.823395,Mâcon,71000
ZI Les Tourrades - allée Dieudonné Costes 06210 MANDELIEU-LA-NAPOULE FR,43.556653,6.952779,Mandelieu-la-Napoule,06210
6 allée Alphonse Daudet 04100 MANOSQUE FR,43.827704,5.781738,Manosque,04100
4 rue du Vieux Pilori 78200 MANTES-LA-JOLIE FR,48.990215,1.716452,Mantes-la-Jolie,78200
C.C. les Grandes Terres - lot 670 78160 MARLY-LE-ROI FR,48.879846,2.099839,Marly-le-Roi,78160
1 rue de l'Union - Village des Voiles 2 59520 MARQUETTE-LEZ-LILLE FR,50.680573,3.062361,Marquette-lez-Lille,59520
C.C. Auchan Saint Loup 13010 MARSEILLE FR,43.275872,5.434552,Marseille,13010
88 rue Montaigne 13012 MARSEILLE FR,43.30399,5.415989,Marseille,13012
C.C. Géant Croix Rouge - Chemin du Vallon Vert 13013 MARSEILLE FR,43.335417,5.454283,Marseille,13013
8 avenue Jules Cantini 13006 MARSEILLE FR,43.285059,5.385175,Marseille,13006
16 boulevard du 14 juillet 13500 MARTIGUES FR,43.408644,5.055521,Martigues,13500
C.C. Carrefour - Marzy 58180 MARZY FR,46.984964,3.072361,Marzy,58180
C.C. Cora 91300 MASSY FR,48.72645,2.264466,Massy,91300
Rond-point Laurent Schwartz 78310 MAUREPAS FR,48.759601,1.918241,Maurepas,78310
13 boulevard du Général Leclerc 53100 MAYENNE FR,48.300319,-0.612812,Mayenne,53100
34 rue du Commandant Berge 77100 MEAUX FR,48.956008,2.879449,Meaux,77100
39 avenue de la Marne 33700 MÉRIGNAC FR,44.837897,-0.619207,Mérignac,33700
C.C. Les 3 Villes Sœurs 80350 MERS-LES-BAINS FR,50.05932,1.407149,Mers-les-Bains,80350
ZAC Les Marquises 60110 MÉRU FR,49.240529,2.131343,Méru,60110
C.C. Cora - Metz Technopôle 57070 METZ FR,49.13363,6.202202,Saint-Julien-lès-Metz,57070
56 rue de la République 69330 MEYZIEU FR,45.76663,5.001753,Meyzieu,69330
37 avenue Charles de Gaulle 13140 MIRAMAS FR,43.583038,5.001352,Miramas,13140
36 place de l'Hôtel de Ville 67120 MOLSHEIM FR,48.541544,7.492111,Molsheim,67120
1265 avenue de l'Abbaye - ZAC Sapiac 82000 MONTAUBAN FR,44.003602,1.356074,Montauban,82000
ZAC - Centre Espace 1 - RD 562 83440 MONTAUROUX FR,43.608177,6.766719,Montauroux,83440
202 route de Marseille 26200 MONTÉLIMAR FR,44.534243,4.745934,Montélimar,26200
C.C. Carrefour 78360 MONTESSON FR,48.910085,2.142651,Montesson,78360
C.C. Saint Quentin - 12 Rue Colbert 78180 MONTIGNY-LE-BRETONNEUX FR,48.782275,2.043425,Montigny-le-Bretonneux,78180
121 rue de Pont-à-Mousson 57950 MONTIGNY-LÈS-METZ FR,49.10139,6.155471,Montigny-lès-Metz,57950
1200 avenue de Toulouse 34000 MONTPELLIER FR,43.59254,3.858807,Montpellier,34070
ZAC du Chêne Vert 72500 MONTVAL SUR LOIR FR,47.708058,0.439621,Montval-sur-Loir,72500
C.C. Intermarché Super - Zone du Bronut 56500 MORÉAC FR,47.892841,-2.833239,Moréac,56500
5 Place de la Paix 31600 MURET FR,43.460958,1.325272,Muret,31600
C.C. Saint Sébastien 54000 NANCY FR,48.688346,6.180936,Nancy,54000
3 rue de la Barillerie 44000 NANTES FR,47.21533,-1.555135,Nantes,44000
4 Rue Alfred Chauchard 11100 NARBONNE FR,43.179019,3.030174,Narbonne,11100
32 bis rue de Paris 77140 NEMOURS FR,48.267324,2.695859,Nemours,77140
C.C. Intermarché - Les Bords de Loire - rue Bernard Palissy 58000 NEVERS FR,46.985455,3.174349,Nevers,58000
C.C. Nice Lingostière NICE FR,42.462065,1.937261,Ur,66760
C.C. Nicetoile - 24 avenue Jean Médecin NICE FR,42.462065,1.937261,Ur,66760
C.C. Cap 3000 NICE FR,42.462065,1.937261,Ur,66760
C.C. Auchan - La Trinité NICE FR,42.462065,1.937261,Ur,66760
34 boulevard Gambetta 30000 NÎMES FR,43.840311,4.359179,Nîmes,30000
Place de la brèche - 7 avenue Jacques Bujault 79000 NIORT FR,46.322267,-0.456912,Niort,79000
10 Rue Eugène Galbrun 94130 NOGENT-SUR-MARNE FR,48.83837,2.487998,Nogent-sur-Marne,94130
40 rue Saint Martin 84100 ORANGE FR,44.136632,4.805812,Orange,84100
Rue Anthelme Brillat Savarin - ZA Expo Sud - rue des Chèvres Noires ORLEANS FR,47.87421,1.911459,Orléans,45100
26 place du Général de Gaulle ORLEANS FR,47.901663,1.902982,Orléans,45000
103-117 rue des Frères Lumière ORLEANS FR,42.937677,2.193983,Fa,11260
C.C. de l'Oseraie - Chemin du Poirier 95520 OSNY FR,49.075903,2.083359,Osny,95520
74 Grande Rue 69600 OULLINS FR,45.716318,4.809559,Oullins,69600
1 avenue Secrétan 75019 PARIS FR,48.882452,2.370712,Paris,75019
112 rue Jean de La Fontaine 75016 PARIS FR,48.848775,2.265638,Paris,75016
102 Rue Ordener 75018 PARIS FR,48.893048,2.341322,Paris,75018
104 avenue des Champs Elysées PARIS-8 FR,48.871987,2.30182,Paris,75008
82/84 boulevard Haussmann PARIS-8 FR,46.91456,4.633766,Paris-l'Hôpital,71150
57 bis rue de Tocqueville PARIS-8 FR,48.885625,2.309864,Paris,75017
98 Avenue de Clichy PARIS-8 FR,48.889176,2.322778,Paris,75017
5 rue Pierre Brossolette PARIS-8 FR,48.841994,2.347079,Paris,75005
112 rue Jean de La Fontaine PARIS-8 FR,48.848775,2.265638,Paris,75016
102 Rue Ordener PARIS-8 FR,48.893048,2.341322,Paris,75018
50 avenue du Général Leclerc PARIS-8 FR,48.830512,2.328908,Paris,75014
138 rue la Fayette PARIS-8 FR,48.878544,2.354509,Paris,75010
C.C. Les 4 Temps PARIS-8 FR,48.856617,2.35224,Paris,75000
57 bis rue de Tocqueville 75017 PARIS FR,48.885625,2.309864,Paris,75017
242 rue des Pyrénées 75020 PARIS FR,48.867978,2.396238,Paris,75020
128 rue du Faubourg Saint Antoine 75012 PARIS FR,48.85061,2.378663,Paris,75012
50 avenue du Général Leclerc 75014 PARIS FR,48.830512,2.328908,Paris,75014
95 rue Petit 75019 PARIS FR,48.886381,2.392424,Paris,75019
98 Avenue de Clichy 75017 PARIS FR,48.889176,2.322778,Paris,75017
138 rue la Fayette 75010 PARIS FR,48.878544,2.354509,Paris,75010
8 rue du Maréchal-Foch 64000 PAU FR,43.296844,-0.367122,Pau,64000
ZAC - 1  chemin du Desteil  - lieudit Saint Pierre 04200 PEIPIN FR,44.144263,5.957312,Peipin,04200
C.C. Leclerc Polygone 66000 PERPIGNAN FR,42.733631,2.889858,Perpignan,66000
436 rue Léonard de Vinci 84120 PERTUIS FR,43.682365,5.503133,Pertuis,84120
8 avenue Jean Jaurès 33600 PESSAC FR,44.806183,-0.63039,Pessac,33600
ZAC Les Rodettes - 3 rue Jean-Pierre Lagarde 34120 PÉZENAS FR,43.446821,3.411781,Pézenas,34120
ZAC du Plateau 22190 PLÉRIN FR,48.561115,-2.752247,Plérin,22190
Rue d'Argoat 56270 PLOEMEUR FR,47.733271,-3.429542,Ploemeur,56270
29 rue du Lac 56800 PLOËRMEL FR,47.937638,-2.404569,Ploërmel,56800
C.C. Carrefour - RN4 77340 PONTAULT-COMBAULT FR,48.801038,2.596033,Pontault-Combault,77340
C.C. E.Leclerc - l'Europe 44210 PORNIC FR,47.112799,-2.131808,Pornic,44210
C.C. Grand Sud 20137 PORTO-VECCHIO FR,41.591384,9.278307,Porto-Vecchio,20137
21 rue de la Cordonnerie 77160 PROVINS FR,48.560494,3.300594,Provins,77160
40 rue du 18 Juin 17138 PUILBOREAU FR,46.176176,-1.110725,Puilboreau,17138
C.C. Les 4 Temps 92800 PUTEAUX FR,48.880462,2.239515,Puteaux,92800
C.C. Carrefour 21800 QUETIGNY FR,47.312491,5.121192,Quetigny,21800
Route du Loc'h - Parc Commercial du Loc'h QUIMPER FR,48.017448,-4.085629,Quimper,29000
47 rue Saint Mathieu - place du 118ème QUIMPER FR,47.995222,-4.108824,Quimper,29000
Parking du C.C. Cora - Val d'Yerres 2 91480 QUINCY-SOUS-SÉNART FR,48.671423,2.546069,Quincy-sous-Sénart,91480
5 rue des États 35600 REDON FR,47.651126,-2.085041,Redon,35600
4 rue André Chaillot 51100 REIMS FR,49.287592,4.025886,Reims,51100
C.C. Les 3 Soleils - 18 rue d'Isly 35000 RENNES FR,48.10625,-1.677772,Rennes,35000
2 avenue de Castres 31250 REVEL FR,43.460689,2.005444,Revel,31250
C.C. Carrefour Market 42800 RIVE-DE-GIER FR,45.520887,4.619562,Rive-de-Gier,42800
34 avenue Charles de Gaulle 17300 ROCHEFORT FR,45.93552,-0.962333,Rochefort,17300
72 place Jean Jaurès 26100 ROMANS-SUR-ISÈRE FR,45.045953,5.050421,Romans-sur-Isère,26100
9 rue de la Boule d'Or 10100 ROMILLY-SUR-SEINE FR,48.518751,3.726529,Romilly-sur-Seine,10100
ZAC des Châtaigniers - Bât. L'Arc 83520 ROQUEBRUNE-SUR-ARGENS FR,43.466661,6.629361,Roquebrune-sur-Argens,83380
154 avenue du Général de Gaulle - C.C. Rosny2 93110 ROSNY-SOUS-BOIS FR,48.885559,2.47264,Rosny-sous-Bois,93110
3 rue Grand Pont 76000 ROUEN FR,49.438556,1.091925,Rouen,76000
Zone du Louradou 31180 ROUFFIAC-TOLOSAN FR,43.671412,1.512293,Rouffiac-Tolosan,31180
Family Village 72230 RUAUDIN FR,47.944462,0.264609,Ruaudin,72230
18 rue Hervet 92500 RUEIL-MALMAISON FR,48.87659,2.180045,Rueil-Malmaison,92500
19 rue Charles de Gaulle 74150 Rumilly FR,45.866956,5.944324,Rumilly,74150
49 rue de la Métairie Neuve 22200 SAINT-AGATHON FR,48.560895,-3.127979,Saint-Agathon,22200
240 rue Aristide Boucicaut - ZAC Ecoparc 33240 SAINT-ANDRÉ-DE-CUBZAC FR,45.012726,-0.428466,Saint-André-de-Cubzac,33240
22 place des Ursules 42000 SAINT-ÉTIENNE FR,45.435315,4.387582,Saint-Étienne,42000
Espace 23 - 396 boulevard de la Prairie 44150 SAINT-GÉRÉON FR,47.373657,-1.19082,Saint-Géréon,44150
281 route de Vannes 44800 SAINT-HERBLAIN FR,47.24486,-1.600939,Saint-Herblain,44800
24 boulevard Victor Hugo 64500 SAINT-JEAN-DE-LUZ FR,43.387928,-1.660161,Saint-Jean-de-Luz,64500
C.C. Cap 3000 06700 SAINT-LAURENT-DU-VAR FR,43.659608,7.197365,Saint-Laurent-du-Var,06700
16 place Général de Gaulle 50000 SAINT-LÔ FR,49.11572,-1.091926,Saint-Lô,50000
6 avenue des Pyrénées 31470 SAINT-LYS FR,43.511267,1.173456,Saint-Lys,31470
62 rue de la Pie 35400 SAINT-MALO FR,48.632848,-2.00788,Saint-Malo,35400
ZAC - 4 avenue de Romans 38160 SAINT-MARCELLIN FR,45.146738,5.310944,Saint-Marcellin,38160
Rue Goarem Vraz 29600 SAINT-MARTIN-DES-CHAMPS FR,48.578044,-3.861086,Saint-Martin-des-Champs,29600
80 rue de la Bastille 60740 SAINT-MAXIMIN FR,49.234185,2.468341,Saint-Maximin,60740
C.C. E.Leclerc 33160 SAINT-MÉDARD-EN-JALLES FR,44.88779,-0.703793,Saint-Médard-en-Jalles,33160
ZAC - 23b aire des Moissons 10410 SAINT-PARRES-AUX-TERTRES FR,48.293337,4.1295,Saint-Parres-aux-Tertres,10410
767 avenue Gross Umstadt 07130 SAINT-PERAY FR,44.9419,4.861103,Saint-Péray,07130
C.C. de Keringant 22700 SAINT-QUAY-PERROS FR,48.779961,-3.451749,Saint-Quay-Perros,22700
25-27 rue Raspail 02100 SAINT-QUENTIN FR,49.848915,3.287375,Saint-Quentin,02100
C.C. E.Leclerc - boulevard de l'Aspé 83700 SAINT-RAPHAËL FR,43.443907,6.811412,Saint-Raphaël,83700
C.C. Carrefour - Les Rives du Lac 29290 SAINT-RENAN FR,48.430355,-4.617259,Saint-Renan,29290
C.C. Intermarché 84110 SAINT-ROMAIN-EN-VIENNOIS FR,44.258538,5.109431,Saint-Romain-en-Viennois,84110
C.C. Auchan 44230 SAINT-SÉBASTIEN-SUR-LOIRE FR,47.203263,-1.523114,Saint-Sébastien-sur-Loire,44230
46 rue de Royan 16710 SAINT-YRIEIX-SUR-CHARENTE FR,45.662237,0.134919,Saint-Yrieix-sur-Charente,16710
70 cours du Maréchal Leclerc 17100 SAINTES FR,45.751899,-0.650308,Saintes,17100
C.C. Carrefour 165 route national 7 38150 SALAISE-SUR-SANNE FR,45.344508,4.810551,Salaise-sur-Sanne,38150
7 cours Carnot 13300 SALON-DE-PROVENCE FR,43.641254,5.096861,Salon-de-Provence,13300
C.C. Carrefour - 3 Rue de la Horionne 95110 SANNOIS FR,48.96576,2.254811,Sannois,95110
103-117 rue des Frères Lumière 45770 SARAN FR,47.963947,1.887056,Saran,45770
C.C. Grand Ajaccio Baléone - Z.I. de Baléone 20167 SARROLA-CARCOPINO FR,41.955867,8.8036,Sarrola-Carcopino,20167
C.C. Carrefour 78500 SARTROUVILLE FR,48.930079,2.166143,Sartrouville,78500
57 rue d'Orléans 49400 SAUMUR FR,47.258856,-0.079371,Saumur,49400
140 route de Bischwiller 67300 SCHILTIGHEIM FR,48.608352,7.750202,Schiltigheim,67300
C.C. Intermarché 64121 SERRES-CASTET FR,43.369582,-0.361069,Serres-Castet,64121
ZAC des Garrigues 30250 SOMMIÈRES FR,43.768258,4.095701,Sommières,30250
C.C. Auchan - Hautepierre 67200 STRASBOURG FR,48.583128,7.747859,Strasbourg,67000
6 rue de la Pêcherie 69170 TARARE FR,45.895692,4.432552,Tarare,69170
C.C. Auchan 95150 TAVERNY FR,49.020805,2.202448,Taverny,95150
Rue des Auriges - Village Kiabi 57100 THIONVILLE FR,49.358295,6.139914,Thionville,57100
Retail Park - Porte du Dauphiné 38230 TIGNIEU-JAMEYZIEU FR,45.747516,5.184121,Tignieu-Jameyzieu,38230
Route de Soissons - C.C. Carrefour 51430 TINQUEUX FR,49.252337,3.980456,Tinqueux,51430
238 rue Jean Jaurès 83000 TOULON FR,43.124309,5.92926,Toulon,83000
46 allée Jean Jaurès TOULOUSE FR,43.606635,1.450589,Toulouse,31000
C.C. Auchan - Gramont TOULOUSE FR,42.462065,1.937261,Ur,66760
162 Route de Toulouse TOULOUSE FR,43.637655,1.450474,Toulouse,31200
Zone du Louradou TOULOUSE FR,43.604637,1.44421,Toulouse,31000
C.C. Carrefour - Labège 2 TOULOUSE FR,43.563459,1.501403,Toulouse,31400
ZAC Tours Nord 37100 TOURS FR,47.394145,0.684842,Tours,37000
24 rue des Perreyeux 49800 TRÉLAZÉ FR,47.457158,-0.511518,Trélazé,49800
119 avenue Michel Grandou 24750 TRÉLISSAC FR,45.190233,0.743226,Trélissac,24750
C.C. Auchan Aéroville 93290 TREMBLAY-EN-FRANCE FR,48.951113,2.568431,Tremblay-en-France,93290
21 boulevard du 14 Juillet 10000 TROYES FR,48.293861,4.07813,Troyes,10000
26 rue du Mené VANNES FR,47.658266,-2.760856,Vannes,56000
34 rue Aristide Boucicaut VANNES FR,47.658266,-2.760856,Vannes,56000
ZAC de Vauchelles 80132 VAUCHELLES-LES-QUESNOY FR,50.097096,1.868964,Vauchelles-les-Quesnoy,80132
ZAC Côte Soleil - C.C. Intermarché 30600 VAUVERT FR,43.708145,4.269292,Vauvert,30600
C.C. Les Portes de Soissons - Local 13 02200 VAUXBUIN FR,49.380427,3.324175,Soissons,02200
C.C. Vélizy 2 - Niveau bas 78140 VÉLIZY-VILLACOUBLAY FR,48.780816,2.22032,Vélizy-Villacoublay,78140
ZAC de Venette 60280 VENETTE FR,49.412381,2.799654,Venette,60280
C.C. Carrefour 69200 VÉNISSIEUX FR,45.704926,4.8828,Vénissieux,69200
L'Espace Santé - 4 rue Coteau - lieu-dit le Razat 69390 VERNAISON FR,45.658534,4.813591,Vernaison,69390
24 rue du Soleil 27200 VERNON FR,49.09182,1.483734,Vernon,27200
C.C. Hyper U 28500 VERNOUILLET FR,48.720637,1.355874,Vernouillet,28500
Rue de l'Université 62113 VERQUIGNEUL FR,50.515198,2.659581,Verquigneul,62113
C.C. Cora - Boulevard Kennedy 70000 VESOUL FR,47.622709,6.170459,Vesoul,70000
Chemin Rural - 18 rue de Briis 91140 VILLEBON-SUR-YVETTE FR,48.70518,2.252653,Villebon-sur-Yvette,91140
Promenade du Guiraudet 12200 VILLEFRANCHE-DE-ROUERGUE FR,44.34984,2.036359,Villefranche-de-Rouergue,12200
178 rue Nationale 69400 VILLEFRANCHE-SUR-SAÔNE FR,45.993735,4.718865,Villefranche-sur-Saône,69400
C.C. Carrefour 94800 VILLEJUIF FR,48.782742,2.36473,Villejuif,94800
C.C. E.Leclerc - RD 32 31340 VILLEMUR-SUR-TARN FR,43.854286,1.498579,Villemur-sur-Tarn,31340
C.C. Géant Casino 33140 VILLENAVE-D'ORNON FR,44.758537,-0.584335,Villenave-d'Ornon,33140
14 avenue Henri Barbusse 69100 VILLEURBANNE FR,45.768723,4.879294,Villeurbanne,69100
48 rue Bernard Palissy 41350 VINEUIL FR,47.57053,1.369825,Vineuil,41350
88 avenue du Général Leclerc 78220 VIROFLAY FR,48.804143,2.173797,Viroflay,78220
C.C. Carrefour Grand Vitrolles 13127 VITROLLES FR,43.460388,5.250108,Vitrolles,13127
74 avenue Danielle Casanova 94400 VITRY-SUR-SEINE FR,48.791503,2.394987,Vitry-sur-Seine,94400
Centre Mathis - rue Jean Monnet 22120 YFFINIAC FR,48.480602,-2.652466,Yffiniac,22120
