shop_name,address,latitude,longitude,city,postcode
Amplifon Audioprothésiste Aix les Bains,11 avenue De Verdun 73100 Aix les Bains,45.690718,5.910551,Aix-les-Bains,73100
Amplifon Audioprothésiste Albertville,57 rue de la République 73200 Albertville,45.676216,6.390093,Albertville,73200
Amplifon Audioprothésiste Ambérieu,18 rue Alexandre Bérard 01500 Ambérieu en Bugey,45.958924,5.358467,Ambérieu-en-Bugey,01500
Amplifon Audioprothésiste Ambert,2 rue de la République 63600 Ambert,45.549808,3.740725,Ambert,63600
Amplifon Audioprothésiste Amilly,802 C Avenue d’Antibes 45200 Amilly,47.980067,2.732994,Amilly,45200
Amplifon Audioprothésiste Amphion,1052 avenue Rive 74500 Amphion les Bains,46.402933,6.611617,Évian-les-Bains,74500
Amplifon Audioprothésiste Andrézieux Bouthéon,10 avenue de Saint Etienne - Espace Ambroise Paré 42160 Andrézieux Bouthéon,45.526378,4.264593,Andrézieux-Bouthéon,42160
Amplifon Audioprothésiste Annecy,15 rue du Président Favre 74000 Annecy,45.902918,6.126141,Annecy,74000
Amplifon Audioprothésiste Annecy-le-Vieux,9 rue des Ecoles 74940 Annecy le Vieux,49.106897,-0.433965,Vieux,14930
Amplifon Audioprothésiste Annemasse,4 rue René Blanc 74100 Annemasse,46.193877,6.236675,Annemasse,74100
Amplifon Audioprothésiste Aubenas,2 boulevard de Vernon 07200 Aubenas,44.619552,4.388471,Aubenas,07200
Amplifon Audioprothésiste Balbigny,14 rue de la République 42510 Balbigny,45.81782,4.185234,Balbigny,42510
Amplifon Audioprothésiste Beaurepaire,45 rue de la République 38270 Beaurepaire,45.33865,5.055019,Beaurepaire,38270
Amplifon Audioprothésiste Bellegarde,5 rue Bertola 01200 Bellegarde Sur Valserine,46.107948,5.825542,Bellegarde-sur-Valserine,01200
Amplifon Audioprothésiste Belleville,20 rue de la Poste 69220 Belleville,46.10946,4.750086,Belleville,69220
Amplifon Audioprothésiste Boëge,"79, place des Marronniers 74420 Boëge",46.208725,6.405199,Boëge,74420
Amplifon Audioprothésiste Bons-en-Chablais,113 avenue du Leman 74890 Bons-en-Chablais,46.265359,6.372115,Bons-en-Chablais,74890
Amplifon Audioprothésiste Bourg en Bresse,3 rue Bernard 01000 Bourg en Bresse,46.205467,5.228148,Bourg-en-Bresse,01000
Amplifon Audioprothésiste Bourg les Valence,4 avenue Jean Moulin - Centre Commercial Le Cyrano 26500 Bourg les Valence,44.948233,4.897791,Bourg-lès-Valence,26500
Amplifon Audioprothésiste Bourgoin Folatière,23 avenue Maréchal Leclerc - Immeuble Le Kerylos BP87 38300 Bourgoin Jallieu,45.587028,5.281142,Bourgoin-Jallieu,38300
Amplifon Audioprothésiste Bron,150 avenue Franklin Roosevelt 69500 Bron,45.733302,4.908991,Bron,69500
Amplifon Audioprothésiste Bugey Belley,16 Grande rue 01300 Belley,45.760155,5.687181,Belley,01300
Amplifon Audioprothésiste Caluire,2 ter chemin de Crépieux 69300 Caluire et Cuire,45.80055,4.849347,Caluire-et-Cuire,69300
Amplifon Audioprothésiste Cebazat,7 Avenue du 8 Mai 1945 63 118 Cébazat,45.830406,3.102969,Cébazat,63118
Amplifon Audioprothésiste Challes-les-Eaux,1331 place de l’Europe 73190 Challes les Eaux,45.550873,5.984939,Challes-les-Eaux,73190
Amplifon Audioprothésiste Chamalières,35 avenue de Royat 63400 Chamalières,45.775817,3.06856,Chamalières,63400
Amplifon Audioprothésiste Chambéry,6 rue Saint Antoine 73000 Chambéry,45.567343,5.91989,Chambéry,73000
Amplifon Audioprothésiste Chamonix,34 rue du Docteur Paccard 74400 Chamonix,45.922676,6.868954,Chamonix-Mont-Blanc,74400
Amplifon Audioprothésiste Champagne au Mont d'Or,75 avenue Lanessan 69410 Champagne au Mont D'Or,45.795858,4.791518,Champagne-au-Mont-d'Or,69410
Amplifon Audioprothésiste Clermont Ferrand,74 avenue de la République 63000 Clermont Ferrand,45.786339,3.103917,Clermont-Ferrand,63100
Amplifon Audioprothésiste Cluses,13 bis rue Francois Curt 74300 Cluses,46.059333,6.580856,Cluses,74300
Amplifon Audioprothésiste Cournon d'Auvergne,50 bis avenue de la Liberation 63800 Cournon d'Auvergne,45.731664,3.191391,Cournon-d'Auvergne,63800
Amplifon Audioprothésiste Craponne Aqueduc,118 voie Romaine 69290 Craponne,45.750751,4.740794,Craponne,69290
Amplifon Audioprothésiste Craponne Centre,102 avenue Pierre Dumond 69290 Craponne,45.747416,4.721378,Craponne,69290
Amplifon Audioprothésiste Crémieu,5 rue Porcherie 38460 Crémieu,45.724549,5.253631,Crémieu,38460
Amplifon Audioprothésiste Crolles,Centre Commercial Belledonne 38920 Crolles,45.285,5.887038,Crolles,38920
Amplifon Audioprothésiste Decines Charpieu,253 avenue Jean Jaurès 69150 Decines Charpieu,45.771019,4.963122,Décines-Charpieu,69150
Amplifon Audioprothésiste Divonne,70 rue Voltaire 01220 DIVONNE LES BAINS,46.355166,6.137381,Divonne-les-Bains,01220
Amplifon Audioprothésiste Douvaine,6 avenue de Genève 74140 Douvaine,46.305418,6.300462,Douvaine,74140
Amplifon Audioprothésiste Echirolles,46 avenue du 8 Mai 1945 38130 Echirolles,45.149015,5.717638,Échirolles,38130
Amplifon Audioprothésiste Firminy,16 place du Breuil 42700 Firminy,45.388377,4.288153,Firminy,42700
Amplifon Audioprothésiste Fontaine,58 avenue Aristide Briand 38600 Fontaine,45.189395,5.693294,Fontaine,38600
Amplifon Audioprothésiste Genas,42 rue de la République 69740 Genas,45.731706,4.99959,Genas,69740
Amplifon Audioprothésiste Grenoble Foch,14 boulevard Maréchal Foch 38000 Grenoble,45.181579,5.725468,Grenoble,38000
Amplifon Audioprothésiste Guilherand Granges,227 avenue de la République 07500 Guilherand Granges,44.933044,4.879592,Guilherand-Granges,07500
Amplifon Audioprothésiste Hauteville-Lompnes,55 rue Masonod - chez Vision Plus 01110 Hauteville-Lompnes,45.978722,5.599709,Hauteville-Lompnes,01110
Amplifon Audioprothésiste Issoire,5 rue de la place d'Espagne 63500 Issoire,45.54475,3.245988,Issoire,63500
Amplifon Audioprothésiste L'Arbresle,17 rue Gabriel Péri 69210 L'Arbresle,45.834365,4.615334,L'Arbresle,69210
Amplifon Audioprothésiste La Côte Saint André,61 rue de la République 38260 La Côte Saint André,45.3933,5.260604,La Côte-Saint-André,38260
Amplifon Audioprothésiste La Verpillière,53 rue de la République 38290 La Verpilliere,45.633473,5.147899,La Verpillière,38290
Amplifon Audioprothésiste Lagnieu,15 rue Pasteur 01150 Lagnieu,45.903899,5.349015,Lagnieu,01150
Amplifon Audioprothésiste Lapalisse,7 rue Winston Churchill - Chez l'opticien Optique Sollier SAS 03120 Lapalisse,46.248632,3.635428,Lapalisse,03120
Amplifon Audioprothésiste Le Chambon,25 rue Gambetta - Chez Hervé Optique 42500 Le Chambon-Feugerolles,45.396624,4.327733,Le Chambon-Feugerolles,42500
Amplifon Audioprothésiste Le Pont de Beauvoisin,22 place du Professeur Trillat 38480 Le Pont de Beauvoisin,45.534974,5.670286,Le Pont-de-Beauvoisin,38480
Amplifon Audioprothésiste Le Puy en Velay,33 place du Breuil 43000 Le Puy en Velay,45.042092,3.884544,Le Puy-en-Velay,43000
Amplifon Audioprothésiste Le Teil,Entre Pont et Rhône - Chez Espace Optique Chazalon 07400 Le Teil,44.554308,4.689785,Le Teil,07400
Amplifon Audioprothésiste Les Vans,Place Ollier 07140 Les Vans,44.405507,4.131114,Les Vans,07140
Amplifon Audioprothésiste Lyon 7 Gambetta,118 cours Gambetta 69007 Lyon,45.75101,4.855037,Lyon,69007
Amplifon Audioprothésiste Lyon 8 Etats Unis,71 boulevard des Etats-Unis 69008 Lyon,45.733328,4.864883,Lyon,69008
Amplifon Audioprothésiste Lyon 8 Monplaisir,52 avenue des Frères Lumière 69008 Lyon,45.745573,4.864346,Lyon,69008
Amplifon Audioprothésiste Lyon Aqueducs,3 rue des Aqueducs 69005 Lyon,45.756827,4.796575,Lyon,69005
Amplifon Audioprothésiste Lyon Croix Rousse,87 boulevard de La Croix Rousse - BP 4257 69004 Lyon,45.773945,4.82418,Lyon,69004
Amplifon Audioprothésiste Lyon La Part Dieu,163 cours Lafayette 69006 Lyon,45.763755,4.855465,Lyon,69006
Amplifon Audioprothésiste Lyon Montchat,77 cours du Docteur Long 69003 Lyon,45.750266,4.886542,Lyon,69003
Amplifon Audioprothésiste Lyon Point du jour,50 avenue du point du jour 69005 Lyon,45.756549,4.799323,Lyon,69005
Amplifon Audioprothésiste Lyon Voir et Entendre,5 Place des Cordeliers 69002 Lyon,45.763653,4.837864,Lyon,69002
Amplifon Audioprothésiste Meximieux,"39 rue de Lyon - Chez Krys, c.c. Carrefour Market 01800 Meximieux",45.901227,5.190053,Meximieux,01800
Amplifon Audioprothésiste Meylan,42 avenue de la Plaine Fleurie 38240 Meylan,45.203438,5.76044,Meylan,38240
Amplifon Audioprothésiste Meyzieu,69 rue de la République 69330 Meyzieu,45.766851,5.002241,Meyzieu,69330
Amplifon Audioprothésiste Mions,rue du 19 Mars 1962 - Centre Commercial La Halle 69780 Mions,45.666093,4.957529,Mions,69780
Amplifon Audioprothésiste Montbrison,6 rue Notre Dame 42600 Montbrison,45.605944,4.065719,Montbrison,42600
Amplifon Audioprothésiste Montluçon,10 avenue Jules Ferry 03100 Montluçon,46.339679,2.599166,Montluçon,03100
Amplifon Audioprothésiste Montrond-les-Bains,38 rue de l'Eglise 42210 Montrond-les-Bains,45.64309,4.227805,Montrond-les-Bains,42210
Amplifon Audioprothésiste Moulins,58 place d'Allier 03000 Moulins,46.564816,3.330608,Moulins,03000
Amplifon Audioprothésiste Neuville,45 rue de la République 69250 Neuville,45.875451,4.840075,Neuville-sur-Saône,69250
Amplifon Audioprothésiste Nyons,42 avenue Henri Rochier 26110 Nyons,44.361617,5.13662,Nyons,26110
Amplifon Audioprothésiste Optique Mornant,15 avenue du Souvenir - Chez Optique Mornant 69440 Mornant,45.620822,4.673498,Mornant,69440
Amplifon Audioprothésiste Oullins,150 Grande rue 69600 Oullins,45.713737,4.805573,Oullins,69600
Amplifon Audioprothésiste Oyonnax,21 rue Michelet 01100 Oyonnax,46.259493,5.654517,Oyonnax,01100
Amplifon Audioprothésiste Pierrelatte,8 boulevard Maréchal Juin - Centre Léonard de Vinci 26700 Pierrelatte,44.376679,4.693241,Pierrelatte,26700
Amplifon Audioprothésiste Pont du Château,chemin de la Lissandre Les Creux 63430 Pont du Château,45.793021,3.230672,Pont-du-Château,63430
Amplifon Audioprothésiste Pontcharra,188 rue Laurent Gayet 38530 Pontcharra,45.432887,6.023576,Pontcharra,38530
Amplifon Audioprothésiste Portes lès Valence,53 rue Jean Jaurès 26800 Portes lès Valence,44.87615,4.877245,Portes-lès-Valence,26800
Amplifon Audioprothésiste Privas,1 rue de la République 07000 Privas,44.734903,4.597651,Privas,07000
Amplifon Audioprothésiste Renaison,554 rue du Collège 42370 Renaison,46.051342,3.931195,Renaison,42370
Amplifon Audioprothésiste Riom,40 place Jean Baptiste Laurent 63200 Riom,45.890614,3.112736,Riom,63200
Amplifon Audioprothésiste Rives,47 rue de la République 38140 Rives sur Fure,45.34939,5.504221,Rives,38140
Amplifon Audioprothésiste Roanne Promenades,4 place des Promenades 42300 Roanne,46.036623,4.067597,Roanne,42300
Amplifon Audioprothésiste Romans,39 rue Pierre Sémard 26100 Romans sur Isère,45.047919,5.049602,Romans-sur-Isère,26100
Amplifon Audioprothésiste Rumilly,9 place Grenette 74150 Rumilly,45.866503,5.94351,Rumilly,74150
Amplifon Audioprothésiste Saint Bonnet de Mure,39 avenue Charles De Gaulle - Chez l'opticien Arn'optic 69720 Saint Bonnet de Mure,45.691238,5.028888,Saint-Bonnet-de-Mure,69720
Amplifon Audioprothésiste Saint Etienne,1 place Dorian 42000 Saint Etienne,45.438558,4.388412,Saint-Étienne,42000
Amplifon Audioprothésiste Saint Etienne La Métare,58 boulevard Alexandre de Fraissinette - Chez L'Atelier de l'Optique 42100 Saint-Etienne,45.418353,4.418243,Saint-Étienne,42100
Amplifon Audioprothésiste Saint Genis Laval,11 rue des Halles 69230 Saint Genis Laval,45.694682,4.793692,Saint-Genis-Laval,69230
Amplifon Audioprothésiste Saint Marcellin,16 Grande rue 38160 Saint Marcellin,45.1542,5.321928,Saint-Marcellin,38160
Amplifon Audioprothésiste Saint-Fons,72 avenue Jean Jaurès 69190 Saint-Fons,45.710355,4.855045,Saint-Fons,69190
Amplifon Audioprothésiste Saint-Genis-Pouilly,1 Rue de Lyon 01630 Saint-Genis-Pouilly,46.242988,6.020334,Saint-Genis-Pouilly,01630
Amplifon Audioprothésiste Saint-Priest,35 boulevard Herriot 69800 Saint-Priest,45.693999,4.935661,Saint-Priest,69800
Amplifon Audioprothésiste Saint-Priest Maréchal,35 bis rue Henri Maréchal 69800 Saint-Priest,45.692776,4.939605,Saint-Priest,69800
Amplifon Audioprothésiste Sallanches,71 rue de Faucigny 74700 Sallanches,45.935602,6.633269,Sallanches,74700
Amplifon Audioprothésiste Tarare,20 avenue Charles de Gaulle 69170 Tarare,45.897467,4.43354,Tarare,69170
Amplifon Audioprothésiste Tassin,67 bis avenue de la République 69160 Tassin la Demi Lune,45.763674,4.776735,Tassin-la-Demi-Lune,69160
Amplifon Audioprothésiste Thiers,9 rue Jean Moulins - Centre Commercial Leclerc galerie des Molles 63300 Thiers,45.848368,3.535276,Thiers,63300
Amplifon Audioprothésiste Thizy,1 place du Commerce 69240 Thizy,46.032265,4.311365,Thizy-les-Bourgs,69240
Amplifon Audioprothésiste Tour du Pin,30 rue Aristide Briand 38110 La Tour du Pin,45.563597,5.444867,La Tour-du-Pin,38110
Amplifon Audioprothésiste Valence,21 rue Chevandier 26000 Valence,44.92765,4.891672,Valence,26000
Amplifon Audioprothésiste Vals les Bains,52 rue Auguste Clément - Chez Vals Optique 07600 Vals les Bains,44.669744,4.369129,Vals-les-Bains,07600
Amplifon Audioprothésiste Vaulx en Velin,39 rue de la République 69120 Vaulx en Velin,45.786496,4.923814,Vaulx-en-Velin,69120
Amplifon Audioprothésiste Veauche,Place de l'Europe - Chez Centr'Optique Surdité 42340 Veauche,45.561676,4.27665,Veauche,42340
Amplifon Audioprothésiste Vénissieux,16 bis rue Gambetta 69200 Vénissieux,45.698879,4.883093,Vénissieux,69200
Amplifon Audioprothésiste Vichy,32 avenue Paul Doumer 03200 Vichy,46.124354,3.425008,Vichy,03200
Amplifon Audioprothésiste Villars les Dombes,134 rue du Commerce 01330 Villars les Dombes,46.00189,5.028608,Villars-les-Dombes,01330
Amplifon Audioprothésiste Villefranche sur Saône,999 rue Nationale 69400 Villefranche sur Saône,45.986348,4.718299,Villefranche-sur-Saône,69400
Amplifon Audioprothésiste Villeurbanne Servet,23 rue Michel Servet 69100 Villeurbanne,45.767868,4.878946,Villeurbanne,69100
Amplifon Audioprothésiste Voiron,11 place de la République 38500 Voiron,45.3676,5.591089,Voiron,38500
Amplifon Audioprothésiste Arbois,47 Grande rue 39600 Arbois,46.903535,5.772661,Arbois,39600
Amplifon Audioprothésiste Audincourt,58 Grande rue - Chez l'opticien Optique Erard 25400 Audincourt,47.482768,6.840152,Audincourt,25400
Amplifon Audioprothésiste Autun,2 rue de Lattre de Tassigny 71400 Autun,46.951743,4.299934,Autun,71400
Amplifon Audioprothésiste Auxerre,127 rue de Paris 89000 Auxerre,47.799676,3.568503,Auxerre,89000
Amplifon Audioprothésiste Auxonne,Rue du Colonel Redoutey - Espace santé 21130 Auxonne,47.192343,5.390079,Auxonne,21130
Amplifon Audioprothésiste Avallon,3 Grande rue Aristide Briand 89200 Avallon,47.489259,3.908055,Avallon,89200
Amplifon Audioprothésiste Bavilliers,29 Grande Rue François Mitterand 90800 Bavilliers,47.620942,6.835533,Bavilliers,90800
Amplifon Audioprothésiste Beaune,26 rue du Faubourg Madeleine 21200 Beaune,47.02104,4.841688,Beaune,21200
Amplifon Audioprothésiste Belfort,3 avenue du Maréchal Foch 90000 Belfort,47.637399,6.858874,Belfort,90000
Amplifon Audioprothésiste Besançon Centre,82 Grande rue 25000 Besançon,47.236505,6.025661,Besançon,25000
Amplifon Audioprothésiste Besançon Lafayette,8 rue Alfred de Vigny - Espace Lafayette 25000 Besançon,47.216254,5.962803,Besançon,25000
Amplifon Audioprothésiste Chalon-sur-Saône,25 boulevard de la République 71100 Chalon sur Saône,46.783386,4.849274,Chalon-sur-Saône,71100
Amplifon Audioprothésiste Champagnole,72 avenue de la République 39300 Champagnole,46.743783,5.910267,Champagnole,39300
Amplifon Audioprothésiste Chauffailles,16 rue Centrale 71170 Chauffailles,46.206872,4.338557,Chauffailles,71170
Amplifon Audioprothésiste Chenove,19 rue Paul Langevin 21300 Chenove,47.283634,5.012178,Chenôve,21300
Amplifon Audioprothésiste Clamecy,4 rue Claude Tillier 58500 Clamecy,47.45913,3.519231,Clamecy,58500
Amplifon Audioprothésiste Cosne Cours sur Loire,14 boulevard de la République 58200 Cosne Cours sur Loire,47.410439,2.9258,Cosne-Cours-sur-Loire,58200
Amplifon Audioprothésiste Decize,33 rue de la République 58300 Decize,46.828728,3.461977,Decize,58300
Amplifon Audioprothésiste Digoin,9 rue du Centre 71160 Digoin,46.480607,3.978745,Digoin,71160
Amplifon Audioprothésiste Dijon Brosses,17 boulevard de Brosses 21000 Dijon,47.324156,5.035653,Dijon,21000
Amplifon Audioprothésiste Dijon Mansart,179 rue d'Auxonne 21000 Dijon,47.307709,5.057612,Dijon,21000
Amplifon Audioprothésiste Dijon Poincaré,13 avenue Raymond Poincaré - Chez Krys Optique Poincaré 21000 Dijon,47.32899,5.059869,Dijon,21000
Amplifon Audioprothésiste Dijon Valmy,3D rue Jeanne Barret - Le Quatuor 21000 Dijon,47.366153,5.050001,Dijon,21000
Amplifon Audioprothésiste Dole,22 boulevard Wilson 39100 Dole,47.096964,5.494423,Dole,39100
Amplifon Audioprothésiste E.Hans Montbéliard,29 rue Georges Clemenceau 25200 Montbéliard,47.51067,6.795776,Montbéliard,25200
Amplifon Audioprothésiste E.Hans Pont de Roide,24 place du Général de Gaulle - Chez Optique Blanc 25150 Pont-de-Roide Pont-de-Roide,47.382199,6.770602,Pont-de-Roide-Vermondans,25150
Amplifon Audioprothésiste Fontaine d'Ouche,Centre Commercial de la Fontaine d'Ouche - Chez l'opticien Optique Blardone 21000 Dijon,47.316322,5.010537,Dijon,21000
Amplifon Audioprothésiste Gueugnon,19 rue de la République 71130 Gueugnon,46.599827,4.066563,Gueugnon,71130
Amplifon Audioprothésiste Le Creusot,73 rue Maréchal Foch 71200 Le Creusot,46.804842,4.43913,Le Creusot,71200
Amplifon Audioprothésiste Lons-le-Saunier,11 place de l’Hôtel de Ville 39000 Lons-le-Saunier,46.675605,5.552653,Lons-le-Saunier,39000
Amplifon Audioprothésiste Louhans,53 Grande Rue - Chez Opticien Générale d'Optique 71500 Louhans,46.629322,5.222826,Louhans,71500
Amplifon Audioprothésiste Luzy,45 avenue du Docteur Dollet 58170 Luzy,46.792738,3.96846,Luzy,58170
Amplifon Audioprothésiste Macon,333 rue Carnot 71000 Macon,46.302526,4.830657,Mâcon,71000
Amplifon Audioprothésiste Migennes,Place du 19 Mars 1962 89400 Migennes,47.962779,3.515096,Migennes,89400
Amplifon Audioprothésiste Montbéliard Hôtel de Ville,4 rue de l'Hôtel de Ville 25200 Montbéliard,47.51023,6.798133,Montbéliard,25200
Amplifon Audioprothésiste Nevers,37 boulevard Victor Hugo 58000 Nevers,46.997897,3.153835,Nevers,58000
Amplifon Audioprothésiste Nuits Saint Georges,9 rue Docteur Louis Legrand 21700 Nuits Saint Georges,47.135999,4.951221,Nuits-Saint-Georges,21700
Amplifon Audioprothésiste Quetigny,"Centre commercial Grand Quetigny, avenue de Bourgogne - Chez l'opticien Krys 21800 Quetigny",47.312106,5.098347,Quetigny,21800
Amplifon Audioprothésiste Saint Apollinaire,673 route de Gray - Chez Optique Melin 21850 Saint Apollinaire,47.331504,5.08483,Saint-Apollinaire,21850
Amplifon Audioprothésiste Saint Vit,1 rue Charles de Gaulle - Chez l'opticien Saint-Vit Optic 25410 Saint Vit,47.182658,5.813638,Saint-Vit,25410
Amplifon Audioprothésiste Semur en Auxois,21 E avenue du Général Mazillier 21140 Semur en Auxois,47.492502,4.342011,Semur-en-Auxois,21140
Amplifon Audioprothésiste Sens,25 rue Duchesne 89100 Sens,48.19829,3.281756,Sens,89100
Amplifon Audioprothésiste Tonnerre,4 rue Vaucorbe 89700 Tonnerre,47.854812,3.973122,Tonnerre,89700
Amplifon Audioprothésiste Auray,18 avenue du Maréchal Foch 56400 Auray,47.668206,-2.987599,Auray,56400
Amplifon Audioprothésiste Bain République,23 place de la République 35470 Bain de Bretagne,47.842561,-1.680846,Bain-de-Bretagne,35470
Amplifon Audioprothésiste Betton,3 avenue d'Armorique 35830 Betton,48.180767,-1.636436,Betton,35830
Amplifon Audioprothésiste Brest,1 Bis Rue Robespierre 29200 Brest,48.415147,-4.492191,Brest,29200
Amplifon Audioprothésiste Briec,7 rue de la Victoire 29510 Briec,48.101549,-4.000183,Briec,29510
Amplifon Audioprothésiste Cesson Sevigné,6 mail de Bourgchevreuil 35510 Cesson Sevigné,48.118438,-1.604903,Cesson-Sévigné,35510
Amplifon Audioprothésiste Combourg,24 boulevard du Mail 35270 Combourg,48.410822,-1.750124,Combourg,35270
Amplifon Audioprothésiste Concarneau,75 avenue Alain Lelay 29900 Concarneau,47.877542,-3.914402,Concarneau,29900
Amplifon Audioprothésiste Dinan,2 rue de Brest 22100 Dinan,48.453881,-2.052111,Dinan,22100
Amplifon Audioprothésiste Dinard,Place Rochaïd 35800 Dinard,48.632577,-2.057186,Dinard,35800
Amplifon Audioprothésiste Fouesnant,10 rue de Kerneveleck 29170 Fouesnant,47.892197,-4.012931,Fouesnant,29170
Amplifon Audioprothésiste Fougères,22 rue du Tribunal 35300 Fougères,48.353049,-1.200885,Fougères,35300
Amplifon Audioprothésiste Guer,20 rue Saint Gurval 56380 Guer,47.904751,-2.121516,Guer,56380
Amplifon Audioprothésiste Guidel,1 C rue Joseph Lena 56520 Guidel,47.789375,-3.488742,Guidel,56520
Amplifon Audioprothésiste Guingamp,48 rue Notre Dame 22200 Guingamp,48.560762,-3.14919,Guingamp,22200
Amplifon Audioprothésiste Lamballe,17 rue du Val 22400 Lamballe,48.469213,-2.514252,Lamballe,22400
Amplifon Audioprothésiste Landivisiau,6 rue d'Arvor 29400 Landivisiau,48.511122,-4.072228,Landivisiau,29400
Amplifon Audioprothésiste Lanvollon,Zone d'activité du Ponlo 22290 Lanvollon,48.632838,-2.97545,Lanvollon,22290
Amplifon Audioprothésiste Le Folgöet,Zone Commerciale Leclerc - Résidence de l'Oratoire 29260 Le Folgöet,48.562415,-4.338132,Le Folgoët,29260
Amplifon Audioprothésiste Lorient Centre,11 Place Alsace Lorraine 56100 Lorient,47.749955,-3.36101,Lorient,56100
Amplifon Audioprothésiste Lorient Monistrol,12 rue Monistrol 56100 Lorient,47.738479,-3.381226,Lorient,56100
Amplifon Audioprothésiste Matignon,Rue des promenades - Centre Commercial des Promenades - Chez Le Collectif des Lunetiers 22550 Matignon,48.59868,-2.288148,Matignon,22550
Amplifon Audioprothésiste Plérin,4 A rue Pierre et Marie Curie - Espace du Château d’eau 22190 Plérin,48.547582,-2.794768,Plérin,22190
Amplifon Audioprothésiste Pleurtuit,3 rue Saint Guillaume 35730 Pleurtuit,48.579561,-2.058562,Pleurtuit,35730
Amplifon Audioprothésiste Ploërmel,"49, Boulevard Laennec 56800 Ploërmel",47.93315,-2.393776,Ploërmel,56800
Amplifon Audioprothésiste Pontivy,71 rue Nationale 56300 Pontivy,48.064901,-2.966068,Pontivy,56300
Amplifon Audioprothésiste Quiberon,1 quai de l'Océan 56170 Quiberon,47.478037,-3.12592,Quiberon,56170
Amplifon Audioprothésiste Quimper,35 bis avenue de la Gare 29000 Quimper,47.994674,-4.095373,Quimper,29000
Amplifon Audioprothésiste Rennes Fougères,221 rue de Fougères 35700 Rennes,48.124368,-1.658253,Rennes,35700
Amplifon Audioprothésiste Rennes Joffre,22 rue du Maréchal Joffre 35000 Rennes,48.10793,-1.677897,Rennes,35000
Amplifon Audioprothésiste Rennes Lorient,2 bis rue de Lorient 35000 Rennes,48.109001,-1.69819,Rennes,35000
Amplifon Audioprothésiste Saint Aubin d'Aubigne,6 rue de Saint Médard 35250 Saint Aubin d'Aubigne,48.262407,-1.606955,Saint-Aubin-d'Aubigné,35250
Amplifon Audioprothésiste Saint Malo,21 avenue Jean Jaurès - Chez Audiclair 35400 Saint Malo,48.648538,-2.006611,Saint-Malo,35400
Amplifon Audioprothésiste Saint Méen le Grand,4 place de la Mairie 35290 Saint Méen le Grand,48.189504,-2.19259,Saint-Méen-le-Grand,35290
Amplifon Audioprothésiste Saint Pol de Léon,12 rue de Pen ar Liorzou 29250 Saint-Pol-de-Léon,48.681845,-3.985995,Saint-Pol-de-Léon,29250
Amplifon Audioprothésiste Sarzeau,6 place de Francheville 56370 Sarzeau,47.528816,-2.766977,Sarzeau,56370
Amplifon Audioprothésiste Theix,2 bis rue de Nantes 56450 Theix,47.629014,-2.649759,Theix-Noyalo,56450
Amplifon Audioprothésiste Vannes Centre,42 boulevard de la Paix 56000 Vannes,47.660978,-2.754719,Vannes,56000
Amplifon Audioprothésiste Vannes Tenenio,10 rue du Docteur Joseph Audic 56000 Vannes,47.679373,-2.774152,Vannes,56000
Amplifon Audioprothésiste Beaugency,19 bis rue du Martroi 45190 Beaugency,47.778272,1.630324,Beaugency,45190
Amplifon Audioprothésiste Blois,4 place Guerry 41000 Blois,47.589091,1.334137,Blois,41000
Amplifon Audioprothésiste Bourges Riffaud,21 bis rue du Château d’Eau 18000 Bourges,47.075936,2.402419,Bourges,18000
Amplifon Audioprothésiste Chartres,6 rue Chanzy 28000 Chartres,48.44182,1.486179,Chartres,28000
Amplifon Audioprothésiste Courville,41 rue Carnot 28190 Courville sur Eure,48.449197,1.240105,Courville-sur-Eure,28190
Amplifon Audioprothésiste Epernon,23 rue des Grands Moulins - ZAC de la Savonnière 28230 Epernon,48.60382,1.677397,Épernon,28230
Amplifon Audioprothésiste Joué-lès-Tours,2 rue de Montsoreau 37300 Joué-lès-Tours,47.350058,0.679252,Joué-lès-Tours,37300
Amplifon Audioprothésiste Le Blanc,10 place André Gasnier 36300 Le Blanc,46.633463,1.062806,Le Blanc,36300
Amplifon Audioprothésiste Mer,14 route d’Orléans 41500 Mer,47.702908,1.514148,Mer,41500
Amplifon Audioprothésiste Nogent le Rotrou,4 rue Vilette Gâté 28400 Nogent le Rotrou,48.322901,0.82204,Nogent-le-Rotrou,28400
Amplifon Audioprothésiste Saint Gervais,104 route Nationale 41350 Saint-Gervais-la-Forêt,47.565221,1.367546,Saint-Gervais-la-Forêt,41350
Amplifon Audioprothésiste Saint-Avertin,3 rue Jean-Marie Boivin 37550 Saint-Avertin,47.342126,0.738412,Saint-Avertin,37550
Amplifon Audioprothésiste Saint-Cyr-sur-Loire,58 Bd Charles De Gaulle 37540 Saint-Cyr-sur-Loire,47.411105,0.676323,Saint-Cyr-sur-Loire,37540
Amplifon Audioprothésiste Altkirch,1 rue Charles de Gaulle 68130 Altkirch,47.622304,7.235454,Altkirch,68130
Amplifon Audioprothésiste Bischwiller Poincaré,14 rue Raymond Poincaré - chez Lissac l'Opticien 67240 Bischwiller,48.767409,7.858135,Bischwiller,67240
Amplifon Audioprothésiste Briey,5B rue Raymond Mondon 54150 Briey,49.251171,5.939162,Val de Briey,54150
Amplifon Audioprothésiste Brumath,7 rue Raymond Poincaré - che Lissac l'Opticien 67170 Brumath,48.729555,7.711052,Brumath,67170
Amplifon Audioprothésiste Cernay,"10, avenue d'Alsace 68700 Cernay",47.79499,7.167217,Cernay,68700
Amplifon Audioprothésiste Charleville Mézières,19 avenue d'Arches 08000 Charleville Mézières,49.761655,4.718531,Charleville-Mézières,08000
Amplifon Audioprothésiste Colmar,4 place des Martyrs de la Résistance 68000 Colmar,48.078848,7.357016,Colmar,68000
Amplifon Audioprothésiste Ensisheim,1 Place Clémenceau 68190 Ensisheim,47.866155,7.35544,Ensisheim,68190
Amplifon Audioprothésiste Epernay,16 rue du Général Leclerc 51200 Epernay,49.043908,3.955144,Épernay,51200
Amplifon Audioprothésiste Erstein,"Chez Lissac, 14 place de l’Hôtel de Ville 67150 Erstein",48.423411,7.662914,Erstein,67150
Amplifon Audioprothésiste Fameck,"12 rue des Grands Fossés - ZAC les jardins du triangle, chez LS Optic 57290 Fameck",49.314216,6.106634,Fameck,57290
Amplifon Audioprothésiste Forbach,101 rue Nationale 57600 Forbach,49.186194,6.898959,Forbach,57600
Amplifon Audioprothésiste Guebwiller Saint-Léger,136 rue de la République 68500 Guebwiller,47.911193,7.209065,Guebwiller,68500
Amplifon Audioprothésiste Habsheim,84a rue du Général de Gaulle - Chez Lissac Optique 68440 Habsheim,47.729566,7.416447,Habsheim,68440
Amplifon Audioprothésiste Haguenau,8 rue du Château 67500 Haguenau,48.815943,7.788576,Haguenau,67500
Amplifon Audioprothésiste Hayange,25 rue du Maréchal Foch 57700 Hayange,49.33137,6.056747,Hayange,57700
Amplifon Audioprothésiste Illkirch,237 route de Lyon 67400 Illkirch Graffenstaden,48.524659,7.708166,Illkirch-Graffenstaden,67400
Amplifon Audioprothésiste Lexy,"Chez Lissac, 1 espace du Barrois 54720 Lexy",49.501663,5.727756,Lexy,54720
Amplifon Audioprothésiste Maizières les Metz,1 rue de la Gare 57280 Maizières les Metz,49.213121,6.159546,Maizières-lès-Metz,57280
Amplifon Audioprothésiste Metz,22 rue Wilson 57000 Metz,49.110216,6.167863,Metz,57000
Amplifon Audioprothésiste Montigny les Metz,10 rue des Martyrs 57950 Montigny les Metz,49.100072,6.154489,Montigny-lès-Metz,57950
Amplifon Audioprothésiste Mulhouse,10 boulevard de l'Europe 68100 Mulhouse,47.749349,7.340661,Mulhouse,68100
Amplifon Audioprothésiste Mulhouse Concorde,15 place de la Concorde 68100 Mulhouse,47.746932,7.335234,Mulhouse,68100
Amplifon Audioprothésiste Munster,12 rue du 9E Zouaves 68140 Munster,48.042062,7.131423,Munster,68140
Amplifon Audioprothésiste Nancy,2 bis rue d'Amerval 54000 Nancy,48.693261,6.180724,Nancy,54000
Amplifon Audioprothésiste Nancy Haye,199 rue Julie Victoire Daubie 54000 Nancy,48.703403,6.144817,Nancy,54100
Amplifon Audioprothésiste Obernai,2 rue des boulangers 67210 Obernai,48.461735,7.483083,Obernai,67210
Amplifon Audioprothésiste Reims,5 bis Cours Anatole France 51100 Reims,49.25412,4.035616,Reims,51100
Amplifon Audioprothésiste Ribeauvillé,29 Grand'Rue - chez Lissac l'Opticien 68150 Ribeauvillé,48.195646,7.31656,Ribeauvillé,68150
Amplifon Audioprothésiste Saint Dié,48 rue Thiers 88100 Saint Dié des Vosges,48.287683,6.949819,Saint-Dié-des-Vosges,88100
Amplifon Audioprothésiste Saint-Louis,2 rue de Séville 68300 Saint-Louis,47.605261,7.538686,Saint-Louis,68300
Amplifon Audioprothésiste Sainte Menehould,90 rue Chanzy 51800 Sainte Menehould,49.09083,4.893618,Sainte-Menehould,51800
Amplifon Audioprothésiste Sainte Savine,27 bis avenue du Général Galliéni 10300 Sainte Savine,48.294223,4.059485,Sainte-Savine,10300
Amplifon Audioprothésiste Saints Geosmes,2 rue Monge - Centre Commercial Monge 52200 Saints Geosmes,47.812113,5.331975,Saints-Geosmes,52200
Amplifon Audioprothésiste Sarrebourg,5 rue Napoléon 1er 57400 Sarrebourg,48.735785,7.052699,Sarrebourg,57400
Amplifon Audioprothésiste Saverne,4 Grande rue 67700 Saverne,48.743232,7.3585,Saverne,67700
Amplifon Audioprothésiste Schiltigheim Poste,128 route de Bischwiller 67300 Schiltigheim,48.606632,7.749169,Schiltigheim,67300
Amplifon Audioprothésiste Sedan,19 avenue du Maréchal Leclerc 08200 Sedan,49.700494,4.944887,Sedan,08200
Amplifon Audioprothésiste Sélestat,14 rue Président Poincaré 67600 Sélestat,48.257146,7.454996,Sélestat,67600
Amplifon Audioprothésiste Soultz,40 rue des Barons de Fleckenstein - chez Lissac l'Opticien 67250 Soultz-sous-Forêts,48.938418,7.880879,Soultz-sous-Forêts,67250
Amplifon Audioprothésiste St Max,48 avenue Carnot 54130 Saint-Max,48.700496,6.207815,Saint-Max,54130
Amplifon Audioprothésiste Strasbourg Homme de Fer,1 place de l'Homme de Fer - chez Lissac l'Opticien 67000 Strasbourg,48.584156,7.744888,Strasbourg,67000
Amplifon Audioprothésiste Strasbourg Peirotes,12 rue Jacques Peirotes 67000 Strasbourg,48.576711,7.754924,Strasbourg,67000
Amplifon Audioprothésiste Strasbourg Vosges,46 avenue des Vosges 67000 Strasbourg,48.589802,7.750705,Strasbourg,67000
Amplifon Audioprothésiste Terville,3 rue du Linkling - Carré Le Kem 57180 Terville,49.352762,6.134196,Terville,57180
Amplifon Audioprothésiste Thionville,3 place Anne Grommerch (place du marché) 57100 Thionville,49.357739,6.167218,Thionville,57100
Amplifon Audioprothésiste Toul,10 rue Carnot 54200 Toul,48.674634,5.889315,Toul,54200
Amplifon Audioprothésiste Troyes,45 boulevard du 14 Juillet 10000 Troyes,48.293484,4.076975,Troyes,10000
Amplifon Audioprothésiste Villerupt,"14, rue Carnot - Chez Lissac 54190 Villerupt",49.46896,5.931577,Villerupt,54190
Amplifon Audioprothésiste Vitry le François,6 rue du Marché 51300 Vitry le François,48.726542,4.584404,Vitry-le-François,51300
Amplifon Audioprothésiste Wittelsheim,2 Rue de la Hohmatten 68310 Wittelsheim,47.814802,7.241923,Wittelsheim,68310
Amplifon Audioprothésiste Albert,20 rue Lamarck 80300 Albert,50.002815,2.651723,Albert,80300
Amplifon Audioprothésiste Amiens,6 rue du Général Leclerc 80000 Amiens,49.894578,2.293381,Amiens,80000
Amplifon Audioprothésiste Anzin,208 rue Jean Jaurès 59410 Anzin,50.375292,3.51692,Anzin,59410
Amplifon Audioprothésiste Armentières,24 rue de Lille 59280 Armentières,50.684881,2.881515,Armentières,59280
Amplifon Audioprothésiste Arras,31 rue de Cambrai 62000 Arras,50.286762,2.787787,Arras,62000
Amplifon Audioprothésiste Berck,3 avenue du 8 Mai 1945 - Le Clos Boucanier 62600 Berck,50.404017,1.579503,Berck,62600
Amplifon Audioprothésiste Billy Montigny,58 Rue Jean Jaurès - Chez centre Optique de la Gohelle 62420 Billy Montigny,50.419443,2.911914,Billy-Montigny,62420
Amplifon Audioprothésiste Boulogne sur Mer,18 rue de la Lampe 62200 Boulogne sur Mer,50.721617,1.603758,Boulogne-sur-Mer,62200
Amplifon Audioprothésiste Bruay la Buissière,592 avenue de la Libération 62700 Bruay la Buissière,50.490705,2.565084,Bruay-la-Buissière,62700
Amplifon Audioprothésiste Chantilly,8 rue des Otages 60500 Chantilly,49.187233,2.460762,Chantilly,60500
Amplifon Audioprothésiste Compiègne,15 rue du Change 60200 Compiègne,49.416833,2.823657,Compiègne,60200
Amplifon Audioprothésiste Creil,66-67 quai d’Amont 60100 Creil,49.262567,2.474622,Creil,60100
Amplifon Audioprothésiste Croix,76 rue de la Gare 59170 Croix,50.677087,3.141509,Croix,59170
Amplifon Audioprothésiste Denain,121 rue Villars 59220 Denain,50.327077,3.393563,Denain,59220
Amplifon Audioprothésiste Douai,101 rue de Paris 59500 Douai,50.366879,3.081396,Douai,59500
Amplifon Audioprothésiste Dunkerque,11 rue Thiers 59140 Dunkerque,51.031311,2.373891,Dunkerque,59140
Amplifon Audioprothésiste Estaires,5 rue Emile Roche 59940 Estaires,50.644026,2.721648,Estaires,59940
Amplifon Audioprothésiste Étaples,9 Place du Général de Gaulle 62630 Étaples,50.514195,1.638982,Étaples,62630
Amplifon Audioprothésiste La Bassée,15 avenue Jean Baptiste Lebas 59480 La Bassée,50.530924,2.804289,La Bassée,59480
Amplifon Audioprothésiste Lambersart,356 avenue de Dunkerque 59130 Lambersart,50.639687,3.019735,Lambersart,59130
Amplifon Audioprothésiste Laon,3 rue Roger Salengro 02000 Laon,49.568362,3.624597,Laon,02000
Amplifon Audioprothésiste Le Quesnoy,16 place Général Leclerc 59530 Le Quesnoy,50.24708,3.637144,Le Quesnoy,59530
Amplifon Audioprothésiste Lille Les Arts,55 rue des Arts 59000 Lille,50.639145,3.065458,Lille,59000
Amplifon Audioprothésiste Loos,73 rue Georges Potie 59120 Loos,50.612655,3.002732,Loos,59120
Amplifon Audioprothésiste Marcq Croise Laroche,5 place Lisfranc 59700 Marcq en Baroeul,50.665334,3.102575,Marcq-en-Barœul,59700
Amplifon Audioprothésiste Marcq Saint Vincent,131 avenue Foch 59700 Marcq en Baroeul,50.67596,3.091881,Marcq-en-Barœul,59700
Amplifon Audioprothésiste Marquise,10 rue Sainte Barbe - Le Clos Sainte Barbe 62250 Marquise,50.813084,1.703983,Marquise,62250
Amplifon Audioprothésiste Maubeuge,33 avenue de France 59600 Maubeuge,50.27532,3.973155,Maubeuge,59600
Amplifon Audioprothésiste Orchies,1 rue Germain Delettrez 59310 Orchies,50.475505,3.244821,Orchies,59310
Amplifon Audioprothésiste Roubaix,3 rue de la Halle 59100 Roubaix,50.690728,3.176714,Roubaix,59100
Amplifon Audioprothésiste Saint Omer,27 place du Marechal Foch 62500 Saint Omer,50.749957,2.250583,Saint-Omer,62500
Amplifon Audioprothésiste Saint Quentin,21-23 rue Emile Zola 02100 Saint-Quentin,49.846378,3.285993,Saint-Quentin,02100
Amplifon Audioprothésiste Saint-André-lez-Lille,92 rue du Général Leclerc - Chez Optique Saint-André 59350 Saint-André-lez-Lille,50.662435,3.050251,Saint-André-lez-Lille,59350
Amplifon Audioprothésiste Seclin,4 rue Roger Bouvry 59113 Seclin,50.54995,3.029636,Seclin,59113
Amplifon Audioprothésiste Senlis,12 place de la Halle 60300 Senlis,49.204991,2.585077,Senlis,60300
Amplifon Audioprothésiste Soissons,6 rue de la Buerie 02200 Soissons,49.381517,3.324544,Soissons,02200
Amplifon Audioprothésiste Tourcoing,1 place Victor Hassebroucq 59200 Tourcoing,50.723429,3.160121,Tourcoing,59200
Amplifon Audioprothésiste Villeneuve D'Ascq,115 rue des Fusillés 59650 Villeneuve D'Ascq,50.615352,3.154002,Villeneuve-d'Ascq,59493
Amplifon Audioprothésiste Wambrechies,427 rue de Quesnoy 59118 Wambrechies,50.691975,3.052971,Wambrechies,59118
Amplifon Audioprothésiste Wormhout,7 place du Gal de Gaulle 59470 Wormhout,50.881193,2.467784,Wormhout,59470
Amplifon Audioprothésiste Alfortville Acouvox,150 rue Paul Vaillant Couturier 94140 Alfortville,48.80639,2.418403,Alfortville,94140
Amplifon Audioprothésiste Andrésy,4 bis rue du Général Leclerc 78570 Andrésy,48.977033,2.055837,Andrésy,78570
Amplifon Audioprothésiste Antony,20 rue Aristide Briand 92160 Antony,48.754655,2.305617,Antony,92160
Amplifon Audioprothésiste Arnouville,34 avenue Pierre Sémard 95400 Arnouville les Gonesse,48.996795,2.415012,Arnouville,95400
Amplifon Audioprothésiste Arpajon,114 Grande Rue 91290 Arpajon,48.588232,2.248291,Arpajon,91290
Amplifon Audioprothésiste Asnières-sur-Seine,1 rue Pierre Brossolette 92600 Asnières-sur-Seine,48.910565,2.28998,Asnières-sur-Seine,92600
Amplifon Audioprothésiste Aubervilliers,8 rue de la Courneuve 93300 Aubervilliers,48.915048,2.38381,Aubervilliers,93300
Amplifon Audioprothésiste Aulnay Dumont,6 Bis Boulevard du Général Gallieni 93600 Aulnay-sous-bois,48.9312,2.494764,Aulnay-sous-Bois,93600
Amplifon Audioprothésiste Blanc Mesnil,8 mail Debré Berhan 93150 Le Blanc Mesnil,48.938139,2.462213,Le Blanc-Mesnil,93150
Amplifon Audioprothésiste Bois Colombes,55 rue des Bourguignons 92270 Bois-Colombes,48.914613,2.274499,Bois-Colombes,92270
Amplifon Audioprothésiste Bondy,22 ter rue Auguste Polissard 93140 Bondy,48.904535,2.481252,Bondy,93140
Amplifon Audioprothésiste Boulogne,98 rue Gallieni 92100 Boulogne Billancourt,48.836774,2.241161,Boulogne-Billancourt,92100
Amplifon Audioprothésiste Boulogne Billancourt,22 boulevard Jean Jaurès 92100 Boulogne Billancourt,48.843718,2.237686,Boulogne-Billancourt,92100
Amplifon Audioprothésiste Bourg-la-Reine,25 avenue du Général Leclerc 92340 Bourg la Reine,48.785656,2.317939,Bourg-la-Reine,92340
Amplifon Audioprothésiste Charenton,109 rue de Paris 94220 Charenton le Pont,48.823623,2.410358,Charenton-le-Pont,94220
Amplifon Audioprothésiste Châtillon,26 avenue de Verdun 92320 Châtillon,48.802919,2.286728,Châtillon,92320
Amplifon Audioprothésiste Chelles,1 bis Avenue François Trinquant 77500 Chelles,48.877165,2.596505,Chelles,77500
Amplifon Audioprothésiste Chennevières,Centre Commercial Carrefour Pince Vent - Chez l'opticien Krys 94430 Chennevières sur Marne,48.802411,2.526527,Chennevières-sur-Marne,94430
Amplifon Audioprothésiste Clamart,28 avenue Jean Jaurès 92140 Clamart,48.801687,2.26432,Clamart,92140
Amplifon Audioprothésiste Clayes-sous-Bois,4 avenue du Bois 78340 Les Clayes-sous-Bois,48.823308,1.991714,Les Clayes-sous-Bois,78340
Amplifon Audioprothésiste Clichy Jaurès,57 boulevard Jean Jaurès 92110 Clichy,48.900616,2.305595,Clichy,92110
Amplifon Audioprothésiste Colombes,20 rue Saint Denis 92700 Colombes,48.923832,2.257349,Colombes,92700
Amplifon Audioprothésiste Combs la Ville,1 avenue du Général Leclerc - Chez l'opticien Optic 2000 77380 Combs la Ville,48.666204,2.557468,Combs-la-Ville,77380
Amplifon Audioprothésiste Conflans Sainte Honorine,221 avenue du Maréchal Foch 78700 Conflans Sainte Honorine Conflans Sainte Hono,49.005799,2.115201,Conflans-Sainte-Honorine,78700
Amplifon Audioprothésiste Convention,244 rue de la Convention 75015 Paris,48.835735,2.301245,Paris,75015
Amplifon Audioprothésiste Coulommiers,11 rue du Marché - Chez LM Optic 77120 Coulommiers,48.813903,3.084556,Coulommiers,77120
Amplifon Audioprothésiste Courbevoie Becon,99 rue Armand Silvestre 92400 Courbevoie,48.90244,2.268316,Courbevoie,92400
Amplifon Audioprothésiste Courbevoie Gare,53 rue de Bezons 92400 Courbevoie,48.896303,2.248574,Courbevoie,92400
Amplifon Audioprothésiste Dammartin-en-Goële,5 rue de la Justice 77230 Dammartin-en-Goële,49.054056,2.675271,Dammartin-en-Goële,77230
Amplifon Audioprothésiste Drancy,86 avenue Henri Barbusse 93700 Drancy,48.918171,2.448045,Drancy,93700
Amplifon Audioprothésiste Eaubonne,7 rue Cristino Garcia 95600 Eaubonne,48.99244,2.277053,Eaubonne,95600
Amplifon Audioprothésiste Enghien,23 rue Mora 95880 Enghien les Bains,48.970631,2.306694,Enghien-les-Bains,95880
Amplifon Audioprothésiste Ermont,18 rue de L'Église 95120 Ermont,48.990334,2.259425,Ermont,95120
Amplifon Audioprothésiste Fontainebleau,24 rue de la Paroisse 77300 Fontainebleau,48.406995,2.699024,Fontainebleau,77300
Amplifon Audioprothésiste Fontenay-sous-Bois,3 avenue de la République 94120 Fontenay-sous-Bois,48.849865,2.456419,Fontenay-sous-Bois,94120
Amplifon Audioprothésiste Gagny,29 avenue Jean Jaurès 93220 Gagny,48.88415,2.531735,Gagny,93220
Amplifon Audioprothésiste Gennevilliers,161 avenue Gabriel Péri 92230 Gennevilliers,48.923757,2.294303,Gennevilliers,92230
Amplifon Audioprothésiste Goussainville,131 boulevard Paul Vaillant Couturier 95190 Goussainville,49.033071,2.474052,Goussainville,95190
Amplifon Audioprothésiste Houdan,13 Place de la Tour 78550 Houdan,48.789393,1.599351,Houdan,78550
Amplifon Audioprothésiste Issy Les Moulineaux,20 rue Vaudetard 92130 Issy Les Moulineaux,48.826772,2.276943,Issy-les-Moulineaux,92130
Amplifon Audioprothésiste La Varenne,76 bis avenue du Bac 94210 La Varenne Saint Hilaire,47.077744,3.886296,Saint-Hilaire-en-Morvan,58120
Amplifon Audioprothésiste Le Kremlin Bicêtre,46 avenue de Fontainebleau - Chez l'opticien Best vision (Krys) 94270 Le Kremlin Bicêtre,48.813168,2.361052,Le Kremlin-Bicêtre,94270
Amplifon Audioprothésiste Le Perreux sur Marne,74 bis avenue Ledru Rollin 94170 Le Perreux sur Marne,48.843325,2.503589,Le Perreux-sur-Marne,94170
Amplifon Audioprothésiste Le Plessis Trévise,10 avenue du Général de Gaulle 94420 Le Plessis-Trévise,48.809682,2.574394,Le Plessis-Trévise,94420
Amplifon Audioprothésiste Le Raincy,24 avenue de la Résistance 93340 Le Raincy,48.892332,2.512814,Le Raincy,93340
Amplifon Audioprothésiste Le Vésinet,14 rue Thiers - Chez Optique Coloos Valverde 78110 Le Vésinet,48.892718,2.132247,Le Vésinet,78110
Amplifon Audioprothésiste Les Lilas,130 rue de Paris 93260 Les Lilas,48.880257,2.417941,Les Lilas,93260
Amplifon Audioprothésiste Levallois Perret,4 place de la république 92300 Levallois Perret,48.893299,2.288632,Levallois-Perret,92300
Amplifon Audioprothésiste Livry Gargan,32 boulevard De Chanzy 93190 Livry Gargan,48.910411,2.519832,Livry-Gargan,93190
Amplifon Audioprothésiste Maisons Alfort,34 avenue de la République 94700 Maisons Alfort,48.802486,2.433582,Maisons-Alfort,94700
Amplifon Audioprothésiste Maisons Laffitte,1 rue des Plantes 78600 Maisons Laffitte,48.947571,2.146417,Maisons-Laffitte,78600
Amplifon Audioprothésiste Malakoff,58 avenue Pierre Larousse 92240 Malakoff,48.821547,2.304243,Malakoff,92240
Amplifon Audioprothésiste Marly le Roi,Avenue de l'Amiral Lemonnier - Centre commercial les Grandes Terres 78160 Marly le Roi,48.878994,2.10051,Marly-le-Roi,78160
Amplifon Audioprothésiste Meaux,32 rue du Commandant Berge 77100 Meaux,48.956063,2.879441,Meaux,77100
Amplifon Audioprothésiste Melun,15 place de la porte de Paris 77000 Melun,48.540223,2.658203,Melun,77000
Amplifon Audioprothésiste Meudon,13 Avenue de Celle - Centre Commercial Joli Mai 92360 Meudon-la-Forêt,47.915974,-0.557198,Saint-Charles-la-Forêt,53170
Amplifon Audioprothésiste Meulan,12 rue Albert Jozon 78250 Meulan en Yvelines,49.005006,1.906758,Meulan-en-Yvelines,78250
Amplifon Audioprothésiste Montfort l'Amaury,3 rue Normande 78490 Montfort l'Amaury,48.778126,1.809313,Montfort-l'Amaury,78490
Amplifon Audioprothésiste Montigny,1 bis boulevard Vauban 78180 Montigny le Bretonneux,48.784568,2.045914,Montigny-le-Bretonneux,78180
Amplifon Audioprothésiste Montreuil,1 rue François Debergue 93100 Montreuil,48.858625,2.438804,Montreuil,93100
Amplifon Audioprothésiste Montrouge,96 avenue de la République - Bâtiment D 92120 Montrouge,48.815072,2.31741,Montrouge,92120
Amplifon Audioprothésiste Moret-Sur-Loing,9 rue Grande 77250 Moret-Sur-Loing-et-Orvanne,48.334403,2.783683,Moret-Loing-et-Orvanne,77250
Amplifon Audioprothésiste Nangis,ZAC Les Roches - Chez l'opticien Optical 77 77370 Nangis,48.554608,3.013553,Nangis,77370
Amplifon Audioprothésiste Nanterre,26 rue Maurice Thorez 92000 Nanterre,48.891921,2.195726,Nanterre,92000
Amplifon Audioprothésiste Nemours,28 rue de Paris 77140 Nemours,48.267303,2.69592,Nemours,77140
Amplifon Audioprothésiste Neuilly Plaisance,29 avenue du Maréchal Foch 93360 Neuilly Plaisance,48.86257,2.504139,Neuilly-Plaisance,93360
Amplifon Audioprothésiste Neuilly-sur-Seine,9 rue Paul Chatrousse 92200 Neuilly-sur-Seine,48.886349,2.260961,Neuilly-sur-Seine,92200
Amplifon Audioprothésiste Nogent sur Marne,66 Grande rue Charles de Gaulle 94130 Nogent sur Marne,48.836238,2.480985,Nogent-sur-Marne,94130
Amplifon Audioprothésiste Noisy le Sec,3 place Jeanne D'Arc 93130 Noisy le Sec,48.890018,2.452912,Noisy-le-Sec,93130
Amplifon Audioprothésiste Noisy-le-Grand Briand,50 avenue Aristide Briand 93160 Noisy-le-Grand,48.846763,2.552957,Noisy-le-Grand,93160
Amplifon Audioprothésiste Noisy-le-Grand Rue Principale,174 rue Pierre Brossolette 93160 Noisy-le-Grand,48.848263,2.549614,Noisy-le-Grand,93160
Amplifon Audioprothésiste Orsay,8 bis rue de Paris 91400 Orsay,48.69655,2.186211,Orsay,91400
Amplifon Audioprothésiste Palaiseau,10 rue Victor Hugo 91120 Palaiseau,48.716885,2.247619,Palaiseau,91120
Amplifon Audioprothésiste Paris Alésia,26 avenue Jean Moulin 75014 Paris,48.826866,2.324344,Paris,75014
Amplifon Audioprothésiste Paris Assas,28 rue d'Assas 75006 Paris,48.848096,2.329248,Paris,75006
Amplifon Audioprothésiste Paris Auteuil,42 rue d'Auteuil 75016 Paris,48.847813,2.265624,Paris,75016
Amplifon Audioprothésiste Paris Bastille,69 rue de Lyon 75012 Paris,48.851066,2.369908,Paris,75012
Amplifon Audioprothésiste Paris Bobillot,10 rue Bobillot 75013 Paris,48.829946,2.354051,Paris,75013
Amplifon Audioprothésiste Paris Bolivar,25 avenue Simon Bolivar 75019 Paris,48.875043,2.382361,Paris,75019
Amplifon Audioprothésiste Paris Boucicaut,117 rue de la Convention 75015 Paris,48.840904,2.2886,Paris,75015
Amplifon Audioprothésiste Paris Châtelet,64 rue Tiquetonne 75002 Paris,48.864838,2.345512,Paris,75002
Amplifon Audioprothésiste Paris Dupleix,7 rue Humblot 75015 Paris,48.851022,2.293461,Paris,75015
Amplifon Audioprothésiste Paris Gare du Nord,192 rue Lafayette 75010 Paris,48.880931,2.363613,Paris,75010
Amplifon Audioprothésiste Paris Guy Moquet,70 avenue de Saint Ouen 75018 Paris,48.891643,2.327152,Paris,75018
Amplifon Audioprothésiste Paris Longchamp,98 rue de Longchamp 75016 Paris,48.865973,2.282077,Paris,75016
Amplifon Audioprothésiste Paris Magenta,95 boulevard de Magenta 75010 Paris,48.877927,2.354334,Paris,75010
Amplifon Audioprothésiste Paris Maine,194 avenue du Maine 75014 Paris,48.830921,2.325347,Paris,75014
Amplifon Audioprothésiste Paris Maubeuge,9 rue de Maubeuge 75009 Paris,48.876972,2.341944,Paris,75009
Amplifon Audioprothésiste Paris Monge,45 rue Monge 75005 Paris,48.845378,2.35223,Paris,75005
Amplifon Audioprothésiste Paris Motte Picquet,33 avenue de la Motte Picquet 75007 Paris,48.854904,2.306816,Paris,75007
Amplifon Audioprothésiste Paris Mozart,15 avenue Mozart 75016 Paris,48.857114,2.27295,Paris,75016
Amplifon Audioprothésiste Paris Nation,41 boulevard de Charonne 75011 Paris,48.851767,2.397833,Paris,75011
Amplifon Audioprothésiste Paris Raspail,118 boulevard Raspail 75006 Paris,48.844392,2.328665,Paris,75006
Amplifon Audioprothésiste Paris Saint Lazare,3 rue de Rome 75008 Paris,48.874274,2.325502,Paris,75008
Amplifon Audioprothésiste Paris Vaugirard Acouvox,195 rue de Vaugirard 75015 Paris,48.842413,2.311182,Paris,75015
Amplifon Audioprothésiste Paris Villiers,92 avenue de Villiers 75017 Paris,48.884613,2.301035,Paris,75017
Amplifon Audioprothésiste Paris Voltaire,71 boulevard Voltaire 75011 Paris,48.861344,2.374496,Paris,75011
Amplifon Audioprothésiste Paris Wagram,58 avenue de Wagram 75017 Paris,48.879228,2.299241,Paris,75017
Amplifon Audioprothésiste Poissy,30 avenue du Cep 78300 Poissy,48.927999,2.042399,Poissy,78300
Amplifon Audioprothésiste Pontault Combault Acouvox,79 avenue du Général de Gaulle 77340 Pontault-Combault,48.801556,2.611893,Pontault-Combault,77340
Amplifon Audioprothésiste Pontoise,10 Place Notre Dame 95300 Pontoise,49.049707,2.091841,Pontoise,95300
Amplifon Audioprothésiste Provins,12 rue Victor Garnier 77160 Provins,48.55927,3.298522,Provins,77160
Amplifon Audioprothésiste Ris Orangis,9 place Jacques Brel 91130 Ris Orangis,48.655743,2.408839,Ris-Orangis,91130
Amplifon Audioprothésiste Rosny sous Bois,8 rue du Général Leclerc 93110 Rosny sous Bois,48.870906,2.487054,Rosny-sous-Bois,93110
Amplifon Audioprothésiste Rueil Malmaison,29 rue de Maurepas 92500 Rueil Malmaison,48.877914,2.182342,Rueil-Malmaison,92500
Amplifon Audioprothésiste Saint Cyr l'École,"Chez Saint-Cyr Optique, 9 avenue Pierre Curie 78210 Saint Cyr l'École",48.808397,2.069729,Saint-Cyr-l'École,78210
Amplifon Audioprothésiste Saint Denis,24 rue Catulienne 93200 Saint Denis,48.936462,2.351207,Saint-Denis,93200
Amplifon Audioprothésiste Saint Germain en Laye,25 rue des Coches 78100 Saint Germain en Laye,48.896099,2.094276,Saint-Germain-en-Laye,78100
Amplifon Audioprothésiste Saint Maur,139 boulevard de Champigny 94100 Saint-Maur-des-Fossés,48.80875,2.509362,Saint-Maur-des-Fossés,94210
Amplifon Audioprothésiste Sainte Geneviève des Bois,97 route de Corbeil 91700 Sainte Geneviève des Bois,48.641536,2.333611,Sainte-Geneviève-des-Bois,91700
Amplifon Audioprothésiste Sarcelles,4 place du 11 Novembre 1918 95200 Sarcelles,48.993178,2.376858,Sarcelles,95200
Amplifon Audioprothésiste Sartrouville,61 avenue Jean Jaurès 78500 Sartrouville,48.939636,2.159118,Sartrouville,78500
Amplifon Audioprothésiste Sceaux Houdan,137 rue Houdan 92330 Sceaux,48.77894,2.282793,Sceaux,92330
Amplifon Audioprothésiste Sèvres,70 Grande rue 92310 Sèvres,48.824437,2.21172,Sèvres,92310
Amplifon Audioprothésiste Sucy en Brie,1 place de la Gare 94370 Sucy en Brie,48.771431,2.509174,Sucy-en-Brie,94370
Amplifon Audioprothésiste Suresnes,5 place Henri IV 92150 Suresnes,48.870032,2.22749,Suresnes,92150
Amplifon Audioprothésiste Taverny,4 rue de l'Eglise 95150 Taverny,49.02708,2.223818,Taverny,95150
Amplifon Audioprothésiste Tournan,3 rue des Fossés 77220 Tournan en Brie,48.739847,2.76372,Tournan-en-Brie,77220
Amplifon Audioprothésiste Trappes,41 rue Jean Jaurès 78190 Trappes,48.775849,2.000882,Trappes,78190
Amplifon Audioprothésiste Tremblay,6 bis avenue Pasteur 93290 Tremblay en France,48.942604,2.570446,Tremblay-en-France,93290
Amplifon Audioprothésiste Verrières le Buisson,8 rue d'Antony 91370 Verrières-Le-Buisson,48.74711,2.267522,Verrières-le-Buisson,91370
Amplifon Audioprothésiste Versailles,100 rue de la Paroisse 78000 Versailles,48.805844,2.13451,Versailles,78000
Amplifon Audioprothésiste Versailles Clemenceau,6 bis rue Georges Clemenceau 78000 Versailles,48.804109,2.132275,Versailles,78000
Amplifon Audioprothésiste Villejuif,16 boulevard Paul Vaillant Couturier 94800 Villejuif,48.795089,2.366648,Villejuif,94800
Amplifon Audioprothésiste Argentan,3 rue Etienne Panthou 61200 Argentan,48.742241,-0.024109,Argentan,61200
Amplifon Audioprothésiste Bernay,5 bis rue Albert Parissot 27300 Bernay,49.090089,0.598333,Bernay,27300
Amplifon Audioprothésiste Bolbec,7 rue Jacques Fauquet 76210 Bolbec,49.571935,0.470087,Bolbec,76210
Amplifon Audioprothésiste Bretteville sur Odon,12 rue des Forques - Centre commercial Carrefour market 14760 Bretteville sur Odon,49.165345,-0.42016,Bretteville-sur-Odon,14760
Amplifon Audioprothésiste Brionne,18 place Frémont des Essarts 27800 Brionne,49.194249,0.720628,Brionne,27800
Amplifon Audioprothésiste Caen,19 place de la République 14000 Caen,49.180991,-0.363372,Caen,14000
Amplifon Audioprothésiste Condé en Normandie,2 rue du 6 Juin 14110 Condé-en-Normandie,48.85072,-0.550039,Condé-en-Normandie,14110
Amplifon Audioprothésiste Deauville,12 rue Albert Fracasse 14800 Deauville,49.359306,0.076392,Deauville,14800
Amplifon Audioprothésiste Dreux,6 Place Mésirard 28100 Dreux,48.734948,1.365086,Dreux,28100
Amplifon Audioprothésiste Evreux Lempereur - Chez Lempereur Opticiens,40 rue Chartraine 27000 Evreux,49.024316,1.148737,Évreux,27000
Amplifon Audioprothésiste Flers Centre,5 rue de la Boule 61100 Flers,48.749208,-0.569207,Flers,61100
Amplifon Audioprothésiste Flers Zone Commerciale,1013 route de Domfront 61100 Flers,48.731627,-0.577941,Flers,61100
Amplifon Audioprothésiste Fogel Granville,"Résidence les Amiraux, rue de la Fontaine Bedeau 50400 Granville",48.835498,-1.594497,Granville,50400
Amplifon Audioprothésiste Fogel Saint-Lô,84 Rue de Neufbourg 50000 Saint-Lô,49.11553,-1.084312,Saint-Lô,50000
Amplifon Audioprothésiste Fogel Vire-Normandie,1 rue de Caen 14500 Vire-Normandie,48.848226,-0.883342,Vire Normandie,14500
Amplifon Audioprothésiste Harfleur,19 rue des 104 76700 Harfleur,49.506885,0.199526,Harfleur,76700
Amplifon Audioprothésiste Herouville Saint Clair,Val St Clair - Centre commercial 14200 Herouville Saint Clair,49.20381,-0.330286,Hérouville-Saint-Clair,14200
Amplifon Audioprothésiste Honfleur,6 rue des vases 14600 Honfleur,49.418342,0.238149,Honfleur,14600
Amplifon Audioprothésiste L'Aigle,20 rue Gambetta 61300 L'Aigle,48.764951,0.625896,L'Aigle,61300
Amplifon Audioprothésiste La Ferté Macé,9 rue d'Hautvie 61600 La Ferté Macé,48.590246,-0.357806,La Ferté Macé,61600
Amplifon Audioprothésiste Le Havre,32 Place de l'Hôtel de Ville 76600 Le Havre,49.492305,0.109252,Le Havre,76600
Amplifon Audioprothésiste Les Andelys,1 Rue Pierre Corneille - Chez Lempereur Opticiens 27700 Les Andelys,49.247582,1.41739,Les Andelys,27700
Amplifon Audioprothésiste Lillebonne,24 rue Gambetta 76170 Lillebonne,49.517853,0.534961,Lillebonne,76170
Amplifon Audioprothésiste Lisieux,1 rue d'Alençon 14100 Lisieux,49.142935,0.22724,Lisieux,14100
Amplifon Audioprothésiste Louviers,31 rue du Général de Gaulle 27400 Louviers,49.210948,1.167612,Louviers,27400
Amplifon Audioprothésiste Mondeville,17 D rue Chapron 14120 Mondeville,49.175563,-0.322488,Mondeville,14120
Amplifon Audioprothésiste Mortagne au Perche,54 place du Général de Gaulle 61400 Mortagne au Perche,48.520828,0.546138,Mortagne-au-Perche,61400
Amplifon Audioprothésiste Ouistreham,114 rue Gambetta 14150 Ouistreham,49.278558,-0.259464,Ouistreham,14150
Amplifon Audioprothésiste Pont Audemer,4 place du Pot D'Etain 27500 Pont Audemer,49.353513,0.512713,Pont-Audemer,27500
Amplifon Audioprothésiste Pontorson,41 rue Couesnon 50170 Pontorson,48.553078,-1.509911,Pontorson,50170
Amplifon Audioprothésiste Sées,26 rue Louis Forton - Sées too vue optique 61500 Sées,48.606798,0.173223,Sées,61500
Amplifon Audioprothésiste Toulorge Juteau Carentan,1 rue Qui Qu'en Grogne 50500 Carentan-les-Marais,49.306152,-1.244698,Carentan les Marais,50500
Amplifon Audioprothésiste Toulorge Juteau Cherbourg,12 place de la Fontaine 50100 Cherbourg-en-Cotentin,49.63994,-1.62581,Cherbourg-en-Cotentin,50100
Amplifon Audioprothésiste Toulorge Juteau La Haye-du-Puits,1 rue Emile Poirier 50250 La Haye-du-Puits,49.291216,-1.545016,La Haye,50250
Amplifon Audioprothésiste Toulorge Juteau Valognes,7 rue Poterie 50700 Valognes,49.509344,-1.469369,Valognes,50700
Amplifon Audioprothésiste Verneuil sur Avre,1 place de la Madeleine 27130 Verneuil-sur-Avre,48.739634,0.928674,Verneuil d'Avre et d'Iton,27130
Amplifon Audioprothésiste Vernon Lempereur,14 rue du Soleil - Lempereur Opticiens 27200 Vernon,49.092151,1.484244,Vernon,27200
Amplifon Audioprothésiste Agen Carnot,175 boulevard du Président Carnot 47000 Agen,44.207235,0.620758,Agen,47000
Amplifon Audioprothésiste Agen Saint Hilaire,Rue du Docteur et Madame Delmas - Chez Optique Lafayette 47550 Boé,44.185802,0.630418,Boé,47550
Amplifon Audioprothésiste Angoulême,25 bis rue de L'Arsenal 16000 Angoulême,45.64749,0.15733,Angoulême,16000
Amplifon Audioprothésiste Barbezieux,38 rue Victor Hugo 16300 Barbezieux Saint Hilaire,45.472838,-0.154196,Barbezieux-Saint-Hilaire,16300
Amplifon Audioprothésiste Bayonne,85 avenue de la Légion Tchèque - Galerie des Arènes 64100 Bayonne,43.493448,-1.492405,Bayonne,64100
Amplifon Audioprothésiste Bellac,19 place du Palais 87300 Bellac,46.119413,1.048994,Bellac,87300
Amplifon Audioprothésiste Biarritz,5 rue Larralde 64200 Biarritz,43.481461,-1.558317,Biarritz,64200
Amplifon Audioprothésiste Blaye,4 cours de Lattre de Tassigny 33390 Blaye,45.128002,-0.662603,Blaye,33390
Amplifon Audioprothésiste Bordeaux Bègles,15 boulevard Albert 1er 33800 Bordeaux,44.814474,-0.57166,Bordeaux,33800
Amplifon Audioprothésiste Bordeaux Caudéran,6 rue Bellus Mareilhac 33200 Bordeaux,44.852681,-0.617017,Bordeaux,33200
Amplifon Audioprothésiste Bordeaux Fondaudège,45 rue Fondaudège 33000 Bordeaux,44.846599,-0.579905,Bordeaux,33000
Amplifon Audioprothésiste Brive,21 avenue de Paris 19100 Brive La Gaillarde,45.162112,1.532591,Brive-la-Gaillarde,19100
Amplifon Audioprothésiste Capbreton,Rue Larrat - Résidence Le Châtelet 40130 Capbreton,43.641399,-1.425893,Capbreton,40130
Amplifon Audioprothésiste Casteljaloux,60 Grande rue - Chez Optique Surdité Martin 47700 Casteljaloux,44.314229,0.087533,Casteljaloux,47700
Amplifon Audioprothésiste Chasseneuil du Poitou,49 route de Paris 86360 Chasseneuil du Poitou,46.641219,0.359734,Chasseneuil-du-Poitou,86360
Amplifon Audioprothésiste Châtellerault,22 Avenue Adrien Treuille 86100 Châtellerault,46.818398,0.547739,Châtellerault,86100
Amplifon Audioprothésiste Cognac,56 avenue d'Angoulême 16100 Chateaubernard,45.683754,-0.299192,Châteaubernard,16100
Amplifon Audioprothésiste Dax,4 rue Saint Vincent 40100 Dax,43.708908,-1.054841,Dax,40100
Amplifon Audioprothésiste île de Ré,18 rue de l’Eglise - Centre Médical Le Clos Marin 17580 Le Bois-Plage-en-Ré,46.185309,-1.391108,Le Bois-Plage-en-Ré,17580
Amplifon Audioprothésiste Jonzac,24 place du champ de foire 17500 Jonzac,45.445313,-0.437761,Jonzac,17500
Amplifon Audioprothésiste La Rochelle Fleuriau,1 rue Fleuriau 17000 La Rochelle,46.161313,-1.150734,La Rochelle,17000
Amplifon Audioprothésiste La Rochelle Sautel,36 boulevard Sautel 17000 La Rochelle,46.167152,-1.135034,La Rochelle,17000
Amplifon Audioprothésiste La Teste de Buch,1 rue du Général Gallieni 33260 La Teste de Buch,44.631147,-1.149067,La Teste-de-Buch,33260
Amplifon Audioprothésiste La Tremblade,4 rue de la Seudre 17390 La Tremblade,45.769492,-1.140835,La Tremblade,17390
Amplifon Audioprothésiste Lagord,4 rue Louis Tardy 17140 Lagord,46.185742,-1.149568,Lagord,17140
Amplifon Audioprothésiste Le Passage,108 Avenue Michel Ricard 47520 Le Passage,44.193162,0.604789,Le Passage,47520
Amplifon Audioprothésiste Le Pian Médoc,Lieu-dit Lande Grand - Route de Pauillac 33290 Le Pian Médoc,44.979602,-0.650618,Le Pian-Médoc,33290
Amplifon Audioprothésiste Lesparre,24 Cours du Général de Gaulle 33340 Lesparre Médoc,45.308571,-0.940521,Lesparre-Médoc,33340
Amplifon Audioprothésiste Libourne,62 rue de Fonneuve 33500 Libourne,44.914657,-0.245775,Libourne,33500
Amplifon Audioprothésiste Limoges,19 place Manigne 87000 Limoges,45.827941,1.261627,Limoges,87000
Amplifon Audioprothésiste Lit-et-Mixe,107 Avenue de la Côte d'Argent 40170 Lit-Et-Mixe,44.031976,-1.255497,Lit-et-Mixe,40170
Amplifon Audioprothésiste Marennes,5 rue le Terme 17320 Marennes,45.823293,-1.106667,Marennes,17320
Amplifon Audioprothésiste Marmande,60 rue de la République 47200 Marmande,44.497911,0.164522,Marmande,47200
Amplifon Audioprothésiste Mérignac,3 avenue de la Libération 33700 Merignac,44.842624,-0.64629,Mérignac,33700
Amplifon Audioprothésiste Meung sur Loire,31 rue Jehan de Meung 45130 Meung sur Loire,47.825144,1.695559,Meung-sur-Loire,45130
Amplifon Audioprothésiste Mimizan,1 route de Baleste 40200 Mimizan,44.194524,-1.229764,Mimizan,40200
Amplifon Audioprothésiste Mont de Marsan,122 boulevard de la République 40000 Mont de Marsan,43.88724,-0.501862,Mont-de-Marsan,40000
Amplifon Audioprothésiste Nontron,44 Bd Gambetta 24300 Nontron,45.532491,0.661116,Nontron,24300
Amplifon Audioprothésiste Notre Dame de Sanilhac,4 impasse des Trois Chênes 24660 Notre Dame de Sanilhac,45.134846,0.6987,Sanilhac,24660
Amplifon Audioprothésiste Pau Charles de Gaulle,13 avenue Charles de Gaulle 64000 Pau,43.301772,-0.355512,Pau,64000
Amplifon Audioprothésiste Périgueux,14 rue Antoine Gadaud 24000 Périgueux,45.186675,0.716421,Périgueux,24000
Amplifon Audioprothésiste Pessac,61 avenue Jean Jaurès 33600 Pessac,44.808847,-0.624093,Pessac,33600
Amplifon Audioprothésiste Poitiers Carnot,43 rue Carnot 86000 Poitiers,46.578386,0.337764,Poitiers,86000
Amplifon Audioprothésiste Poitiers Providence,7 allée de la Providence 86000 Poitiers,46.563005,0.367375,Poitiers,86000
Amplifon Audioprothésiste Rochefort,59 avenue Charles de Gaulle 17300 Rochefort,45.935636,-0.962063,Rochefort,17300
Amplifon Audioprothésiste Royan,58 rue Pierre Loti 17200 Royan,45.627214,-1.031913,Royan,17200
Amplifon Audioprothésiste Ruffec,4 bis place Aristide Briand 16700 Ruffec,46.029478,0.199766,Ruffec,16700
Amplifon Audioprothésiste Saint Jean de Luz,3 avenue de Verdun 64500 Saint Jean de Luz,43.386542,-1.662538,Saint-Jean-de-Luz,64500
Amplifon Audioprothésiste Saint Junien,4 rue Gabriel Péri 87200 Saint Junien,45.88679,0.902031,Saint-Junien,87200
Amplifon Audioprothésiste Saint Martin de Seignanx,88 rue Marie Curie 40390 Saint Martin de Seignanx,43.534706,-1.388931,Saint-Martin-de-Seignanx,40390
Amplifon Audioprothésiste Saint Vincent de Tyrosse,1 place du Foirail 40230 Saint Vincent de Tyrosse,43.65999,-1.306958,Saint-Vincent-de-Tyrosse,40230
Amplifon Audioprothésiste Saint Yrieix la Perche,8 rue du Marché 87500 Saint Yrieix la Perche,45.513928,1.203253,Saint-Yrieix-la-Perche,87500
Amplifon Audioprothésiste Sainte Foy la Grande,18 rue de la République 33220 Sainte Foy la Grande,44.84141,0.214387,Sainte-Foy-la-Grande,33220
Amplifon Audioprothésiste Saintes,28 cours du Maréchal Leclerc 17100 Saintes,45.749508,-0.645645,Saintes,17100
Amplifon Audioprothésiste Saujon,88 rue Carnot 17600 Saujon,45.672707,-0.926274,Saujon,17600
Amplifon Audioprothésiste Soustons,10 rue Emile Nougaro 40140 Soustons,43.754815,-1.327559,Soustons,40140
Amplifon Audioprothésiste Tarnos,40 boulevard Jacques Duclos 40220 Tarnos,43.533677,-1.460846,Tarnos,40220
Amplifon Audioprothésiste Thiviers,12 rue de la Tour 24800 Thiviers,45.415205,0.920008,Thiviers,24800
Amplifon Audioprothésiste Uzerche,avenue Charles de Gaulle 19140 Uzerche,45.425385,1.565287,Uzerche,19140
Amplifon Audioprothésiste Villeneuve sur Lot,2 boulevard Palissy 47300 Villeneuve sur Lot,44.407287,0.709004,Villeneuve-sur-Lot,47300
Amplifon Audioprothésiste Agde,14 rue Jacques Chaban Delmas 34300 Agde,43.299634,3.473903,Agde,34300
Amplifon Audioprothésiste Albi Gambetta,2 avenue Gambetta 81000 Albi,43.92436,2.147865,Albi,81000
Amplifon Audioprothésiste Alès,27D Boulevard Gambetta 30100 Alès,44.12468,4.083425,Alès,30100
Amplifon Audioprothésiste Auterive Centre,1 rue Etienne Billières 31190 Auterive,43.351801,1.472773,Auterive,31190
Amplifon Audioprothésiste Bagnères de Bigorre,32 rue du Général de Gaulle 65200 Bagnères de Bigorre,43.06718,0.153786,Bagnères-de-Bigorre,65200
Amplifon Audioprothésiste Belmont-sur-Rance,Maison de Santé de Belmont-sur-Rance 12370 Belmont-sur-Rance,43.822293,2.754512,Belmont-sur-Rance,12370
Amplifon Audioprothésiste Béziers,114 avenue Georges Clémenceau 34500 Béziers,43.349963,3.222377,Béziers,34500
Amplifon Audioprothésiste Boulogne sur Gesse,52 place de la Mairie 31350 Boulogne sur Gesse,43.290215,0.645698,Boulogne-sur-Gesse,31350
Amplifon Audioprothésiste Bram,60 Avenue Ernest Léotard - Chez Matériel Médical de la Voie Romaine 11150 Bram,43.241783,2.123537,Bram,11150
Amplifon Audioprothésiste Cabestany,2 rue Madeleine Brès - Face site Médipôle 66330 Cabestany,42.691889,2.93186,Cabestany,66330
Amplifon Audioprothésiste Capvern,Chez Optique Sentenac - Lieu-dit Roqueda Devant - C.C. Intermarché CD 817 65130 Capvern,43.112374,0.356026,Capvern,65130
Amplifon Audioprothésiste Carcassonne,48 allée d'Iéna 11000 Carcassonne,43.212967,2.345175,Carcassonne,11000
Amplifon Audioprothésiste Castelnaudary,10 cours de la république 11400 Castelnaudary,43.316667,1.951981,Castelnaudary,11400
Amplifon Audioprothésiste Céret,Résidence Tinssimo 66400 Céret,42.485249,2.746157,Céret,66400
Amplifon Audioprothésiste Clapiers,Avenue de l'Europe - Centre commercial La Croisée 34830 Clapiers,43.661641,3.900768,Clapiers,34830
Amplifon Audioprothésiste Clermont l'Hérault,18 avenue de Montpellier - Centre Commercial 34800 Clermont l'Hérault,43.632585,3.439203,Clermont-l'Hérault,34800
Amplifon Audioprothésiste Colomiers,8 passage du Périgord 31770 Colomiers,43.611575,1.331793,Colomiers,31770
Amplifon Audioprothésiste Frontigan,35 Avenue du Muscat 34110 Frontignan,43.441525,3.746749,Frontignan,34110
Amplifon Audioprothésiste Grabels,Route de Montpellier - Au Centre Commercial Saint-Charles 34790 Grabels,43.646729,3.803378,Grabels,34790
Amplifon Audioprothésiste Graulhet,"Chez Comptoir Optical, Avenue Rhin et Danube 81300 Graulhet",43.760477,1.971395,Graulhet,81300
Amplifon Audioprothésiste Ille sur Tet,10 avenue Jean Jaurès 66130 Ille sur Tet,42.670253,2.62233,Ille-sur-Têt,66130
Amplifon Audioprothésiste L'Union,1 allée des Nymphéas 31240 L'Union,43.655536,1.476768,L'Union,31240
Amplifon Audioprothésiste La Calmette,3 ZAC du Petit Verger 30190 La Calmette,43.923155,4.257336,La Calmette,30190
Amplifon Audioprothésiste La Grande Motte,28 place Saint Exupéry - Immeuble les Argonautes 34280 La Grande Motte,43.558195,4.090573,La Grande-Motte,34280
Amplifon Audioprothésiste Langlade,40 route Sommières 30980 Langlade,43.809139,4.242726,Langlade,30980
Amplifon Audioprothésiste Lattes,Rond-Point de L'Europe 34970 Lattes,43.572286,3.91762,Lattes,34970
Amplifon Audioprothésiste Lavaur,10 place du Vieux Marché 81500 Lavaur,43.69776,1.818098,Lavaur,81500
Amplifon Audioprothésiste Lavelanet,1 avenue du 11 Novembre 1918 09300 Lavelanet,42.932883,1.848787,Lavelanet,09300
Amplifon Audioprothésiste Le Boulou,avenue Jean Moulin - Pôle médical du Distriport 66160 Le Boulou,42.523936,2.825421,Le Boulou,66160
Amplifon Audioprothésiste Lézignan,45 avenue du Maréchal Foch 11200 Lézignan Corbières,43.201026,2.7552,Lézignan-Corbières,11200
Amplifon Audioprothésiste Limoux,53 rue Jean Jaurès 11300 Limoux,43.055466,2.215858,Limoux,11300
Amplifon Audioprothésiste Lunel,Centre Commercial Les Portes de la Mer - Chez Cyl Opticien 34400 Lunel,43.683172,4.151589,Lunel,34400
Amplifon Audioprothésiste Millau,14 boulevard de l'Ayrolle 12100 Millau,44.098848,3.077023,Millau,12100
Amplifon Audioprothésiste Montauban,"20, allée de l'Empereur 82000 Montauban",44.017609,1.357063,Montauban,82000
Amplifon Audioprothésiste Montferrier,320 allée des Vignes - Zone Médicale de Fescau 34980 Montferrier sur Lez,43.671556,3.863318,Montferrier-sur-Lez,34980
Amplifon Audioprothésiste Montpellier Estanove,1 rue de l'Escoutadou - Collines Estanove 34070 Montpellier,43.601313,3.851927,Montpellier,34070
Amplifon Audioprothésiste Montpellier Les Arceaux,15 ter avenue d'Assas 34000 Montpellier,43.613375,3.866408,Montpellier,34000
Amplifon Audioprothésiste Montpellier Saint Denis,4 rue Grand Saint Jean 34000 Montpellier,43.605175,3.875382,Montpellier,34000
Amplifon Audioprothésiste Muret,20 avenue Jacques Douzans 31600 Muret,43.463427,1.325602,Muret,31600
Amplifon Audioprothésiste Narbonne,32 quai Vallière 11100 Narbonne,43.180186,3.008743,Narbonne,11100
Amplifon Audioprothésiste Negrepelisse,6 avenue Sadi Carnot - A l'étage au-dessus de l'opticien (ascenseur) 82800 Negrepelisse,44.072767,1.522993,Nègrepelisse,82800
Amplifon Audioprothésiste Nîmes Courbet,6 boulevard de l'Amiral Courbet 30000 Nimes,43.837019,4.362959,Nîmes,30000
Amplifon Audioprothésiste Nîmes Jean Jaurès,49 avenue Jean Jaurès 30900 Nimes,43.831315,4.352404,Nîmes,30900
Amplifon Audioprothésiste Pamiers,3 bis Route de Mirepoix 09100 Pamiers,43.104284,1.623223,Pamiers,09100
Amplifon Audioprothésiste Perpignan,2 rue yves du Manoir - Entrée rue Pascal Marie Agasse Quartier Saint Assiscle 66000 Perpignan,42.694377,2.871575,Perpignan,66000
Amplifon Audioprothésiste Perpignan Centre,9 rue Camille Desmoulins 66000 Perpignan,42.701082,2.891525,Perpignan,66000
Amplifon Audioprothésiste Port la Nouvelle,102 rue de la Mairie 11210 Port la Nouvelle,43.022008,3.0431,Port-la-Nouvelle,11210
Amplifon Audioprothésiste Prades,6 rue du Palais de Justice 66500 Prades,42.617747,2.422734,Prades,66500
Amplifon Audioprothésiste Quissac,Route de Sauve - Zone Commerciale Intermarché 30260 Quissac,43.922085,3.988184,Quissac,30260
Amplifon Audioprothésiste Saint Affrique,6 Boulevard Victor Hugo 12400 Saint Affrique,43.95772,2.887347,Saint-Affrique,12400
Amplifon Audioprothésiste Saint André,3 B rue Jean Jaurès 66690 Saint André,42.550729,2.965104,Saint-André,66690
Amplifon Audioprothésiste Saint Estève,28 Avenue de la Mirande 66240 Saint Estève,42.714802,2.852606,Saint-Estève,66240
Amplifon Audioprothésiste Saint Gaudens,26 avenue de l’Isle 31800 Saint Gaudens,43.111048,0.725842,Saint-Gaudens,31800
Amplifon Audioprothésiste Saint Hippolyte du Fort,"Chez Les lunettes d'Isa, 13 boulevard des Remparts 30170 Saint Hippolyte du Fort",43.962914,3.855374,Saint-Hippolyte-du-Fort,30170
Amplifon Audioprothésiste Saint Jean de Védas,74 Esplanade de l'Ortet - Résidence les Terrasses de Saint Jean 34430 Saint Jean de Védas,43.57656,3.830845,Saint-Jean-de-Védas,34430
Amplifon Audioprothésiste Saint Jory,"60C, Route Métropolitaine 31790 Saint Jory",43.755345,1.365567,Saint-Jory,31790
Amplifon Audioprothésiste Saint Laurent de la Salanque,10 rue du Docteur René Marquès 66250 Saint Laurent de la Salanque,42.77063,2.984958,Saint-Laurent-de-la-Salanque,66250
Amplifon Audioprothésiste Sète La Corniche,1371 Promenade Maréchal Leclerc - Quartier La Corniche 34200 Sète,43.393808,3.679519,Sète,34200
Amplifon Audioprothésiste Sète Théâtre,14 bis rue Voltaire 34200 Sète,43.408812,3.696874,Sète,34200
Amplifon Audioprothésiste Sommières,4 impasse de la Malautière - Chez Cyl Opticien 30250 Sommières,43.780668,4.079288,Sommières,30250
Amplifon Audioprothésiste Tarbes Marcadieu,9 rue François Mousis 65000 Tarbes,43.231399,0.081702,Tarbes,65000
Amplifon Audioprothésiste Thézan les Béziers,Chez l'opticien Optiko - Centre Commercial Super U 34490 Thézan les Béziers,43.4214,3.169762,Thézan-lès-Béziers,34490
Amplifon Audioprothésiste Toulouges,55 Avenue du Stade - Résidence la Coopé 66350 Toulouges,42.665309,2.832356,Toulouges,66350
Amplifon Audioprothésiste Toulouse,31 allée Jean Jaurès 31000 Toulouse,43.607021,1.450072,Toulouse,31000
Amplifon Audioprothésiste Toulouse Patte d'Oie,17 avenue de Grande Bretagne 31300 Toulouse,43.596938,1.42172,Toulouse,31300
Amplifon Audioprothésiste Tournefeuille,50 rue Gaston Doumergue 31170 Tournefeuille,43.583965,1.344514,Tournefeuille,31170
Amplifon Audioprothésiste Vauvert,23 rue de la République - Chez l'opticien Optic 2000 30600 Vauvert,43.692019,4.274884,Vauvert,30600
Amplifon Audioprothésiste Ancenis,150 Avenue Francis Robert 44150 Ancenis,47.370467,-1.178847,Ancenis,44150
Amplifon Audioprothésiste Angers,6 rue d’Anjou 49100 Angers,47.466117,-0.556695,Angers,49100
Amplifon Audioprothésiste Audioprev Arnage,97 Avenue Nationale 72230 Arnage,47.928511,0.185458,Arnage,72230
Amplifon Audioprothésiste Audioprev Coulaines,59 rue du Général de Gaulle 72190 Coulaines,48.024466,0.204369,Coulaines,72190
Amplifon Audioprothésiste Audioprev Les Maillets,163 rue des Maillets 72000 Le Mans,48.015607,0.213083,Le Mans,72000
Amplifon Audioprothésiste Basse Goulaine,5 rue de la Vieille Cure 44115 Basse Goulaine,47.215865,-1.465881,Basse-Goulaine,44115
Amplifon Audioprothésiste Beaumont sur Sarthe,9 rue du Bercail 72170 Beaumont sur Sarthe,48.225661,0.130295,Beaumont-sur-Sarthe,72170
Amplifon Audioprothésiste Bonchamp-lès-Laval,2 rue du Maine - Chez Les Opticiens Experts 53960 Bonchamp-lès-Laval,48.079604,-0.700197,Bonchamp-lès-Laval,53960
Amplifon Audioprothésiste Candé,25 rue Carnot 49440 Candé,47.560059,-1.03806,Candé,49440
Amplifon Audioprothésiste Carquefou,1 quater rue de l'Hôtel de Ville 44470 Carquefou,47.298746,-1.493269,Carquefou,44470
Amplifon Audioprothésiste Château d'Olonne,45 rue des Frères Michelin 85180 Le Château-d'Olonne,46.49949,-1.753811,Château-d'Olonne,85180
Amplifon Audioprothésiste Couëron,3 place Charles Gide 44220 Couëron,47.210343,-1.729583,Couëron,44220
Amplifon Audioprothésiste La Baule Carlier,25 avenue des Pétrels 44500 La Baule,47.285412,-2.395856,La Baule-Escoublac,44500
Amplifon Audioprothésiste La Ferté Bernard,19 place Ledru Rollin 72400 La Ferté-Bernard,48.184709,0.657897,La Ferté-Bernard,72400
Amplifon Audioprothésiste La Montagne,Place du Grand Pré 44620 La Montagne,47.1874,-1.687525,La Montagne,44620
Amplifon Audioprothésiste La Roche sur Yon,139 boulevard d'Italie 85000 La Roche sur Yon,46.666179,-1.41951,La Roche-sur-Yon,85000
Amplifon Audioprothésiste La Tranche sur Mer,25 rue du Perthuis Breton 85360 La Tranche-sur-Mer,46.347371,-1.431151,La Tranche-sur-Mer,85360
Amplifon Audioprothésiste Laval,45 rue Albert Thomas 53000 Laval,48.067482,-0.803162,Laval,53000
Amplifon Audioprothésiste Le Comte,17 rue Lecomte 85200 Fontenay-le-Comte,46.466357,-0.804356,Fontenay-le-Comte,85200
Amplifon Audioprothésiste Le Mans Centre Buron,22 rue Jankowski 72100 Le Mans,48.005658,0.199169,Le Mans,72000
Amplifon Audioprothésiste Le Mans Pontlieue,16 avenue George Durand 72100 Le Mans,47.982238,0.210979,Le Mans,72100
Amplifon Audioprothésiste Le Mans Université,49 avenue Frédéric Auguste Bartholdi 72000 Le Mans,48.020114,0.159522,Le Mans,72000
Amplifon Audioprothésiste Les Sables d'Olonne,13 avenue Georges Pompidou 85100 Les Sables d'Olonne,46.488151,-1.766671,Les Sables-d'Olonne,85100
Amplifon Audioprothésiste Longué Jumelles,8 place Georges Clémenceau 49160 Longué Jumelles,47.380228,-0.110789,Longué-Jumelles,49160
Amplifon Audioprothésiste Nantes 50 Otages,8 allée Duquesne 44000 Nantes,47.217985,-1.556867,Nantes,44000
Amplifon Audioprothésiste Nantes Bellamy,4 rue Paul Bellamy 44000 Nantes,47.220802,-1.555272,Nantes,44000
Amplifon Audioprothésiste Nantes Clisson,50 Route de Clisson 44200 Nantes,47.191664,-1.524843,Nantes,44200
Amplifon Audioprothésiste Nantes Donatien,118 rue de Coulmiers 44000 Nantes,47.227035,-1.542316,Nantes,44000
Amplifon Audioprothésiste Nantes Jules Verne,125 boulevard Jules Verne 44000 Nantes,47.241021,-1.53006,Nantes,44300
Amplifon Audioprothésiste Nantes Sainte Thérèse,4 route de Vannes 44100 Nantes,47.232901,-1.577468,Nantes,44100
Amplifon Audioprothésiste Orvault,1 rue du Raffuneau 44700 Orvault,47.271382,-1.623099,Orvault,44700
Amplifon Audioprothésiste Pontchâteau,20 rue Sainte-Catherine - chez A Vous De Voir  44160 Pontchâteau,47.435869,-2.089991,Pontchâteau,44160
Amplifon Audioprothésiste Saint Barthélémy d'Anjou,16 route d’Angers 49124 Saint Barthélémy d'Anjou,47.459457,-0.48312,Saint-Barthélemy-d'Anjou,49124
Amplifon Audioprothésiste Saint Gildas,"Route de Pontchâteau - Optique Vision Plus, CC Super U 44530 Saint-Gildas-des-Bois",47.510514,-2.039812,Saint-Gildas-des-Bois,44530
Amplifon Audioprothésiste Saint Nazaire Carlier,83 avenue Albert de Mun 44600 Saint Nazaire,47.278986,-2.215849,Saint-Nazaire,44600
Amplifon Audioprothésiste Sainte Luce,Place du 11 novembre 44980 Sainte-Luce sur Loire,47.249495,-1.486443,Sainte-Luce-sur-Loire,44980
Amplifon Audioprothésiste Saumur,49 rue d'Orléans 49400 Saumur,47.259104,-0.079087,Saumur,49400
Amplifon Audioprothésiste Sautron,2 bis Rue de la Pépinière 44880 Sautron,47.261287,-1.663615,Sautron,44880
Amplifon Audioprothésiste Sillé le Guillaume,17 rue du Coq Hardi 72140 Sillé le Guillaume,48.183371,-0.129665,Sillé-le-Guillaume,72140
Amplifon Audioprothésiste Aix All Provencale,48 avenue Armand Lunel - Les allées Provençales 13100 Aix en Provence,43.526447,5.441401,Aix-en-Provence,13100
Amplifon Audioprothésiste Aix Gambetta,67 cours Gambetta 13100 Aix en Provence,43.518806,5.462932,Aix-en-Provence,13100
Amplifon Audioprothésiste Antibes Albert 1er,3 boulevard Albert 1er - Le Montecarlo 06600 Antibes,43.57093,7.102134,Antibes,06160
Amplifon Audioprothésiste Antibes Wilson,24 boulevard Wilson 06600 Antibes,43.578208,7.119081,Antibes,06160
Amplifon Audioprothésiste Apt,39 Place du Postel 84400 Apt,43.876028,5.397822,Apt,84400
Amplifon Audioprothésiste Arles,55 boulevard Emile Combes 13200 Arles,43.675867,4.632974,Arles,13200
Amplifon Audioprothésiste Aubagne Barthélémy,2 cours Barthélémy 13400 Aubagne,43.292817,5.56747,Aubagne,13400
Amplifon Audioprothésiste Avignon Centre,29 rue des Trois Faucons 84000 Avignon,43.945229,4.807495,Avignon,84000
Amplifon Audioprothésiste Avignon Semard,8 avenue Pierre Semard 84000 Avignon,43.943309,4.815421,Avignon,84000
Amplifon Audioprothésiste Barcelonnette,"Maison de Santé Pluridisciplinaire - 2, rue de Ménil-sur-Belvitte - Quartier du 11e BCA 04400 Barcelonnette",44.385128,6.644986,Barcelonnette,04400
Amplifon Audioprothésiste Bastia,683 Avenue de la Libération - Résidence de l'Elysée Bâtiment B 20600 Bastia,42.679769,9.443462,Bastia,20600
Amplifon Audioprothésiste Bouc Bel Air,Centre commercial San Baquis - RN8 13320 Bouc Bel Air,43.447629,5.389815,Bouc-Bel-Air,13320
Amplifon Audioprothésiste Briançon,9 avenue du Général de Gaulle 05100 Briançon,44.895379,6.633385,Briançon,05100
Amplifon Audioprothésiste Brignoles,9 avenue du Maréchal Foch - Immeuble Candelon 83170 Brignoles,43.407749,6.065748,Brignoles,83170
Amplifon Audioprothésiste Cagnes sur Mer,11 avenue de l'Hôtel de Ville 06800 Cagnes sur Mer,43.66298,7.148381,Cagnes-sur-Mer,06800
Amplifon Audioprothésiste Cannes Carnot,46 Boulevard Carnot 06400 Cannes,43.558032,7.016983,Cannes,06400
Amplifon Audioprothésiste Cannes la Bocca,118 avenue Francis Tonner - Résidence de l'Estérel 06150 Cannes,43.549804,6.973189,Cannes,06150
Amplifon Audioprothésiste Carqueiranne,19 place de la République 83320 Carqueiranne,43.095369,6.074866,Carqueiranne,83320
Amplifon Audioprothésiste Carry le Rouet,Place Jean Jaurès - Résidence du Port 13620 Carry-le-Rouet,43.330861,5.152741,Carry-le-Rouet,13620
Amplifon Audioprothésiste Châteaurenard,4 place de la Victoire 13160 Chateaurenard,43.882061,4.853853,Châteaurenard,13160
Amplifon Audioprothésiste Cogolin,Centre Commercial Agora 83310 Cogolin,43.250646,6.524447,Cogolin,83310
Amplifon Audioprothésiste Digne les Bains,15 boulevard Gassendi 04000 Digne les Bains,44.091617,6.232496,Digne-les-Bains,04000
Amplifon Audioprothésiste Draguignan,1 boulevard du Général Leclerc 83300 Draguignan,43.53603,6.460599,Draguignan,83300
Amplifon Audioprothésiste Embrun,57 rue Clovis Hugues 05200 Embrun,44.564747,6.496085,Embrun,05200
Amplifon Audioprothésiste Fos sur Mer,Avenue Georges Pompidou - Centre commercial Intermarché Lot N4 13270 Fos sur Mer,43.463423,4.941052,Fos-sur-Mer,13270
Amplifon Audioprothésiste Fréjus Cap Valescure,37 allée du Parc Arundo - 1186 avenue André Léotard 83600 Fréjus,43.437249,6.759163,Fréjus,83600
Amplifon Audioprothésiste Fréjus Centre,53 rue Jean Jaurès 83600 Frejus,43.43304,6.735218,Fréjus,83600
Amplifon Audioprothésiste Gap,"37, Avenue Emile Didier 05000 Gap",44.56475,6.090444,Gap,05000
Amplifon Audioprothésiste Hyères,12 avenue des Iles d'or 83400 Hyères,43.120301,6.127305,Hyères,83400
Amplifon Audioprothésiste Istres,21 boulevard de la République 13800 Istres,43.513298,4.987209,Istres,13800
Amplifon Audioprothésiste Juan les Pins,6 bis avenue de l'Esterel 06160 Juan les Pins,45.819352,0.390577,Les Pins,16260
Amplifon Audioprothésiste La Brillanne,Chez Optique Durance - Centre Commercial Carrefour Route départementale 4096 04700 La Brillanne,43.932006,5.893001,La Brillanne,04700
Amplifon Audioprothésiste La Ciotat,2 avenue du Président Kennedy 13600 La Ciotat,43.178896,5.600094,La Ciotat,13600
Amplifon Audioprothésiste La Destrousse,La Tuilerie Bâtiment A2 13112 La Destrousse,43.385803,5.595088,La Destrousse,13112
Amplifon Audioprothésiste La Seyne sur Mer,42 rue Edouard Manet - Les Sablettes 83500 La Seyne sur Mer,43.079843,5.892313,La Seyne-sur-Mer,83500
Amplifon Audioprothésiste Le Muy,90 boulevard de la libération 83490 Le Muy,43.4717,6.561343,Le Muy,83490
Amplifon Audioprothésiste Le Pontet,47 avenue Charles de Gaulle 84130 Le Pontet,43.956767,4.847151,Le Pontet,84130
Amplifon Audioprothésiste Le Pradet,390 avenue de La Première Dfl - Le Caducée 83220 Le Pradet,43.106967,6.017551,Le Pradet,83220
Amplifon Audioprothésiste Mandelieu,391 avenue de Cannes - Les Glycines 06210 Mandelieu la Napoule,43.543489,6.937153,Mandelieu-la-Napoule,06210
Amplifon Audioprothésiste Manosque,341 Avenue du Moulin Neuf - Le forum 04100 Manosque,43.8292,5.795655,Manosque,04100
Amplifon Audioprothésiste Marignane,21 avenue Maréchal Juin 13700 Marignane,43.418918,5.220636,Marignane,13700
Amplifon Audioprothésiste Marseille Cabot,11 boulevard de Redon 13009 Marseille,43.256785,5.419477,Marseille,13009
Amplifon Audioprothésiste Marseille Cantini,45 avenue Jules Cantini 13006 Marseille,43.284209,5.38709,Marseille,13006
Amplifon Audioprothésiste Marseille Chave,62 Boulevard Chave 13005 Marseille,43.295106,5.390448,Marseille,13005
Amplifon Audioprothésiste Marseille Endoume,109 rue d’Endoume 13007 Marseille,43.286903,5.363854,Marseille,13007
Amplifon Audioprothésiste Marseille La Gavotte,102 avenue François Mitterand - La Gavotte 13170 Les Pennes Mirabeau,43.380595,5.34806,Les Pennes-Mirabeau,13170
Amplifon Audioprothésiste Marseille Les Olives,158 avenue des Olives - Centre commercial des Martégaux 13013 Marseille,43.326077,5.439507,Marseille,13013
Amplifon Audioprothésiste Marseille Libération,225 boulevard de la Libération 13004 Marseille,43.302545,5.395618,Marseille,13004
Amplifon Audioprothésiste Marseille Mazargues,769 avenue de Mazargues 13009 Marseille,43.248421,5.398624,Marseille,13009
Amplifon Audioprothésiste Marseille Paradis,360 rue Paradis 13008 Marseille,43.278432,5.383003,Marseille,13008
Amplifon Audioprothésiste Marseille Saint Barnabé,56 avenue de Saint-Julien 13012 Marseille,43.305193,5.416824,Marseille,13012
Amplifon Audioprothésiste Marseille Saint-Louis,116 Avenue Saint-Louis 13015 Marseille,43.3468,5.359256,Marseille,13015
Amplifon Audioprothésiste Marseille Sainte Anne,404 avenue de Mazargues 13008 Marseille,43.257929,5.394314,Marseille,13008
Amplifon Audioprothésiste Marseille Valentine,8 route de la Sablières - Chez Lynx Optique 13011 Marseille,43.293019,5.479792,Marseille,13011
Amplifon Audioprothésiste Marseille Vivaux,5 traverse de la Verrerie - Centre médical Pont de vivaux 13010 Marseille,43.278382,5.419604,Marseille,13010
Amplifon Audioprothésiste Martigues Ferriere,1 rue de la Chaine - Quai des Girondins 13500 Martigues,43.407306,5.055401,Martigues,13500
Amplifon Audioprothésiste Nice Cassini,18 rue Cassini 06300 Nice,43.699561,7.282594,Nice,06300
Amplifon Audioprothésiste Nice Joffre,22 rue du Maréchal Joffre 06000 Nice,43.698808,7.265107,Nice,06000
Amplifon Audioprothésiste Nice Malaussena,1 avenue Malaussena 06000 Nice,43.706378,7.263966,Nice,06000
Amplifon Audioprothésiste Nice République,27 avenue de la République 06300 Nice,43.703439,7.281671,Nice,06300
Amplifon Audioprothésiste Orange,79 avenue Charles de Gaulle 84100 Orange,44.136005,4.8032,Orange,84100
Amplifon Audioprothésiste Pertuis,260 cours de la République 84120 Pertuis,43.69116,5.500213,Pertuis,84120
Amplifon Audioprothésiste Porto Vecchio,Route de Bastia - Centre Commercial U Centru 20137 Porto Vecchio,41.611585,9.279101,Porto-Vecchio,20137
Amplifon Audioprothésiste Rocbaron,Impasse du Colibri - Zone Artisanale du Fray Redon 83136 Rocbaron,43.313688,6.077883,Rocbaron,83136
Amplifon Audioprothésiste Saint Maximin,1 boulevard du Docteur Bonfils 83470 Saint Maximin,43.453574,5.861798,Saint-Maximin-la-Sainte-Baume,83470
Amplifon Audioprothésiste Saint Raphaël,40 rue Léon Basso 83700 Saint Raphaël,43.42415,6.767741,Saint-Raphaël,83700
Amplifon Audioprothésiste Sainte Maxime,32 avenue Georges Clémenceau 83120 Sainte Maxime,43.309907,6.637734,Sainte-Maxime,83120
Amplifon Audioprothésiste Sanary sur Mer,14 place Albert Cavet 83110 Sanary sur Mer,43.117641,5.804602,Sanary-sur-Mer,83110
Amplifon Audioprothésiste Sartène,1 avenue Jean Nicoli 20100 Sartène,41.618897,8.970754,Sartène,20100
Amplifon Audioprothésiste Sisteron,8 avenue Jean Jaurès 04200 Sisteron,44.188921,5.946298,Sisteron,04200
Amplifon Audioprothésiste Six-Fours Les Plages,640 Avenue Laennec 83140 Six-Fours Les Plages,43.089935,5.83015,Six-Fours-les-Plages,83140
Amplifon Audioprothésiste Solliès Pont,1 chemin de l'Enclos - Le Liberté Bâtiment B 83210 Solliès Pont,43.192094,6.038731,Solliès-Pont,83210
Amplifon Audioprothésiste Sorgues,Rue Roger Ricca - Résidence de l'Etoile 84700 Sorgues,44.008597,4.87495,Sorgues,84700
Amplifon Audioprothésiste Tarascon,61 rue des Halles 13150 Tarascon,43.804225,4.656508,Tarascon,13150
Amplifon Audioprothésiste Toulon Foch,270 avenue Maréchal Foch - Le Concorde 83000 Toulon,43.127029,5.922245,Toulon,83000
Amplifon Audioprothésiste Toulon Liberté,185 place de La Liberté 83000 Toulon,43.126361,5.930893,Toulon,83000
Amplifon Audioprothésiste Toulon Mourillon,Avenue du Maréchal de Lattre de Tassigny - Le Mourillon 83000 Toulon,43.11623,5.937469,Toulon,83000
Amplifon Audioprothésiste Tourrettes,Quartier Tassy - Centre Médical Tassy 83440 Tourrettes,43.61667,6.72255,Tourrettes,83440
Amplifon Audioprothésiste Trets,16 avenue Jean Jaurès 13530 Trets,43.447742,5.686469,Trets,13530
Amplifon Audioprothésiste Vaison la Romaine,12 avenue Victor Hugo 84110 Vaison la Romaine,44.240938,5.07651,Vaison-la-Romaine,84110
Amplifon Audioprothésiste Valréas,28 cours du Berteuil 84600 Valréas,44.385057,4.992643,Valréas,84600
Amplifon Audioprothésiste Venelles,12 avenue de la Grande Begude 13770 Venelles,43.587247,5.476075,Venelles,13770
