shop_name,address,latitude,longitude,city,postcode
audio2000 aire sur la lys,Centre commercial Val de Lys / Rue du bois,45.464,-0.64109,Bois,17240
audio2000 ajaccio,Résidence Espace Alban Cours Napoléon,46.118162,4.33917,Cours,69470
audio2000 albert,14 avenue Georges Clémenceau,47.246745,4.88234,Clémencey,21220
audio2000 angers,Rue du Grand Launay Centre commercial Grand Maine,48.384712,5.486892,Grand,88350
audio2000 anneyron,Maison de Santé - 2 rue du Levant,46.088919,4.94888,Relevant,01990
audio2000 antony,4 Avenue Aristide Briand antony,48.753629,2.305221,Antony,92160
audio2000 argenteuil,Route d'Enghien Centre commercial Joliot Curie,48.970879,2.303504,Enghien-les-Bains,95880
audio2000 athis,-MONS 77 avenue Jacques Chirac,45.907677,0.685614,Chirac,16150
audio2000 audenge,10 Route de Bordeaux,44.814368,-0.57273,Bordeaux,33800
audio2000 auneau,2 rue Pasteur - Place de l'Eglise,49.414638,-1.694107,Saint-Pierre-d'Arthéglise,50270
audio2000 auray,24 avenue JF Kennedy,48.512599,6.219949,Benney,54740
audio2000 balma,7 avenue Pierre Coupeau balma,43.61073,1.497938,Balma,31130
audio2000 bastia,40 Boulevard Paoli bastia,42.701016,9.450367,Bastia,20200
audio2000 bayonne,17 rue Lormand,49.878087,3.149854,Vermand,02490
audio2000 beaupreau,3 rue du Maréchal Foch,-21.55,167.883333,Maré,98828
audio2000 belfort,14 boulevard de Lattre de Tassigny,48.006594,5.645996,Parnoy-en-Bassigny,52400
audio2000 berck sur mer,228-230 Rue de l’Impératrice,49.038692,4.937156,Châtrices,51800
audio2000 besancon,14 rue René Char,50.272494,1.667336,Rue,80120
audio2000 bessines,21 route de la Rochelle,47.746314,5.73169,La Rochelle,70120
audio2000 bollene,Avenue Jean Moulin,42.961665,1.09119,Moulis,09200
audio2000 bretigny sur orge,Centre commercial AUCHAN/Maison neuve,48.3307,7.313635,Neuve-Église,67220
audio2000 brie comte robert,Centre Commercial HYPER U,50.049345,1.417728,Eu,76260
audio2000 brioude,23/25 Rue du 4 Septembre,45.553231,5.004413,Septème,38780
audio2000 brou,13 Place des Halles,45.718607,4.431016,Les Halles,69610
audio2000 caen,11 rue Paul Doumer,50.272494,1.667336,Rue,80120
audio2000 canet en roussillon,12 Rue Cap Bear,43.722085,7.405834,Cap-d'Ail,06320
audio2000 capdenac,-GARE 6 rue de la République,46.387098,6.542815,Publier,74500
audio2000 carcassonne,38 avenue du Docteur Henri Gout,47.09886,2.570716,Nohant-en-Goût,18390
audio2000 castelginest,3 rue Magressoles,45.866758,5.095951,Bressolles,01360
audio2000 chambly,Centre Commercial Les Hauts Vents ZAC  Les Portes de l'Oise,47.614458,3.466901,Les Hauts de Forterre,89560
audio2000 charmeil,12 Route de Saint Pourçain,48.404253,-4.228698,Saint-Urbain,29800
audio2000 chartres,4 rue Georges Fessard,47.992326,2.622929,Saint-Maurice-sur-Fessard,45700
audio2000 chateaudun,3-4 place du 18 octobre,43.655002,3.303774,Octon,34800
audio2000 clamart,Centre commercial des Hauts de Clamart/place Aimé Césaire,48.799865,2.262793,Clamart,92140
audio2000 clermont l,'HERAULT 22 bis Boulevard Gambetta,45.943362,5.362431,Bettant,01500
audio2000 coarraze,Rue de la gare/Galerie marchande Intermarché,45.981755,2.304245,Bellegarde-en-Marche,23190
audio2000 colmar,30 Rue de Turenne,45.054585,1.582685,Turenne,19500
audio2000 commentry,4 Place du 14 Juillet,44.426483,0.290188,Fauillet,47400
audio2000 compiegne,17 Esplanade Marguerite Perey Centre commercial de Royallieu,45.729023,3.2327,Pérignat-sur-Allier,63800
audio2000 conde sur l,'ESCAUT 42 rue Gambetta,50.272494,1.667336,Rue,80120
audio2000 crepy en valois,Rue Henri Laroche Zone La Croix Cailleux,43.778728,6.730258,Caille,06750
audio2000 dammartin en goele,161 Rue du Générale de Gaulle,43.212313,1.931259,Generville,11270
audio2000 deauville,10 avenue de la République,49.691069,1.19603,La Crique,76850
audio2000 digne les bains,25 boulevard Gassendi,47.630519,5.210779,Boussenois,21260
audio2000 dijon,9 et 11 Rue de la Liberté,47.202498,5.012066,Saint-Philibert,21220
audio2000 dol de bretagne,24 Grande Rue des Stuarts,47.733811,0.718769,Les Essarts,41800
audio2000 domfront,29 Grande Rue,50.265628,1.667929,Rue,80120
audio2000 doue la fontaine,9 Place Jean Bégault,48.716185,5.048248,Lisle-en-Rigault,55000
audio2000 enghien les bains,11 Rue de Mora,45.692223,5.263846,Moras,38460
audio2000 ermont,15 Rue Louis Savoie,45.654863,6.440174,Tours-en-Savoie,73790
audio2000 etaples sur mer,10 Place du Général de Gaulle,43.212575,1.931916,Generville,11270
audio2000 evreux,27 Rue de Grenoble,45.190036,5.721259,Grenoble,38000
audio2000 faulquemont,9 Place du Marché,45.49886,6.000291,Les Marches,73800
audio2000 figeac,32 rue Gambetta,42.344119,9.383067,Piobetta,20234
audio2000 flers,725 Route de Domfront,49.604766,2.546555,Domfront,60420
audio2000 fonsorbes,Zac des Portes du GERS,49.028304,0.952555,Portes,27190
audio2000 fontaine les dijon,Centre commercial Géant,46.224148,0.64707,Le Vigeant,86150
audio2000 fougeres,11 Boulevard Maréchal Leclerc,47.040357,4.270083,Reclesne,71540
audio2000 franconville,3 Boulevard Maurice Berteaux,48.710893,-0.266453,Les Yveteaux,61210
audio2000 goussainville,10 Boulevard Roger Salengro,44.947032,4.894634,Bourg-lès-Valence,26500
audio2000 grandvillars,16 Rue du Général Leclerc grandvillars,47.539271,6.968402,Grandvillars,90600
audio2000 grenoble,52 Boulevard Joseph Vallier,48.309214,6.082974,Domvallier,88500
audio2000 grenoble,1 Rue Frédéric Taulier,45.224302,-0.572725,Étauliers,33820
audio2000 guebwiller,8 rue Théodore Deck guebwiller,47.901156,7.217302,Guebwiller,68500
audio2000 hazebrouck,9 place du Général de Gaulle,43.212575,1.931916,Generville,11270
audio2000 hericourt zac,en Salomon,45.339385,4.247361,Pont-Salomon,43330
audio2000 houdan,13 Place de la Tour,43.946875,7.185239,La Tour,06420
audio2000 la cote saint andre,82 rue de la république,50.272494,1.667336,Rue,80120
audio2000 la ferte bernard,23 Rue Denfert Rochereau,44.576626,4.285072,Rocher,07110
audio2000 la ferte gaucher,9 Place Pasteur,43.041715,0.169979,Asté,65200
audio2000 la ferte mace,4 Rue d'Hautvie,49.085609,3.944546,Hautvillers,51160
audio2000 la ferte sous jouarre,12-14 Place de l'Hôtel de Ville,48.341624,7.294011,Villé,67220
audio2000 la seyne sur mer,"Immeuble Tamaris Bay, Les Sablettes 2271 Corniche Georges Pompidou",44.19492,3.655125,Le Pompidou,48110
audio2000 la seyne sur mer,6 quai Saturnin Fabre,43.07469,1.417257,Gabre,09290
audio2000 la ville du bois,Centre commercial Carrefour la,47.299217,-1.492362,Carquefou,44470
audio2000 lagny sur marne,5-7 Rue des Marchés,44.974324,5.109196,Marches,26300
audio2000 lannion,11 Place du Général Leclerc,47.91879,1.088086,La Ville-aux-Clercs,41160
audio2000 le mans,Parc Manceau ZAC de l'Ardoise,44.097671,4.696721,Laudun-l'Ardoise,30290
audio2000 le quesnoy,Centre commercial Porte Le Quesnoy,50.251938,3.639792,Le Quesnoy,59530
audio2000 le viel evreux,380 rue Clément Ader Batiment 1 Local 5,43.826812,4.026459,Saint-Clément,30260
audio2000 lempdes,Centre commercial CORA,48.767686,-1.201998,Saint-Jean-du-Corail-des-Bois,50370
audio2000 levallois perret,60 Rue Louise Michel,43.973226,6.019112,Puimichel,04700
audio2000 lievin,Centre commercial Carrefour ZAC les marichelles,49.71738,3.954075,Agnicourt-et-Séchelles,02340
audio2000 lisieux,33 place de la République,48.252341,-0.776378,Placé,53240
audio2000 longuenesse,Centre commercial Auchan Rive de l'Aa 12 avenue Frais Fonds,46.25107,2.228771,Trois-Fonds,23230
audio2000 loudeac,33 Rue de Pontivy,48.074525,-2.981764,Pontivy,56300
audio2000 lyon,63-65 Avenue Jean Jaurès,45.057538,0.552896,Jaure,24140
audio2000 manosque,1 Avenue Jean Giono manosque,43.831481,5.784263,Manosque,04100
audio2000 maubeuge,Espace Rive Gauche/ avenue Jean Mabuse,48.781771,3.30575,La Ferté-Gaucher,77320
audio2000 maurepas,12 Allée du Bourbonnais,46.931962,2.702836,Lugny-Bourbonnais,18350
audio2000 metz,2 rue de Champagne,48.02021,0.335501,Champagné,72470
audio2000 mezzavia,"Lieu Dit Stagnacciu, Parc d'activités de Mezzavia",44.943024,0.868544,Saint-Avit-de-Vialard,24260
audio2000 moisselles,Centre commercial LECLERC / RN1,49.806795,3.226056,Fontaine-lès-Clercs,02680
audio2000 molsheim,21 Place de l'Hotel de Ville,48.341624,7.294011,Villé,67220
audio2000 montlucon,28 bis Boulevard de Courtais,46.471213,2.435862,Courçais,03370
audio2000 montlucon,13 rue Albert Einstein montlucon,46.347976,2.601651,Montluçon,03100
audio2000 montreuil sur mer,72 rue Pierre Ledent,48.89962,3.037391,Pierre-Levée,77580
audio2000 morhange,2 place Bérot,48.252341,-0.776378,Placé,53240
audio2000 moulins,9 Place de l'Hôtel de Ville,48.341624,7.294011,Villé,67220
audio2000 mozac,67 avenue Jean Jaurès,45.057538,0.552896,Jaure,24140
audio2000 mulhouse,7 Avenue Auguste Wicky mulhouse,47.743531,7.340363,Mulhouse,68100
audio2000 mundolsheim,Centre Commercial  CORA,48.767686,-1.201998,Saint-Jean-du-Corail-des-Bois,50370
audio2000 munster,18 Rue Martin Hilti – ZI munster,48.043023,7.160553,Munster,68140
audio2000 murs erigne,26 Rue Valentin Des Ormeaux Centre Commercial Rive Sud,48.239011,-0.619259,Commer,53470
audio2000 nantes,11 Place Royale,48.143323,1.053942,Chapelle-Royale,28290
audio2000 noisy le grand,227 Rue Pierre Brossolette,42.555533,2.271136,Olette,66360
audio2000 nyons,29 avenue Henri Rochier nyons,44.361355,5.137335,Nyons,26110
audio2000 olivet,77 rue de champagne,48.019792,0.333913,Champagné,72470
audio2000 orleans,79 rue Bannier,43.624771,1.751505,Bannières,81500
audio2000 pamiers,5/7 Rue de la République,46.387098,6.542815,Publier,74500
audio2000 papeete tahiti,BP 40026 Fare Tony,48.754643,2.296292,Antony,92160
audio2000 paris,28 rue des Petits Champs,49.550835,3.251885,Champs,02670
audio2000 paris,204 rue de Tolbiac,43.551903,1.779969,Albiac,31460
audio2000 paris,10 rue Jeanne d'Arc,44.407446,4.395403,Vallon-Pont-d'Arc,07150
audio2000 paris,92 Avenue des ternes,49.909637,3.098194,Bernes,80240
audio2000 paris,110 bis Rue Ordener,43.204275,-0.226571,Bordères,64800
audio2000 peage de roussillon,116 Rue de la République,50.272494,1.667336,Rue,80120
audio2000 peronne,22 Place Louis Daudre peronne,49.929524,2.934465,Péronne,80200
audio2000 pluvigner,10 rue Saint-Michel,48.073449,2.375888,Saint-Michel,45340
audio2000 pontorson,31 rue du Couesnon,48.589077,-1.591359,Roz-sur-Couesnon,35610
audio2000 pornic,37 Rue Jean Moulin,43.939514,4.5643,Remoulins,30210
audio2000 pornichet,6 Boulevard du port,46.167293,5.564633,Port,01460
audio2000 puilboreau,Galerie Centre Commercial Hyper U,50.049345,1.417728,Eu,76260
audio2000 quetigny,Centre commercial Grand Quétigny Avenue de Bourgogne,47.313457,5.112018,Quetigny,21800
audio2000 redon,50 route de Rennes,48.116371,-1.722696,Rennes,35000
audio2000 reims,4 Rue de Cernay,49.008198,0.325794,Cernay,14290
audio2000 rennes,15 Quai Lamennais,16.271538,-61.633066,Lamentin,97129
audio2000 rennes,5 Bis rue du Bosphore Tour Alma 2ème étage,50.272494,1.667336,Rue,80120
audio2000 rethel,2 rue Colbert,48.672084,2.696468,Coubert,77170
audio2000 riom,16 rue du Commerce,48.241475,-0.619973,Commer,53470
audio2000 rives sur fure,66 Boulevard de la République,49.612538,0.688564,Valliquerville,76190
audio2000 rixheim,23 Grand Rue Pierre Braun,46.368423,4.567605,Brandon,71520
audio2000 roissy en brie,1 Avenue Ancel de Garlande,45.918093,3.192165,Clerlande,63720
audio2000 romorantin,108 Rue Georges Clémenceau,49.114054,0.138035,Les Monceaux,14100
audio2000 rouffach,35 A rue du Général de Gaulle,43.211909,1.932577,Generville,11270
audio2000 ruaudin maine street,/ZAC des Hunaudières,48.586166,4.107223,Allibaudières,10700
audio2000 saint vincent de tyrosse,1 Chemin de Mattecu/Secteur Grand Tourren,46.698035,4.873452,Varennes-le-Grand,71240
audio2000 saint,-AVOLD 28 rue de la piscine,50.272494,1.667336,Rue,80120
audio2000 saint,-CERE 22 Boulevard Carnot,49.985028,2.755802,Carnoy,80300
audio2000 saint,-CLAIR DU RHONE 67 rue du Stade Pôle Médical Yvan Esson,48.961706,-0.459887,Esson,14220
audio2000 saint,-FLOUR 15 place de la Liberté,48.942318,3.765014,Corribert,51270
audio2000 saint,-OMER 6 rue Carnot,49.985028,2.755802,Carnoy,80300
audio2000 saint,-QUAI PERROS ZA De Kérigant,48.827636,-3.485577,Perros-Guirec,22700
audio2000 saint,-RENAN 10 Rue Saint Yves,46.057602,-1.056229,Yves,17340
audio2000 sarcelles,Avenue de la Division Leclerc Centre commercial My Place,48.252341,-0.776378,Placé,53240
audio2000 sarzeau,47 rue Père Marie Joseph Coudrin,50.272494,1.667336,Rue,80120
audio2000 seloncourt,Maison médicale 138 rue du général Leclerc,48.706571,4.663881,Vauclerc,51300
audio2000 soissons,11 rue du Commerce,48.241475,-0.619973,Commer,53470
audio2000 strasbourg,6 Avenue des Vosges,45.960553,5.498048,Évosges,01230
audio2000 surgeres,Centre commercial Leclerc rue Jean-Philippe Rameau,48.044643,3.322132,Armeau,89500
audio2000 taravao,BP 40026 Route de Varao PK 60,45.922385,-0.424521,Varaize,17400
audio2000 thionville,2 place de Turenne / Rue du Manège,45.053181,1.579997,Turenne,19500
audio2000 toulouse,35 Avenue des Minimes,43.821152,4.336594,Nîmes,30900
audio2000 tournefeuille,64 boulevard Vincent Auriol,43.375161,5.630015,Auriol,13390
audio2000 tulle,60 Avenue Victor Hugo tulle,45.26302,1.762326,Tulle,19000
audio2000 urrugne,210 Route Départementale 810,43.862574,1.269097,Dieupentale,82170
audio2000 valdahon,7 rue de la Gare,43.616709,1.627493,Gauré,31590
audio2000 valognes,5 rue de Poterie,49.227136,-0.775524,Noron-la-Poterie,14490
audio2000 vannes,114 Avenue de la Marne,46.999377,-1.760872,La Marne,44270
audio2000 varennes sur allier,96 avenue Chazeuil,47.558511,5.270327,Chazeuil,21260
audio2000 vaureal,6 Place du Rendez-vous ZAC de la Russie vaureal,49.033333,2.02094,Vauréal,95490
audio2000 vendome,20 rue du Change,46.932408,4.633269,Change,21340
audio2000 vertou,Place du Beau Verger,48.070671,-1.932779,Le Verger,35160
audio2000 villenave d,'ORNON 65 route de léognan,44.726509,-0.594073,Léognan,33850
audio2000 villers cotterets,6 Place du Docteur Mouflier,49.922279,1.744268,Mouflières,80140
audio2000 vincennes,61 rue de Fontenay,48.219043,6.594439,Fontenay,88600
audio2000 vitrolles,Centre commercial CARREFOUR vitrolles,43.430771,5.280804,Vitrolles,13127
audio2000 voiron,13 Avenue Dugueyt Jouvin,50.578912,3.188373,Bouvines,59830
audio2000 wasselonne,5 place du Général Leclerc,47.918771,1.087602,La Ville-aux-Clercs,41160
audio2000 yerres,15 rue Marc Sangnier,46.092904,6.503381,Marignier,74970
