shop_name,address,latitude,longitude,city,postcode
Audilab  Audioprothésiste 09,"38, allée des Pins 13009 Marseille",43.253827,5.417374,Marseille,13009
Audilab  Audioprothésiste Agde,Boulevard René Cassin 34300 Agde,43.305552,3.488563,Agde,34300
Audilab  Audioprothésiste Aigrefeuille d'Aunis,12 passage des Halles 17290 Aigrefeuille-d'Aunis,46.117235,-0.935158,Aigrefeuille-d'Aunis,17290
Audilab  Audioprothésiste Aix-les-Bains,213 avenue Marie de Solms 73100 Aix-les-Bains,45.688,5.910355,Aix-les-Bains,73100
Audilab  Audioprothésiste Aizenay,1 bis place de l'Aire Buron 85190 Aizenay,46.739594,-1.607899,Aizenay,85190
Audilab  Audioprothésiste Alençon,36 Grande Rue 61000 Alençon,48.430254,0.088775,Alençon,61000
Audilab  Audioprothésiste Amboise,13 place Saint Denis 37400 Amboise,47.410224,0.979778,Amboise,37400
Audilab  Audioprothésiste Angers,142 avenue de Lattre de Tassigny 49000 Angers,47.445956,-0.537851,Angers,49000
Audilab  Audioprothésiste Angers Visitation,15 place de la Visitation 49100 Angers,47.466531,-0.557011,Angers,49100
Audilab  Audioprothésiste Angers centre,2 rue Lionnaise 49100 Angers,47.475414,-0.562276,Angers,49100
Audilab  Audioprothésiste Anglet,31 avenue de Biarritz 64600 Anglet,43.480222,-1.519147,Anglet,64600
Audilab  Audioprothésiste Angoulême,20 boulevard Poitou-Charentes 16000 Angoulême,45.649697,0.134793,Angoulême,16000
Audilab  Audioprothésiste Angoulême,5 rue Montalembert 16000 Angoulême,45.647237,0.166551,Angoulême,16000
Audilab  Audioprothésiste Annecy,27 rue de la Paix 74000 Annecy,45.904907,6.131349,Annecy,74000
Audilab  Audioprothésiste Antrain,3bis boulevard du Général de Gaulle 35560 Antrain,48.459957,-1.481778,Antrain,35560
Audilab  Audioprothésiste Apt,69 place Saint-Pierre 84400 Apt,43.876191,5.399126,Apt,84400
Audilab  Audioprothésiste Arles,3 boulevard Émile Combes 13200 Arles,43.679416,4.634212,Arles,13200
Audilab  Audioprothésiste Arpajon-Sur-Cère,7 avenue du Général Milhaud 15130 Arpajon-sur-Cère,44.901906,2.458357,Arpajon-sur-Cère,15130
Audilab  Audioprothésiste Aubenas,6 place de la Paix 07200 Aubenas,44.617958,4.389649,Aubenas,07200
Audilab  Audioprothésiste Aubière,3 rue Champvoisin 63170 Aubière,45.751782,3.108999,Aubière,63170
Audilab  Audioprothésiste Audenge,35 route de Bordeaux 33980 Audenge,44.68487,-1.004758,Audenge,33980
Audilab  Audioprothésiste Audition Delmas Argelès-Gazost,12 rue du Général Leclerc 65400 Argelès-Gazost,43.002439,-0.101215,Argelès-Gazost,65400
Audilab  Audioprothésiste Audition Delmas Billère,3 bis route de Bayonne 64140 Billère,43.299159,-0.390993,Billère,64140
Audilab  Audioprothésiste Audition Delmas Gan,11 avenue d’Aspe 64290 Gan,43.228392,-0.388353,Gan,64290
Audilab  Audioprothésiste Audition Delmas Lannemezan,38 rue Jean-Jacques Rousseau 65300 Lannemezan,43.123819,0.384,Lannemezan,65300
Audilab  Audioprothésiste Audition Delmas Lourdes,1 avenue du Maréchal Joffre 65100 Lourdes,43.094593,-0.045855,Lourdes,65100
Audilab  Audioprothésiste Audition Delmas Monein,23 avenue de la Résistance 64360 Monein,43.329671,-0.581395,Monein,64360
Audilab  Audioprothésiste Audition Delmas Orthez,8 place du Foirail 64300 Orthez,43.488993,-0.770977,Orthez,64300
Audilab  Audioprothésiste Audition Delmas Pau,6 rue Montpensier 64000 Pau,43.298896,-0.370879,Pau,64000
Audilab  Audioprothésiste Audition Delmas Salies de Béarn,3 cours du Jardin Public 64270 Salies-de-Béarn,43.472562,-0.925727,Salies-de-Béarn,64270
Audilab  Audioprothésiste Audition Delmas Soumoulou,30 avenue Lasbordes 64420 Soumoulou,43.26642,-0.189089,Soumoulou,64420
Audilab  Audioprothésiste Auray,21 place Joffre 56400 Auray,47.666544,-2.987045,Auray,56400
Audilab  Audioprothésiste Aurore La Rochelle,29 Rue du Général Dumont 17000 La Rochelle,46.160215,-1.174684,La Rochelle,17000
Audilab  Audioprothésiste Avignon,51 avenue Pierre Sémard 84000 Avignon,43.9399,4.820666,Avignon,84000
Audilab  Audioprothésiste Azay-le-Rideau,2 route de Tours 37190 Azay-le-Rideau,47.267497,0.473157,Azay-le-Rideau,37190
Audilab  Audioprothésiste Bagnols-en-Forêt,848 Route de Saint-Paul 83600 Bagnols-en-Forêt,43.538436,6.709132,Bagnols-en-Forêt,83600
Audilab  Audioprothésiste Bayonne,5 rue du Temple 64100 Bayonne,43.492963,-1.477882,Bayonne,64100
Audilab  Audioprothésiste Beaufort-en-Vallée,21 place Jeanne de Laval 49250 Beaufort-en-Vallée,47.439871,-0.215534,Beaufort-en-Anjou,49250
Audilab  Audioprothésiste Beaupréau,5 rue de la Garenne 49600 Beaupréau,47.202312,-0.9926,Beaupréau-en-Mauges,49600
Audilab  Audioprothésiste Beauvoir sur Niort,195 impasse des acacias 79360 Beauvoir sur Niort,46.184506,-0.471094,Beauvoir-sur-Niort,79360
Audilab  Audioprothésiste Beauvoir-sur-Mer,1 bis rue du Grand Four 85230 Beauvoir-sur-Mer,46.915517,-2.044231,Beauvoir-sur-Mer,85230
Audilab  Audioprothésiste Belz,20 rue des Sports 56550 Belz,47.67348,-3.173154,Belz,56550
Audilab  Audioprothésiste Bizanos,32T boulevard du CDT René Mouchotte 64320 Bizanos,43.302555,-0.319256,Bizanos,64320
Audilab  Audioprothésiste Biéville-Beuville,Rond-point de la Bijude 14112 Biéville-Beuville,49.229383,-0.370949,Biéville-Beuville,14112
Audilab  Audioprothésiste Blain,7 rue Aristide Briand 44130 Blain,47.475917,-1.764704,Blain,44130
Audilab  Audioprothésiste Blois,5 rue du Colonel de Montlaur 41000 Blois,47.583225,1.322709,Blois,41000
Audilab  Audioprothésiste Blois Centre,12 rue du Maréchal de Lattre de Tassigny 41000 Blois,47.586649,1.336712,Blois,41000
Audilab  Audioprothésiste Bordeaux,3 rue Boudet 33000 Bordeaux,44.845365,-0.577081,Bordeaux,33000
Audilab  Audioprothésiste Bouloc,"3, Rue de la Pégou 31620 Bouloc",43.778395,1.406577,Bouloc,31620
Audilab  Audioprothésiste Bourges,25 rue de sarrebourg 18000 Bourges,47.080121,2.402601,Bourges,18000
Audilab  Audioprothésiste Bourges Faraday,1 rue Michaël Faraday 18000 Bourges,47.096078,2.434448,Bourges,18000
Audilab  Audioprothésiste Bourgueil,Parc commercial de la Petite Prairie 37140 Bourgueil,47.276167,0.164553,Bourgueil,37140
Audilab  Audioprothésiste Brest,33 rue Émile Rousse 29200 Brest,48.385776,-4.528178,Brest,29200
Audilab  Audioprothésiste Brive,Avenue Jean-Charles Rivet 19100 Brive-la-Gaillarde,45.145715,1.47995,Brive-la-Gaillarde,19100
Audilab  Audioprothésiste Brive centre,18 rue Marcelin Roche 19100 Brive-la-Gaillarde,45.164912,1.530366,Brive-la-Gaillarde,19100
Audilab  Audioprothésiste Broons,31B ZA du chalet 22250 Broons,48.32392,-2.252685,Broons,22250
Audilab  Audioprothésiste Caen,15 rue des Équipes d'urgence 14000 Caen,49.181008,-0.357307,Caen,14000
Audilab  Audioprothésiste Camarès,32 chemin de la Noria 12360 Camarès,43.822093,2.879472,Camarès,12360
Audilab  Audioprothésiste Capbreton,7 rue la Palinette 40130 Capbreton,43.650245,-1.40637,Capbreton,40130
Audilab  Audioprothésiste Carcassonne,116 avenue Franklin Roosevelt 11000 Carcassonne,43.223007,2.336416,Carcassonne,11000
Audilab  Audioprothésiste Carnac,1 rue du Tumulus 56340 Carnac,47.583756,-3.078416,Carnac,56340
Audilab  Audioprothésiste Carpentras,121 avenue du Mont Ventoux 84200 Carpentras,44.05607,5.054351,Carpentras,84200
Audilab  Audioprothésiste Carquefou,1 chemin de Toscane 44470 Carquefou,47.297925,-1.49642,Carquefou,44470
Audilab  Audioprothésiste Castres,19 boulevard Maréchal Foch 81100 Castres,43.602876,2.239236,Castres,81100
Audilab  Audioprothésiste Cenon,80 avenue Jean Jaurès 33150 Cenon,44.857568,-0.531803,Cenon,33150
Audilab  Audioprothésiste Chambray-lès-Tours,31 avenue de la République 37170 Chambray-lès-Tours,47.346461,0.708467,Chambray-lès-Tours,37170
Audilab  Audioprothésiste Chambéry,178 quai Charles Roissard 73000 Chambery,45.570398,5.918283,Chambéry,73000
Audilab  Audioprothésiste Chartres,6 bis place de la Porte Saint-Michel 28000 Chartres,48.442405,1.489121,Chartres,28000
Audilab  Audioprothésiste Chinon,2 rue Hoche 37500 Chinon,47.165847,0.245281,Chinon,37500
Audilab  Audioprothésiste Cholet,35 square de Montgeoffroy 49300 Cholet,47.049244,-0.897012,Cholet,49300
Audilab  Audioprothésiste Cholet centre,2 boulevard de la Victoire 49300 Cholet,47.057064,-0.877023,Cholet,49300
Audilab  Audioprothésiste Château Gontier,13 rue René d'Anjou 53200 Château-Gontier,47.82654,-0.708992,Château-Gontier,53200
Audilab  Audioprothésiste Château-Renault,18 place Jean Jaurès 37110 Château-Renault,47.593378,0.915351,Château-Renault,37110
Audilab  Audioprothésiste Château-du-Loir,16 place des Halles 72500 Château-du-Loir,47.693525,0.419698,Montval-sur-Loir,72500
Audilab  Audioprothésiste Châteaubernard,CCAL Auchan Cognac 16100 Châteaubernard,45.692814,-0.322872,Cognac,16100
Audilab  Audioprothésiste Châteauroux,8 bis rue Molière 36000 Châteauroux,46.811789,1.692937,Châteauroux,36000
Audilab  Audioprothésiste Châtellerault,133 avenue Maréchal Foch 86100 Châtellerault,46.825069,0.560289,Châtellerault,86100
Audilab  Audioprothésiste Châtellerault centre,85 boulevard Blossac 86100 Châtellerault,46.817545,0.545078,Châtellerault,86100
Audilab  Audioprothésiste Châtillon-sur-Indre,14 rue Grande 36700 Châtillon-sur-Indre,46.985024,1.17401,Châtillon-sur-Indre,36700
Audilab  Audioprothésiste Clermont-Ferrand,22 boulevard Charles de Gaulle 63000 Clermont-Ferrand,45.773214,3.082474,Clermont-Ferrand,63000
Audilab  Audioprothésiste Cognac,33 boulevard Denfert Rochereau 16100 Cognac,45.694901,-0.325808,Cognac,16100
Audilab  Audioprothésiste Commentry,23 place du 14 juillet 03600 Commentry,46.288805,2.742755,Commentry,03600
Audilab  Audioprothésiste Condé-sur-Sarthe,69 rue d'Alençon 61250 Condé-sur-Sarthe,48.43483,0.055276,Condé-sur-Sarthe,61250
Audilab  Audioprothésiste Craon,14 rue Neuve 53400 Craon,47.848208,-0.951174,Craon,53400
Audilab  Audioprothésiste Crozon,13 rue Jules Simon 29160 Crozon,48.246112,-4.487861,Crozon,29160
Audilab  Audioprothésiste Dieulouard,75c Avenue du Général de Gaulle 54380 Dieulouard,48.840785,6.069872,Dieulouard,54380
Audilab  Audioprothésiste Dijon,10 rue Michelet 21000 Dijon,47.321156,5.03603,Dijon,21000
Audilab  Audioprothésiste Dinan,6 place du Marchix 22100 Dinan,48.453774,-2.045542,Dinan,22100
Audilab  Audioprothésiste Dives-sur-Mer,7 place Marius Tréfouel 14160 Dives-sur-Mer,49.286039,-0.107517,Dives-sur-Mer,14160
Audilab  Audioprothésiste Dol-de-Bretagne,42 rue Grande Rue des Stuarts 35120 Dol-de-Bretagne,48.549668,-1.75515,Dol-de-Bretagne,35120
Audilab  Audioprothésiste Douarnenez,1 rue Duguay-Trouin 29100 Douarnenez,48.092986,-4.329078,Douarnenez,29100
Audilab  Audioprothésiste Ernée,19 place Thiers 53500 Ernée,48.296966,-0.935098,Ernée,53500
Audilab  Audioprothésiste Evron,7 place de la Basilique 53600 Évron,48.155732,-0.402811,Évron,53600
Audilab  Audioprothésiste Eymoutiers,13 avenue de la Paix 87120 Eymoutiers,45.738704,1.741728,Eymoutiers,87120
Audilab  Audioprothésiste Falaise,10 rue Georges Clemenceau 14700 Falaise,48.897388,-0.198347,Falaise,14700
Audilab  Audioprothésiste Fleury-sur-Orne,30 rue du Quadrant 14123 Fleury-sur-Orne,49.139952,-0.376282,Fleury-sur-Orne,14123
Audilab  Audioprothésiste Fontvieille,62 cours Hyacinthe Bellon 13990 Fontvieille,43.727019,4.711535,Fontvieille,13990
Audilab  Audioprothésiste Fougères Surdicom,3 bd St Germain 35300 Fougères,48.361791,-1.206806,Fougères,35300
Audilab  Audioprothésiste Fourneaux,ZA Matussières 73500 Fourneaux,45.191277,6.656039,Fourneaux,73500
Audilab  Audioprothésiste Gouesnou,Route de l'échangeur 29850 Gouesnou,48.429878,-4.467978,Gouesnou,29200
Audilab  Audioprothésiste Gradignan,5 avenue Favard 33170 Gradignan,44.785629,-0.603682,Gradignan,33170
Audilab  Audioprothésiste Grenade,89 rue de la république 31330 Grenade,43.772739,1.29335,Grenade,31330
Audilab  Audioprothésiste Guichen,9 rue louis Ampère 35580 Guichen,47.971188,-1.795012,Guichen,35580
Audilab  Audioprothésiste Guidel,20B rue de l'Océan 56520 Guidel,47.787027,-3.491162,Guidel,56520
Audilab  Audioprothésiste Guémené,30 rue de l'Hôtel de Ville 44290 Guémené-Penfao,47.628491,-1.833442,Guémené-Penfao,44290
Audilab  Audioprothésiste Guéret,1 avenue de l'Europe 23000 Guéret,46.178687,1.878131,Guéret,23000
Audilab  Audioprothésiste Illzach,10 Rue de Mulhouse 68110 Illzach,47.779622,7.347378,Illzach,68110
Audilab  Audioprothésiste Issoudun,3 place de la Poste 36100 Issoudun,46.948499,1.990011,Issoudun,36100
Audilab  Audioprothésiste Joué-lès-Tours,5 place Victor Hugo 37300 Joué-lés-Tours,47.35107,0.662703,Joué-lès-Tours,37300
Audilab  Audioprothésiste La Chapelle-Saint-Mesmin,32 rue Nationale 45380 La Chapelle-St-Mesmin,47.889537,1.836829,La Chapelle-Saint-Mesmin,45380
Audilab  Audioprothésiste La Chaume,13 rue Joseph Bénatier 85100 Les Sables-d'Olonne,46.499549,-1.796775,Les Sables-d'Olonne,85100
Audilab  Audioprothésiste La Chaussée St Victor,6 rue du Professeur Philippe Maupas 41260 La Chaussée-St-Victor,47.617454,1.340133,La Chaussée-Saint-Victor,41260
Audilab  Audioprothésiste La Ferté-Bernard,17 rue Denfert Rochereau 72400 La Ferté-Bernard,48.187219,0.652713,La Ferté-Bernard,72400
Audilab  Audioprothésiste La Flèche,17-19 place du Marché au Blé 72200 La Flèche,47.700268,-0.072646,La Flèche,72200
Audilab  Audioprothésiste La Garnache,4 rue de Paulx Chez Le Collectif des Lunetiers 85710 La Garnache,46.924076,-1.790458,La Garnache,85710
Audilab  Audioprothésiste La Grande-Motte,70 Avenue de l’Europe 34280 La-Grande-Motte,43.558783,4.089634,La Grande-Motte,34280
Audilab  Audioprothésiste La Roche Bernard,23 bis rue Saint James 56130 La Roche Bernard,47.519382,-2.300503,La Roche-Bernard,56130
Audilab  Audioprothésiste La Roche-Posay,5bis rue du Dr Jacquemin Sablon 86270 La Roche-Posay,46.78514,0.810109,La Roche-Posay,86270
Audilab  Audioprothésiste La Rochefoucauld,15 bd du Général de Gaulle 16110 La Rochefoucauld,45.739349,0.387457,La Rochefoucauld,16110
Audilab  Audioprothésiste La Rochelle,10/12 place de Verdun 17000 La Rochelle,46.162903,-1.15293,La Rochelle,17000
Audilab  Audioprothésiste Lamagdelaine,350 route de Cahors - Lieu-dit Pech de Clary 46090 Lamagdelaine,44.469479,1.482001,Lamagdelaine,46090
Audilab  Audioprothésiste Lanester,4 avenue Ambroise Croizat 56600 Lanester,47.771071,-3.348813,Lanester,56600
Audilab  Audioprothésiste Langeais,15 rue Thiers 37130 Langeais,47.325503,0.40848,Langeais,37130
Audilab  Audioprothésiste Lannilis,2 rue du Vercors 29870 Lannilis,48.570612,-4.511419,Lannilis,29870
Audilab  Audioprothésiste Lannion,4 rue des Augustins 22300 Lannion,48.730824,-3.459613,Lannion,22300
Audilab  Audioprothésiste Larmor Plage,13 A place Notre Dame 56260 Larmor plage,47.705807,-3.382044,Larmor-Plage,56260
Audilab  Audioprothésiste Laval,28 rue Souchu Servinière 53000 Laval,48.070069,-0.775374,Laval,53000
Audilab  Audioprothésiste Laval Atlantique,210 avenue des Français libres 53000 Laval,48.054,-0.792545,Laval,53000
Audilab  Audioprothésiste Le Faouët,4 rue du Château 56320 Le Faouët,48.032741,-3.488408,Le Faouët,56320
Audilab  Audioprothésiste Le Havre,5 avenue René Coty 76600 Le Havre,49.495099,0.109508,Le Havre,76600
Audilab  Audioprothésiste Le Lude,20 rue du Bœuf 72800 Le Lude,47.645733,0.156536,Le Lude,72800
Audilab  Audioprothésiste Le Mans Centre,65 rue Gambetta 72000 Le Mans,48.006508,0.190732,Le Mans,72000
Audilab  Audioprothésiste Le Mans Laennec,3 avenue René Laennec 72000 Le Mans,48.01947,0.161578,Le Mans,72000
Audilab  Audioprothésiste Le Mans Leclerc,45 avenue du Général Leclerc 72000 Le Mans,47.998424,0.195259,Le Mans,72000
Audilab  Audioprothésiste Le Mans Sud,Rond-Point César Antarès 72000 Le Mans,47.955109,0.22608,Le Mans,72100
Audilab  Audioprothésiste Le Vigan  Centre Acoustique des Cévennes,8 rue Chef Marceau 30120 Le Vigan,43.990945,3.605125,Le Vigan,30120
Audilab  Audioprothésiste Ligné,25 rue des Palmiers 44850 Ligné,47.411113,-1.376785,Ligné,44850
Audilab  Audioprothésiste Limoges,11 avenue Georges Dumas 87000 Limoges,45.826113,1.266557,Limoges,87000
Audilab  Audioprothésiste Limoux,7 avenue François Clamens 11300 Limoux,43.066026,2.216791,Limoux,11300
Audilab  Audioprothésiste Loches,8 rue Descartes 37600 Loches,47.1284,0.996284,Loches,37600
Audilab  Audioprothésiste Locminé,22 rue du Fil 56500 Locminé,47.887002,-2.835956,Locminé,56500
Audilab  Audioprothésiste Lodève,288 allée D. Mitterrand 34700 Lodève,43.724857,3.321768,Lodève,34700
Audilab  Audioprothésiste Lons le Saunier,185 rue Regard 39000 Lons-le-Saunier,46.675247,5.550244,Lons-le-Saunier,39000
Audilab  Audioprothésiste Lorient,68 rue Monistrol 56100 Lorient,47.735611,-3.383803,Lorient,56100
Audilab  Audioprothésiste Louvigné du Désert Surdicom,"31, rue de la Libération 35420 Louvigné du Désert",48.48199,-1.128548,Louvigné-du-Désert,35420
Audilab  Audioprothésiste Lunel,227 Avenue Victor Hugo 34400 Lunel,43.678835,4.13259,Lunel,34400
Audilab  Audioprothésiste Lusignan,3 Rue Pierre Moyon 86600 Lusignan,46.434707,0.122447,Lusignan,86600
Audilab  Audioprothésiste Lyon,39 rue Thibaudière 69007 Lyon,45.75003,4.846084,Lyon,69007
Audilab  Audioprothésiste Lyon 9ème,2 place du Marché 69009 Lyon,45.773904,4.806931,Lyon,69009
Audilab  Audioprothésiste Machecoul,10 rue de la France Libre 44270 Machecoul,46.991771,-1.817073,Machecoul-Saint-Même,44270
Audilab  Audioprothésiste Maen Roch Surdicom,"5, rue Victor Roussin 35460 Maen Roch",48.409284,-1.361942,Maen Roch,35460
Audilab  Audioprothésiste Maintenon,5 rue du Pont Rouge 28130 Maintenon,48.58823,1.578467,Maintenon,28130
Audilab  Audioprothésiste Mamers,47 place Carnot 72600 Mamers,48.350824,0.369606,Mamers,72600
Audilab  Audioprothésiste Marseillan,23 boulevard Pasteur 34340 Marseillan,43.355413,3.52983,Marseillan,34340
Audilab  Audioprothésiste Marseille 02,62 avenue Robert Schuman 13002 Marseille,43.30438,5.367,Marseille,13002
Audilab  Audioprothésiste Marseille 07,18 avenue Pasteur 13007 Marseille,43.29106,5.359009,Marseille,13007
Audilab  Audioprothésiste Marseille 13,80 avenue de Saint Just 13013 Marseille,43.317453,5.405655,Marseille,13013
Audilab  Audioprothésiste Marseille 14,218 Chemin de Sainte Marthe 13014 Marseille,43.330785,5.389036,Marseille,13014
Audilab  Audioprothésiste Marsilly,30 avenue de l’Ile d’Oléron 17137 Marsilly,46.230528,-1.134278,Marsilly,17137
Audilab  Audioprothésiste Massieux,Route Dépt. N66E - Rue de Lindberg 01600 Massieux,45.904574,4.818778,Massieux,01600
Audilab  Audioprothésiste Maubourguet,10 allée Larbanes 65700 Maubourguet,43.468162,0.034653,Maubourguet,65700
Audilab  Audioprothésiste Mauguio,95 avenue de la mer 34130 Mauguio,43.612567,4.006598,Mauguio,34130
Audilab  Audioprothésiste Mayenne,1 place de l'Europe 53100 Mayenne,48.301326,-0.62393,Mayenne,53100
Audilab  Audioprothésiste Mazan,197 avenue de l'Europe 84380 Mazan,44.057662,5.127938,Mazan,84380
Audilab  Audioprothésiste Maîche,13 rue Sainte-Anne 25120 Maîche,47.25066,6.806759,Maîche,25120
Audilab  Audioprothésiste Millau,115 boulevard Jean Gabriac 12100 Millau,44.093424,3.072736,Millau,12100
Audilab  Audioprothésiste Montauban,10 avenue Marcel Unal 82000 Montauban,44.008732,1.375809,Montauban,82000
Audilab  Audioprothésiste Montbeton,595 route de Montauban 82290 Montbeton,44.012455,1.290392,Montbeton,82290
Audilab  Audioprothésiste Montech,21 avenue André Bonnet 82700 Montech,43.958656,1.233995,Montech,82700
Audilab  Audioprothésiste Montlouis-sur-Loire,46 avenue Victor Laloux 37270 Montlouis-sur-Loire,47.382273,0.847583,Montlouis-sur-Loire,37270
Audilab  Audioprothésiste Montluçon,25 avenue Marx-Dormoy 03100 Montluçon,46.338576,2.598988,Montluçon,03100
Audilab  Audioprothésiste Montmorillon,8 place Haut Poitou 86500 Montmorillon,46.419369,0.852502,Montmorillon,86500
Audilab  Audioprothésiste Montpellier Lepic,6 place du 8 mai 1945 34070 Montpellier,43.600992,3.867703,Montpellier,34070
Audilab  Audioprothésiste Montpellier Mosson,Avenue Lauragais 34080 Montpellier,43.631758,3.822275,Montpellier,34080
Audilab  Audioprothésiste Montpellier Port Marianne,282 avenue du Mondial 98 34000 Montpellier,43.602741,3.904513,Montpellier,34000
Audilab  Audioprothésiste Montpellier Verdanson,43 quai du Verdanson 34090 Montpellier,43.615064,3.881487,Montpellier,34090
Audilab  Audioprothésiste Montrichard,5 rue Carnot 41406 Montrichard,48.268294,0.546814,Bellou-le-Trichard,61130
Audilab  Audioprothésiste Morteau,1 rue de la Gare 25500 Morteau,47.055068,6.606126,Morteau,25500
Audilab  Audioprothésiste Muzillac,25 rue du Général De Gaulle 56190 Muzillac,47.551587,-2.478414,Muzillac,56190
Audilab  Audioprothésiste Nancy,67 Boulevard d'Haussonville 54000 Nancy,48.674243,6.16386,Nancy,54000
Audilab  Audioprothésiste Nantes,17 allée Duguay-Trouin 44000 Nantes,47.212642,-1.557127,Nantes,44000
Audilab  Audioprothésiste Nantes,82 route de Clisson 44200 Nantes,47.190554,-1.521534,Nantes,44200
Audilab  Audioprothésiste Nantes Mangin,27 bd des Martyrs Nantais de la Résistance 44200 Nantes,47.203512,-1.546071,Nantes,44200
Audilab  Audioprothésiste Nantes Viarme,23 place Viarme 44000 Nantes,47.221523,-1.56341,Nantes,44000
Audilab  Audioprothésiste Nantes Viarme 2,12 place Viarme 44000 Nantes,47.221024,-1.562001,Nantes,44000
Audilab  Audioprothésiste Nantes bottière,209 route de Saint-Luce 44300 Nantes,47.239177,-1.513833,Nantes,44300
Audilab  Audioprothésiste Niort,552 avenue de Limoges 79000 Niort,46.317744,-0.41005,Niort,79000
Audilab  Audioprothésiste Noirmoutier,42 rue de la Prée aux Ducs 85330 Noirmoutier,47.003004,-2.253978,Noirmoutier-en-l'Île,85330
Audilab  Audioprothésiste Noyers-sur-Cher,17 rue Pierre et Marie Curie 41140 Noyers-sur-Cher,47.283726,1.380085,Noyers-sur-Cher,41140
Audilab  Audioprothésiste Nîmes,3 place d'Assas 30900 Nîmes,43.838569,4.354475,Nîmes,30900
Audilab  Audioprothésiste Objat,57 avenue Raymond Poincaré 19130 Objat,45.2561,1.414396,Objat,19130
Audilab  Audioprothésiste Olivet,412 rue de la Juine 45160 Olivet,47.848659,1.915593,Olivet,45160
Audilab  Audioprothésiste Olonne-sur-Mer,1 Chemin de Chaintrelongue 85340 Olonne-sur-Mer,46.512675,-1.75236,Olonne-sur-Mer,85340
Audilab  Audioprothésiste Orléans,16 rue Bannier 45000 Orléans,47.903542,1.903326,Orléans,45000
Audilab  Audioprothésiste Orvault,93 route de Rennes 44700 Orvault,47.253241,-1.576651,Orvault,44300
Audilab  Audioprothésiste Perros-Guirec,10 rue du Maréchal Leclerc 22700 Perros-Guirec,48.814763,-3.444246,Perros-Guirec,22700
Audilab  Audioprothésiste Pessac,58 avenue Pasteur 33600 Pessac,44.805965,-0.633291,Pessac,33600
Audilab  Audioprothésiste Plan de Cuques,57 avenue Frédéric Chevillon 13380 Plan-de-Cuques,43.346537,5.462503,Plan-de-Cuques,13380
Audilab  Audioprothésiste Ploemeur,12 rue de Kervam 56270 Ploemeur,47.734644,-3.427161,Ploemeur,56270
Audilab  Audioprothésiste Plouay,17 rue Paul Ihuel 56240 Plouay,47.913712,-3.334966,Plouay,56240
Audilab  Audioprothésiste Ploudalmézeau,1 cité Allain 29830 Ploudalmézeau,48.534488,-4.658461,Ploudalmézeau,29830
Audilab  Audioprothésiste Pluvigner,7 place Saint-Michel 56330 Pluvigner,47.776771,-3.009943,Pluvigner,56330
Audilab  Audioprothésiste Plérin,8 rue François Jacob 22190 Plérin,48.547441,-2.788731,Plérin,22190
Audilab  Audioprothésiste Poitiers,130 route de Nouaillé 86000 Poitiers,46.563106,0.365897,Poitiers,86000
Audilab  Audioprothésiste Poitiers Sud,21 rue du Chaumont 86000 Poitiers,46.555725,0.30485,Poitiers,86000
Audilab  Audioprothésiste Poligny,67 Grande Rue 39800 Poligny,46.83556,5.708629,Poligny,39800
Audilab  Audioprothésiste Pompey,34 avenue du Général de Gaulle 54340 Pompey,48.769106,6.128757,Pompey,54340
Audilab  Audioprothésiste Pont l'Abbé,5 rue Jean-Jacques Rousseau 29120 Pont-l'Abbé,47.865067,-4.221173,Pont-l'Abbé,29120
Audilab  Audioprothésiste Pontivy,Avenue de la libération 56300 Pontivy,48.068193,-2.952982,Pontivy,56300
Audilab  Audioprothésiste Port-Brillet,19 rue des Forges 53410 Port-Brillet,48.112029,-0.973306,Port-Brillet,53410
Audilab  Audioprothésiste Porte des Pierres Dorées,890 route de pouilly 69400 Porte des pierres dorées,45.963658,4.659485,Porte des Pierres Dorées,69400
Audilab  Audioprothésiste Puilboreau,1 rue du 14 juillet 17138 Puilboreau,46.176419,-1.11478,Puilboreau,17138
Audilab  Audioprothésiste Pézenas,10 avenue Paul Vidal de la Blache 34120 Pézenas,43.459218,3.416278,Pézenas,34120
Audilab  Audioprothésiste Quimper,6 rue du Frugy 29000 Quimper,47.987747,-4.107784,Quimper,29000
Audilab  Audioprothésiste Quimperlé,1 rue Jean-Marie le Gall 29300 Quimperlé,47.868508,-3.576886,Quimperlé,29300
Audilab  Audioprothésiste Rennes,22 rue de Nemours 35000 Rennes,48.107987,-1.680168,Rennes,35000
Audilab  Audioprothésiste Rezé,4 rue Victor Hugo 44400 Rezé,47.189464,-1.55306,Rezé,44400
Audilab  Audioprothésiste Richelieu,3ter rue de Loudun 37120 Richelieu,47.012256,0.32276,Richelieu,37120
Audilab  Audioprothésiste Rillieux-la-Pape,62 avenue de l'Europe 69140 Rillieux-la-Pape,45.818058,4.903728,Rillieux-la-Pape,69140
Audilab  Audioprothésiste Rochefort,Avenue d'aunis 17300 Rochefort,45.949536,-0.976639,Rochefort,17300
Audilab  Audioprothésiste Romorantin,11 place de la Paix 41200 Romorantin-Lanthenay,47.359527,1.742805,Romorantin-Lanthenay,41200
Audilab  Audioprothésiste Rouen,66 rue Martainville 76000 Rouen,49.43843,1.104375,Rouen,76100
Audilab  Audioprothésiste Royan,43 rue Gambetta 17200 Royan,45.622902,-1.03095,Royan,17200
Audilab  Audioprothésiste Rumilly,38 avenue Gantin 74150 Rumilly,45.861393,5.947583,Rumilly,74150
Audilab  Audioprothésiste Sablé sur Sarthe,ZA - 23 rue de la Martinière 72300 Sablé-sur-Sarthe,47.839,-0.306965,Sablé-sur-Sarthe,72300
Audilab  Audioprothésiste Saint Affrique,Place de la Gare 12400 Saint-Affrique,43.954801,2.890862,Saint-Affrique,12400
Audilab  Audioprothésiste Saint Amand Montrond,31 avenue Jean Jaures 18200 St-Amand-Montrond,46.724075,2.49882,Saint-Amand-Montrond,18200
Audilab  Audioprothésiste Saint Jean Brevelay,10 rue de Beverley 56660 Saint Jean Brévelay,47.846218,-2.720474,Saint-Jean-Brévelay,56660
Audilab  Audioprothésiste Saint Philbert de Grand Lieu,6 rue St François d'Assise 44310 St-Philbert-De-Grand-Lieu,47.036719,-1.642786,Saint-Philbert-de-Grand-Lieu,44310
Audilab  Audioprothésiste Saint-Cyr-sur-Loire,2 rue Thérèse et René Planiol 37540 Saint-Cyr-sur-Loire,47.431455,0.670466,Saint-Cyr-sur-Loire,37540
Audilab  Audioprothésiste Saint-Denis-Lanneray,Route de la Varenne 28200 Saint-Denis-les-Ponts,48.064391,1.302722,Saint-Denis-les-Ponts,28200
Audilab  Audioprothésiste Saint-Jouan-Des-Guérets,Rue du Moulin du Domaine 35430 St-Jouan-Des-Guérets,48.593403,-1.969341,Saint-Jouan-des-Guérets,35430
Audilab  Audioprothésiste Saint-Mathieu-de-Tréviers,5 allée Terra Via 34270 St-Mathieu-de-Tréviers,43.766653,3.86741,Saint-Mathieu-de-Tréviers,34270
Audilab  Audioprothésiste Saint-Nazaire,65 rue Jean Jaurès 44600 Saint-Nazaire,47.279847,-2.213484,Saint-Nazaire,44600
Audilab  Audioprothésiste Saint-Pierre-d'Irube,10 allée de Bordenave 64990 Saint-Pierre-d'Irube,43.476986,-1.456955,Saint-Pierre-d'Irube,64990
Audilab  Audioprothésiste Saintes,69 cours National 17100 Saintes,45.747198,-0.634911,Saintes,17100
Audilab  Audioprothésiste Saran,2198 route Nationale 20 45770 Saran,47.958049,1.890354,Saran,45770
Audilab  Audioprothésiste Saulieu,2 rue Courtépée 21210 Saulieu,47.282172,4.229189,Saulieu,21210
Audilab  Audioprothésiste Saumur,36 rue Dacier 49400 Saumur,47.259378,-0.078108,Saumur,49400
Audilab  Audioprothésiste Segré en Anjou,3 esplanade de la gare 49500 Segré en Anjou Bleu,47.678946,-0.865957,Segré-en-Anjou Bleu,49500
Audilab  Audioprothésiste Seynod,18 avenue de Champ Fleuri 74600 Seynod,48.617556,4.004969,Champfleury,10700
Audilab  Audioprothésiste Sotteville-lès-Rouen,24 place de l'Hôtel de Ville 76300 Sotteville-lès-Rouen,49.415343,1.088711,Sotteville-lès-Rouen,76300
Audilab  Audioprothésiste Soyaux,Av. du Général De Gaulle 16800 Soyaux,45.636805,0.206277,Soyaux,16800
Audilab  Audioprothésiste St Brieuc,8 rue du 71ème R.I. 22000 Saint-Brieuc,48.511654,-2.765463,Saint-Brieuc,22000
Audilab  Audioprothésiste St Herblain,11 bis rue de l'Hôtel de Ville 44800 Saint-Herblain,47.211148,-1.649528,Saint-Herblain,44800
Audilab  Audioprothésiste St Jean-de-Monts,1 rue du Commerce 85160 Saint-Jean-de-Monts,46.793441,-2.062333,Saint-Jean-de-Monts,85160
Audilab  Audioprothésiste St Palais,24 rue Gambetta 64120 Saint-Palais,43.326818,-1.034078,Saint-Palais,64120
Audilab  Audioprothésiste St Pierre des Corps,47 avenue de la République 37700 Saint-Pierre-Des-Corps,47.389552,0.721248,Saint-Pierre-des-Corps,37700
Audilab  Audioprothésiste St Pryvé-St-Mesmin,7 Avenue du Traité de Rome 45750 Saint-Pryvé-St-Mesmin,47.881186,1.864563,Saint-Pryvé-Saint-Mesmin,45750
Audilab  Audioprothésiste St-Gilles-Croix-de-Vie,43 rue Ambroise Paré 85800 Saint-Gilles-Croix-de-Vie,46.69502,-1.915095,Saint-Gilles-Croix-de-Vie,85800
Audilab  Audioprothésiste Ste Maure de Touraine,CCAL Intermarché 37800 Ste-Maure-de-Touraine,47.095346,0.617001,Sainte-Maure-de-Touraine,37800
Audilab  Audioprothésiste Ste-Pazanne,2 bis avenue du Gal de Gaulle 44680 Sainte-Pazanne,47.103657,-1.810775,Sainte-Pazanne,44680
Audilab  Audioprothésiste Sucé-sur-Erdre,21 place Aristide Briand 44240 Sucé-sur-Erdre,47.341805,-1.526633,Sucé-sur-Erdre,44240
Audilab  Audioprothésiste Sète,3 rue Frédéric Mistral 34200 Sète,43.402387,3.696515,Sète,34200
Audilab  Audioprothésiste Tarnos,17 bd Jacques Duclos 40220 Tarnos,43.539723,-1.461017,Tarnos,40220
Audilab  Audioprothésiste Tavaux,2 avenue de l'Europe 39500 Tavaux,47.041587,5.412529,Tavaux,39500
Audilab  Audioprothésiste Thorigné-Fouillard,14 C rue Beaumanoir 35235 Thorigné-Fouillard,48.154718,-1.580846,Thorigné-Fouillard,35235
Audilab  Audioprothésiste Thouars Ste Verge,161 avenue Emile Zola 79100 Sainte-Verge,46.998479,-0.206515,Sainte-Verge,79100
Audilab  Audioprothésiste Tours,66 rue Bernard Palissy 37000 Tours,47.391802,0.693684,Tours,37000
Audilab  Audioprothésiste Tours Les Halles,11 place des Halles 37000 Tours,47.392274,0.679477,Tours,37000
Audilab  Audioprothésiste Tours Liberté,5 place de la Liberté 37000 Tours,47.379871,0.69249,Tours,37000
Audilab  Audioprothésiste Tours Nord,21 avenue André Maginot 37100 Tours,47.409355,0.682804,Tours,37100
Audilab  Audioprothésiste Trélazé,65 rue des Perreyeux 49800 Trélazé,47.455776,-0.510457,Trélazé,49800
Audilab  Audioprothésiste Tulle,132 avenue Victor Hugo 19000 Tulle,45.260775,1.75846,Tulle,19000
Audilab  Audioprothésiste Valdahon,60 Grande rue 25800 Valdahon,47.147205,6.345128,Valdahon,25800
Audilab  Audioprothésiste Vallet,45 rue des Forges 44330 Vallet,47.160584,-1.26781,Vallet,44330
Audilab  Audioprothésiste Vannes,60 avenue Paul Cézanne 56000 Vannes,47.676565,-2.773269,Vannes,56000
Audilab  Audioprothésiste Vauvert,Résidence Espace 30600 Vauvert,43.684502,4.270897,Vauvert,30600
Audilab  Audioprothésiste Vedène,68 place du Petit Pont 84270 Vedène,43.979069,4.906087,Vedène,84270
Audilab  Audioprothésiste Vendôme,21-23 rue du Change 41100 Vendôme,47.79263,1.067996,Vendôme,41100
Audilab  Audioprothésiste Vendôme Sud,Route de Blois 41100 Vendôme,47.78428,1.06319,Vendôme,41100
Audilab  Audioprothésiste Verdun-sur-Garonne,13 rue Joliot Curie 82600 Verdun-sur-Garonne,43.852147,1.234379,Verdun-sur-Garonne,82600
Audilab  Audioprothésiste Versailles,75 rue Royale 78000 Versailles,48.795928,2.125744,Versailles,78000
Audilab  Audioprothésiste Vichy,30 rue du Président Wilson 03200 Vichy,46.125941,3.420497,Vichy,03200
Audilab  Audioprothésiste Vierzon,1 rue du Square Peraudin 18100 Vierzon,47.223787,2.064013,Vierzon,18100
Audilab  Audioprothésiste Vihiers Lys-Haut-Layon,CCAL Super U 49310 Lys-Haut-Layon,47.108718,-0.376636,Lys-Haut-Layon,49560
Audilab  Audioprothésiste Vouillé,32 rue du Lac 86190 Vouillé,46.643467,0.175347,Vouillé,86190
