shop_name,address,latitude,longitude,city,postcode
Correction Auditive à Bischwiller,3 place de la liberté 67240 bischwiller,48.767795,7.856959,Bischwiller,67240
Laboratoire auditif à Molsheim,8b allée jean pierre carl 67120 molsheim,48.539357,7.491551,Molsheim,67120
Vos audioprothésistes de Obernai,8 rue du général leclerc 67210 obernai résidence atrium,48.46317,7.488554,Obernai,67210
Laboratoire audition à Schirmeck,5 place du bergopré 67130 schirmeck,48.480718,7.219577,Schirmeck,67130
Centre auditif à Strasbourg Robertsau,96 rue boecklin 67000 strasbourg,48.598584,7.777689,Strasbourg,67000
Magasin d'audioprothèse à Strasbourg Centre,37 rue du vieux marché aux vins 67000 strasbourg,48.584385,7.743686,Strasbourg,67000
Vos audioprothésistes à Strasbourg Neudorf,101 route du polygone 67100 strasbourg,48.565089,7.759982,Strasbourg,67100
Audioprothésiste à Val-de-Moder,pôle médical – 1er étage 25 rue de saverne 67350 val-de-moder,48.843035,7.596163,Val de Moder,67350
Laboratoire d'audition à Wissembourg,8 rue du général leclerc 67160 wissembourg,49.034467,7.944598,Wissembourg,67160
Audioprothésiste à Châlons-en-Champagne,17 rue thiers 51000 châlons-en-champagne,48.9558,4.364637,Châlons-en-Champagne,51000
Audioprothésiste à Champigneulles,2 rue de nancy 54250 champigneulles,48.734366,6.168025,Champigneulles,54250
Centre auditif à Ludres,75 avenue charles choné 54710 ludres,48.613499,6.174952,Ludres,54710
Centre auditif à Nancy,44 rue saint-jean 54000 nancy,48.689904,6.179542,Nancy,54000
Centre auditif à Saint-Nicolas-de-Port,,,,,
Centre audition à Saint-Max,31 avenue carnot 54130 saint-max,48.700301,6.206628,Saint-Max,54130
Correction auditive à Bar-le-Duc,2 rue notre dame 55000 bar-le-duc passage notre-dame,48.774936,5.160064,Bar-le-Duc,55000
Audioprothésiste à Phalsbourg,5 rue maréchal foch 57370 phalsbourg,48.767747,7.258079,Phalsbourg,57370
Audioprothésiste à Sarrebourg,16 rue napoléon 1er 57400 sarrebourg,48.735017,7.052624,Sarrebourg,57400
Correction auditive à Thionville,107 route des romains 57100 thionville,49.355185,6.135546,Thionville,57100
Laboratoire d'audition à Yutz,44 avenue des nations 59970 yutz,49.358553,6.189692,Yutz,57970
correction auditive à Château-Thierry,24 avenue de soissons 02400 château-thierry,49.046413,3.398372,Château-Thierry,02400
Audioprothésiste à Annœullin,21 rue pierre ogée 59112 annœullin,50.52842,2.933002,Annœullin,59112
Laboratoire auditif à Bailleul,c. cial leclerc – avenue de l’europe 59270 bailleul,50.727056,2.733288,Bailleul,59270
Correction Auditive à Baisieux,94 rue de la mairie 59780 baisieux,50.618057,3.23495,Baisieux,59780
Audioprothésiste à Bray-Dunes,790 boulevard georges pompidou 59123 bray-dunes,51.079275,2.517755,Bray-Dunes,59123
Audioprothésiste à Coudekerque-Branche,centre médical du littoral 77 route de steendam 59210 coudekerque-branche rond-point des impressionistes,51.01805,2.400718,Coudekerque-Branche,59210
Audioprothésiste à Dunkerque,8 place turenne 59240 dunkerque,51.048,2.395271,Dunkerque,59240
Audioprothésiste à Grande-Synthe,pôle santé 4 rue de provence 59760 grande-synthe,51.016869,2.309965,Grande-Synthe,59760
Audioprothésiste à Gravelines,2 rue adolphe torris 59820 gravelines,50.986646,2.12693,Gravelines,59820
Audition Conseil à Hazebrouck,grand place 15 place du général de gaulle 59190 hazebrouck,50.722572,2.535601,Hazebrouck,59190
Correction auditive à Hem,218 avenue charles de gaulle 59510 hem,50.667629,3.18503,Hem,59510
Correction Auditive à Lesquin,137 rue faidherbe 59810 lesquin,50.591024,3.11753,Lesquin,59810
Audioprothésiste à Marquette-lez-Lille,35 rue terdeghem 59520 marquette-lez-lille,50.666691,3.043227,Marquette-lez-Lille,59520
Audioprothésiste à Saint-Pol-sur-Mer,,,,,
Correction auditive à Wasquehal,16 rue sadi carnot 59290 wasquehal,50.668821,3.131147,Wasquehal,59290
Correction auditive à Audruicq,36 rue georges mauffait 62370 audruicq,50.878501,2.082319,Audruicq,62370
Audioprothésiste à Calais,66 boulevard jacquard 62100 calais,50.950058,1.85427,Calais,62100
Correction Auditive à Marck,460 avenue de verdun 62730 marck maison de santé de marck,50.95218,1.939812,Marck,62730
Audioprothésiste à Saint-Quay-Portrieux,88 boulevard du maréchal foch 22410 saint-quay-portrieux,48.653342,-2.834896,Saint-Quay-Portrieux,22410
Centre de correction auditive à Fouesnant,zac de maner ker elo 29170 fouesnant chez vision plus route de la fôret fouesnant,47.898976,-4.012198,Fouesnant,29170
Centre d'audition à Quimper,81 – 83 avenue de ty bos 29000 quimper ancienne route de concarneau,47.974905,-4.066965,Quimper,29000
Audioprothésiste à Bréal-sous-Montfort,5 rue du calvaire 35310 bréal-sous-montfort,48.048099,-1.8675,Bréal-sous-Montfort,35310
Audioprothésiste à Bruz,14 place du vert buisson 35170 bruz,48.029062,-1.757708,Bruz,35170
Audioprothésiste à La Guerche de Bretagne,25 promenade du grand mail 35130 la guerche de bretagne,47.940576,-1.231769,La Guerche-de-Bretagne,35130
Audioprothésistes à Montauban-de-Bretagne,13 rue de brest 35360 montauban-de-bretagne,48.200794,-2.047443,Montauban-de-Bretagne,35360
Laboratoire d’audition à Baud,5 rue des fontaines 56150 baud,47.87563,-3.018678,Baud,56150
Audioprothésiste à Carentoir,12 rue du général de gaulle 56910 carentoir,47.816665,-2.133612,Carentoir,56910
Audioprothésiste à Malestroit,4 boulevard du pont neuf 56140 malestroit,47.809178,-2.37876,Malestroit,56140
Audioprothésiste à Questembert,4 place du 8 mai 1945 56230 questembert,47.662516,-2.455594,Questembert,56230
Correction Auditive à Sérent,rue du capitaine fourtier 56460 sérent,47.821893,-2.505853,Sérent,56460
Audioprothésiste à Buzançais,14 rue grande 36500 buzançais chez optique dornier,46.889089,1.421775,Buzançais,36500
Audioprothésistes à Châteauroux,11 rue grande 36000 châteauroux,46.813924,1.695871,Châteauroux,36000
Magasin d’aides auditives à Valencay,20 place de la halle 36600 valencay,47.160448,1.567074,Valençay,36600
Audioprothésiste à Amboise,46 rue de la concorde 37400 amboise,47.413419,0.984876,Amboise,37400
Audioprothésiste à Château-Renault,"113, rue de la république 37110 château-renault",47.590682,0.907764,Château-Renault,37110
Centre auditif à Châteauneuf-sur-Loire,16 grande rue 45110 châteauneuf-sur-loire,47.863929,2.219319,Châteauneuf-sur-Loire,45110
Centre auditif à Montargis,61 rue andré coquillet 45200 montargis parking st roch accès handicapés bus ligne 2,47.991358,2.732356,Montargis,45200
Magasin d'appareils auditifs à Olivet,314 rue marcel belot 45160 olivet,47.864745,1.901047,Olivet,45160
Centre audition à Orléans,4 rue du tabour 45000 orléans tram : station de gaulle,47.900886,1.903123,Orléans,45000
Correction auditive à Caen,108 bis rue du général moulin 14000 caen,49.187271,-0.404834,Caen,14000
Audioprothésiste à Cherbourg,38 rue albert mahieu 50100 cherbourg-en-cotentin,49.638757,-1.625379,Cherbourg-en-Cotentin,50100
Correction auditive à Alençon,1 boulevard de strasbourg 61000 alençon,48.434306,0.09331,Alençon,61000
Centre de correction auditive à l’Aigle,27 rue bec ham 61300 l’aigle,48.763829,0.625775,L'Aigle,61300
Audioprothésiste à Mortagne-au-Perche,18 rue sainte-croix 61400 mortagne-au-perche,48.519887,0.546669,Mortagne-au-Perche,61400
Audioprothésiste à Sées,88 rue de la république 61500 sées,48.602592,0.171525,Sées,61500
Audioprothésiste au Havre,102 rue voltaire 76600 le havre,49.489836,0.106952,Le Havre,76620
Audioprothésiste à Saint-Romain-de-Colbosc,,,,,
Laboratoire auditif à Beaupréau-en-Mauges,47 rue saint-martin 49600 beaupréau-en-mauges,47.204121,-0.981936,Beaupréau-en-Mauges,49600
Centre auditif à Cholet Austerlitz,4 rue d’austerlitz 49300 cholet,47.044884,-0.897267,Cholet,49300
Audioprothésiste à Cholet Saint-Pierre,place saint-pierre 38 rue du puits gourdon 49300 cholet,47.060161,-0.873529,Cholet,49300
Audioprothésiste à Gennes-Val-de-Loire,6 rue de la poste gennes 49350 gennes-val-de-loire,47.339668,-0.231348,Gennes-Val de Loire,49350
Correction Auditive à Ernée,18 bis place mazarin 53500 ernée,48.296128,-0.935852,Ernée,53500
Audioprothésiste à Laval,14 rue du père domaigne 53000 laval résidence laennec,48.058091,-0.785978,Laval,53000
Audioprothésiste à Mamers,61 place carnot 72600 mamers,48.350261,0.369974,Mamers,72600
Centre auditif à Bretignolles-sur-Mer,7 rue de la coursive – c.c.super u 85470 bretignolles-sur-mer dans le centre commercial super u chez l’opticien vision plus,46.626463,-1.856574,Bretignolles-sur-Mer,85470
Centre auditif à Olonne-sur-Mer,espace économique tabarly 86 boulevard du vendée globe 85340 olonne-sur-mer,46.509627,-1.793489,Olonne-sur-Mer,85340
Correction auditive à Étoile-sur-Rhône,40 place léon lerisse 26800 étoile-sur-rhône,44.837022,4.894348,Étoile-sur-Rhône,26800
correction auditive à Livron-sur-Drôme,8 avenue joseph combier 26250 livron-sur-drôme,44.772037,4.842558,Livron-sur-Drôme,26250
Laboratoire d'audition au Puy-en-Velay,29 place du breuil 43000 le puy-en-velay,45.042036,3.884071,Le Puy-en-Velay,43000
Centre Audition à Annemasse,"25 avenue de la gare 74100 annemasse parking à proximité 1h de stationnement offerte bus n° 8, 5 et tango : arrêt chablais parc ou parc montessuit tram n° 17 : arrêt montessuit leman express l1 – l2 – l3 – l4",42.468749,9.38914,Monte,20290
Laboratoire auditif à Saint-Julien-en-Genevois,"4 rue berthollet 74160 saint-julien-en-genevois lignes d, t72, arrêt : sous préfecture parking gratuit",48.950507,3.130082,La Ferté-sous-Jouarre,77260
Audioprothésiste à Sallanches,98 quai alexandre curral 74700 sallanches parking gratuit 30 minutes,45.935885,6.630845,Sallanches,74700
Centre audition à Bourgoin-Jallieu,3 rue des castors 38300 bourgoin-jallieu,45.599838,5.234812,Bourgoin-Jallieu,38300
Centre auditif à Echirolles,28 avenue du 8 mai 1945 38130 echirolles tramway marie curie,45.146135,5.716878,Échirolles,38130
Magasin d’appareil auditif à Fontaine,101 avenue aristide briand 38600 fontaine tramway hôtel de ville de fontaine,45.191515,5.686628,Fontaine,38600
Centre d’audition à Grenoble,24 avenue alsace lorraine 38000 grenoble tramway alsace lorraine,45.189521,5.720079,Grenoble,38000
Audioprothésiste à Heyrieux,6 rue aristide briand 38540 heyrieux,45.628529,5.063643,Heyrieux,38540
Correction auditive à Morestel,18 grande rue 38510 morestel,45.677341,5.469179,Morestel,38510
Centre d'audition à Seyssinet-Pariset,,,,,
Magasin d’appareils auditifs à Voiron,7 rue vaucanson 38500 voiron,45.365028,5.595273,Voiron,38500
Centre audition à Firminy,70 rue jean jaurès 42700 firminy,45.388583,4.28652,Firminy,42700
Centre d'audition à Roanne,22 rue charles de gaulle 42300 roanne,46.037086,4.071041,Roanne,42300
Centre audition à Saint-Chamond,4 rue de l’armistice 42400 saint-chamond,45.47367,4.510315,Saint-Chamond,42400
Laboratoire d'audition à Saint-Étienne Centre Ville,4 rue grand moulin 42000 saint-étienne,45.43762,4.388951,Saint-Étienne,42000
Laboratoire auditif à Saint-Étienne La Terrasse,24 place massenet 42000 saint-étienne,45.466989,4.378474,Saint-Étienne,42000
Audioprothésiste à Chamalières,46 avenue de royat 63400 chamalières,45.775081,3.064638,Chamalières,63400
Audioprothésistes à Clermont-Ferrand Blatin,16 rue blatin 63000 clermont-ferrand a 100m de la place de jaude – en face du grand passage accès facile par tram et bus b : arrêt jaude,45.777002,3.079875,Clermont-Ferrand,63000
Audioprothésiste à Clermont-Ferrand République,92 avenue de la république 63000 clermont-ferrand face au pôle santé république et stade michelin accès facile par tram et bus b : arrêt stade marcel michelin,45.787237,3.105738,Clermont-Ferrand,63100
Correction auditive à Issoire,place de la république 63500 issoire,45.543676,3.248315,Issoire,63500
Audioprothésiste au Cendre,6 rue roland garros 63670 le cendre parking privé,45.726492,3.18713,Le Cendre,63670
Laboratoire de l'audition à Riom,30 rue de l’hôtel de ville 63200 riom à côté de la maison des consuls et des opticiens girod,45.89378,3.114112,Riom,63200
Centre auditif à Bessenay,27 place du marché 69690 bessenay chez optique la cerise sur la lunette,45.776333,4.553155,Bessenay,69690
Laboratoire de correction auditive à Caluire-et-Cuire,87 rue pasteur 69300 caluire-et-cuire,45.79279,4.844709,Caluire-et-Cuire,69300
Correction auditive à Champagne-au-Mont-d’Or,76 avenue lanessan 69410 champagne-au-mont-d’or,45.797125,4.79039,Champagne-au-Mont-d'Or,69410
Audioprothésiste à Charbonnières-les-Bains,pôle médical 104 route de paris 69260 charbonnières-les-bains,45.782497,4.750183,Charbonnières-les-Bains,69260
Correction auditive à Communay,1 rue centrale 69360 communay le vieux lavoir,45.60713,4.833813,Communay,69360
Laboratoire de correction auditive à Craponne,"54 avenue edouard millaud 69290 craponne au rond-point de brindas, prendre direction craponne centre bus : 10, c24, 73, arrêt craponne martin",45.747416,4.729159,Craponne,69290
Audioprothésiste à Décines-Charpieu,"1 rue paul bert 69150 décines-charpieu bus 67 et 79, arrêt “décines gare” tram t3, arrêt “décines centre”",45.767445,4.957027,Décines-Charpieu,69150
Audition Conseil à Givors,"6 rue de la fraternité 69700 givors bus 78, 80, 81 : arrêt gare de givors canal",45.593109,4.770927,Givors,69700
Laboratoire auditif à Lentilly,espace santé 9 place de l’europe 69210 lentilly,45.819514,4.659429,Lentilly,69210
Centre auditif à Lyon 1 Terreaux,"22 rue constantine 69001 lyon a 50 m du musée des beaux-arts, en direction des quais de saône métro a et c, arrêt hôtel de ville – louis pradel bus : 19, c3 et c14, arrêt terreaux c13, c18 et s12, arrêt hôtel de ville",48.341624,7.294011,Villé,67220
Audioprothésiste à Lyon 3 Lacassagne,34 b avenue lacassagne 69003 lyon sur la place rouget de l’isle,45.754177,4.866999,Lyon,69003
Audioprothésiste à Lyon 4 Croix Rousse,"130 boulevard de la croix-rousse 69001 lyon a 100 m en face de la mairie du 4ème bus : c13, 45 – arrêt mairie du 4ème bus : 2, 33 – place des tapis métro c – arrêt croix rousse",50.680377,3.155737,Croix,59170
Audioprothésiste à Lyon 5 St-Just,"68 rue de trion 69005 lyon funiculaire saint-just bus : c20 et c21, arrêt place de trion bus : 66 et 90 arrêt trion",46.255995,4.597409,Saint-Jacques-des-Arrêts,69860
Audioprothésistes à Lyon 6 Foch,"60 avenue maréchal foch 69006 lyon a 50 m du métro, à côté de la chambre des métiers et de l’artisanat du rhône",45.358457,6.301651,La Chambre,73130
Centre d'audition à Lyon 6 Lafayette – Baraban,"299 cours lafayette 69006 lyon au croisement du cours lafayette et de la rue baraban, à la limite du cours tolstoï (totem villeurbanne) bus c3 et c 16 : arrêt alsace bus 27 : arrêt alsace (uniquement dans la direction villeurbanne centre) emplacement réservé pour personne à mobilité réduite devant le centre",45.766606,4.879901,Villeurbanne,69100
Centre d'appareillage auditif à Lyon 7 Saxe-Gambetta,"8 place victor basch 69007 lyon a 50 m du métro et de l’intersection entre l’avenue du maréchal de saxe et le cours gambetta, en remontant le cours gambetta métro b et d, arrêt saxe gambetta bus : c4, c11, c12, c14, c23, arrêt saxe gambetta",42.8767,9.355298,Barrettali,20228
Correction auditive à Lyon 8 États-Unis,83 boulevard des états-unis 69008 lyon,45.731918,4.865981,Lyon,69008
Magasin Audition Conseil à Lyon 9 Vaise,"5 rue laporte 69009 lyon place de paris a 2 rues du métro gare de vaise métro d, arrêt gare de vaise bus : c6, c14, arrêt gare de vaise",48.536592,5.66667,Maxey-sur-Vaise,55140
Audioprothésiste à Mornant,bâtiment b 15 avenue du souvenir 69440 mornant,45.620822,4.673498,Mornant,69440
Centre auditif à Pierre-Bénite,"53 boulevard de l’europe 69310 pierre-bénite les jardins d’elsa en face de l’église bus : 15, 18, c7",44.650494,3.89157,Luc,48250
Centre auditif à Rillieux-la-Pape,1 rue andré janier 2518 route de strasbourg 69140 rillieux-la-pape bus 33 arrêt charles de gaulle bus c2 arrêt loup pendu,45.817627,4.89205,Rillieux-la-Pape,69140
Audioprothésiste à Saint-Didier-au-Mont-d’Or,5 rue du castellard 69370 saint-didier-au-mont-d’or,45.810445,4.79609,Saint-Didier-au-Mont-d'Or,69370
Correction auditive à Saint-Fons,61 rue mathieu dussurgey 69190 saint-fons msp maison de santé pluri-professionelle bus c12 : arrêt saint-fons dussurgey bus 93 : arrêt montesquieu,45.712338,4.86252,Saint-Fons,69190
Audioprothésiste à Saint-Martin-en-Haut,4 rue de fontbenite 69850 saint-martin-en-haut,45.660967,4.559888,Saint-Martin-en-Haut,69850
Centre auditif à Vaulx-en-Velin,"10 rue emile zola 69120 vaulx-en-velin bus c3, c8 et 52 : arrêt grand vire",46.440745,4.863503,Viré,71260
Magasin d'audioprothèse à Villefranche-sur-Saône,119 rue d’anse 69400 villefranche-sur-saône face au parking du promenoir,45.984526,4.718109,Villefranche-sur-Saône,69400
Centre auditif à Villeurbanne Charpennes,"30 rue gabriel péri 69100 villeurbanne a 50 m de l’hôpital des charpennes et 100 m de la place charles hernu métro a et b, tram t1 : arrêt charpennes bus : c17 et 37, arrêt place wilson c2, c16, 27 et 70, arrêt charpennes",46.913329,5.19889,Charette-Varennes,71270
Magasin d'appareils auditifs à Villeurbanne Gratte-Ciel,"40 rue michel servet 69100 villeurbanne entre la mairie et le tnp de villeurbanne place lazare-gougeon métro : ligne a, arrêt gratte-ciel bus : c26, 69, 27, arrêt mairie de villeurbanne",45.765928,4.878877,Villeurbanne,69100
Vos audioprothésistes à Seurre,21 rue de la république 21250 seurre,46.999228,5.146705,Seurre,21250
Centre auditif à Pontarlier,80 rue de besançon 25300 pontarlier place de parking réservée à la clientèle,46.916733,6.344459,Pontarlier,25300
Centre audition à Bletterans,3 rue louis le grand 39140 bletterans,46.746543,5.455716,Bletterans,39140
Centre d'audition à Lons-Le-Saunier,99 rue regard 39000 lons-le-saunier,46.675588,5.551253,Lons-le-Saunier,39000
Centre d'audition à Saint-Laurent-en-Grandvaux,13 rue de genève 39150 saint-laurent-en-grandvaux optique verjus,46.576108,5.955269,Saint-Laurent-en-Grandvaux,39150
Laboratoire d'audition à Nevers Espace Grands Champs,53 boulevard du grand pré des bordes 58000 nevers à côté d’atol zone des grands champs,46.995207,3.122537,Nevers,58000
Centre auditif à Nevers Polyclinique Val de Loire,9 rue des docks 58000 nevers face à la polyclinique du val de loire,46.995049,3.148243,Nevers,58000
Centre audition de Buxy,61 grande rue 71390 buxy,46.713968,4.694585,Buxy,71390
Magasin d'aides auditives à Chalon-sur-Saône,10 rue au change 71100 chalon-sur-saône,46.781196,4.855064,Chalon-sur-Saône,71100
Laboratoire auditif à Chalon-Sur-Saône Médic Center,médic center 5 rue capitaine drillien 71100 chalon-sur-saône en face du nouvel hôpital parking privatif gratuit,46.776095,4.841379,Chalon-sur-Saône,71100
Audioprothésiste à Charnay-Lès-Mâcon,93 place mommessin 71850 charnay-lès-mâcon,46.30882,4.812363,Charnay-lès-Mâcon,71850
Audioprothésiste à Charolles,chez opticonseil 7 rue du général leclerc 71120 charolles,46.436189,4.27698,Charolles,71120
Centre d'audition à Châtenoy-le-Royal,maison de santé 44 avenue maurice ravel 71880 châtenoy-le-royal,46.794272,4.815658,Châtenoy-le-Royal,71880
Audioprothésiste à Cluny,18 place de la liberté 71250 cluny,46.431591,4.660262,Cluny,71250
Laboratoire auditif à Gergy,57 grande rue 71590 gergy,46.876761,4.946918,Gergy,71590
Centre d'audition à Louhans,5 rue de la grenette 71500 louhans,46.629771,5.222452,Louhans,71500
Laboratoire audition à Montchanin,90 avenue de la république 71210 montchanin,46.747862,4.46949,Montchanin,71210
Magasin d'aides auditives à Ouroux-sur-Saône,z.a. de velard 71370 ouroux-sur-saône chez bourgogne optique,46.71448,4.963572,Ouroux-sur-Saône,71370
Laboratoire auditif à Pierre-de-Bresse,32 grande rue 71270 pierre-de-bresse,46.885772,5.261482,Pierre-de-Bresse,71270
Centre audition à Tournus,17 rue du 23 janvier 71700 tournus,46.558491,4.914732,Tournus,71700
Correction auditive à Laroque d’Olmes,,,,,
Correction auditive à Mirepoix,15 cours colonel petitpied 09500 mirepoix,43.089033,1.874653,Mirepoix,09500
Correction auditive à Tarascon-sur-Ariège,10 place jean-jaurès 09400 tarascon-sur-ariège,42.847559,1.606332,Tarascon-sur-Ariège,09400
Audioprothésistes à Alès Centre Ville,25 rue edgar quinet 30100 alès,44.124084,4.083958,Alès,30100
Centre auditif à Alès Rocade Est,477 chemin de la tourtugue 30100 alès,44.120134,4.108637,Alès,30100
Centre Audition Conseil à Bagnols-Sur-Cèze,23 avenue paul langevin 30200 bagnols-sur-cèze,44.164593,4.621724,Bagnols-sur-Cèze,30200
Audioprothésiste à La Grand Combe,14 rue sainte barbe 30110 la grand-combe,44.21168,4.029868,La Grand-Combe,30110
Correction auditive aux Angles,365 avenue de la 2eme division blindée 30133 les angles centre medipole des angles,43.957871,4.764762,Les Angles,30133
Audioprothésiste à Pont-Saint-Esprit,51 rue vauban 30130 pont-saint-esprit parking gratuit,44.258953,4.648189,Pont-Saint-Esprit,30130
Centre d'audition à Saint Ambroix,18 boulevard du portalet 30500 saint-ambroix,44.260337,4.197956,Saint-Ambroix,30500
Centre auditif à Uzès,4 boulevard charles gide 30700 uzès,44.013787,4.420488,Uzès,30700
Centre Auditif à Villeneuve lez Avignon,17 rue de la république 30400 villeneuve-lez-avignon,43.964168,4.79677,Villeneuve-lès-Avignon,30400
Laboratoire de correction auditive à Bagnères-de-Bigorre,9 allée de coustous 65200 bagnères-de-bigorre,43.063861,0.15006,Bagnères-de-Bigorre,65200
Correction auditive à Lourdes,3 place du champ commun 65100 lourdes,43.094119,-0.0461,Lourdes,65100
Audition Conseil à Tarbes,,,,,
Laboratoire de correction auditive à Trie-sur-Baïse,26 place de la mairie 65220 trie-sur-baïse,43.320696,0.369928,Trie-sur-Baïse,65220
Correction auditive à Vic-en-Bigorre,2b avenue joseph fitte 65500 vic-en-bigorre,43.384608,0.054962,Vic-en-Bigorre,65500
Centre d'audition à Castelnau-le-Lez,305 route de nîmes 34170 castelnau-le-lez immeuble le françois tram : arrêt « notre dame de sablassous » bus 21 – 29 – 30 – 31 – 101 – 112 arrêt « notre dame de sablassous »,43.635547,3.924723,Castelnau-le-Lez,34170
Centre auditif de Ganges,8 rue biron 34190 ganges,43.934584,3.706767,Ganges,34190
Laboratoire auditif à la Grande-Motte,430 quai georges pompidou 34280 la grande-motte,43.560733,4.082632,La Grande-Motte,34280
Centre d'audition à Lunel,16 boulevard de la république 34400 lunel,43.675805,4.131571,Lunel,34400
Magasin d'appareils auditifs à Montpellier,26 boulevard du jeu de paume 34000 montpellier,43.607231,3.874491,Montpellier,34000
Centre d'audition à Prayssac,,,,,
Laboratoire auditif à Cabestany,5 rue du moulinas 66330 cabestany centre commercial « las molinas » bus ligne 7,42.681238,2.933799,Cabestany,66330
Magasin d'appareils auditif à Canet-en-Roussillon,,,,,
Centre auditif à Le Boulou,16 carrer d’en cavaillès 66160 le boulou chez visioptic derrière intermarché,42.533579,2.83945,Le Boulou,66160
Audioprothésiste à Perpignan,80 rue pascal marie agasse 66000 perpignan clinique saint-pierre bus ligne 17 et 2 parking offert,42.695106,2.864301,Perpignan,66000
Audioprothésiste à Pollestres,,,,,
Audioprothésiste à Rivesaltes,"2 avenue gambetta 66600 rivesaltes bus 9, 16 et 19 parking mairie",48.833314,4.47301,Cheppes-la-Prairie,51240
Audioprothésiste à Saint-Estève,,,,,
Laboratoire auditif à Thuir,pôle santé des aspres 19 avenue méditerranée 66300 thuir parking facile,42.633034,2.76045,Thuir,66300
Audioprothésiste à Albi,41 route de la dreche 81000 albi,43.953084,2.153433,Albi,81000
Audioprothésiste à Blaye-les-Mines,152 avenue d’albi 81400 blaye-les-mines,44.027426,2.15652,Blaye-les-Mines,81400
Centre Audition à Saint-Juéry,48 avenue germain tequi 81160 saint-juéry,43.946828,2.21011,Saint-Juéry,81160
Correction auditive à Manosque,17 bis avenue jean giono 04100 manosque anciennement « bruno boutique »,43.830891,5.784631,Manosque,04100
à Antibes,3 place général de gaulle 06600 antibes,43.580507,7.121257,Antibes,06600
Centre d’audition à Beausoleil,5 boulevard de la république 06240 beausoleil face au marché,43.742492,7.425729,Beausoleil,06240
Centre auditif à Cagnes-sur-Mer,10 cours du 11 novembre 06800 cagnes-sur-mer,43.661437,7.15029,Cagnes-sur-Mer,06800
Magasin d'aides auditives à Cannes Carnot,91 boulevard carnot 06400 cannes face avenue des anglais bus milton,43.562132,7.016542,Cannes,06400
Centre audition à Cannes Hoche,3 rue hoche 06400 cannes face aux galeries lafayette possibilité de parking gratuit,43.553133,7.019181,Cannes,06400
Centre audition à Golfe Juan,,,,,
Centre auditif à Grasse,132 route de la marigarde 06130 grasse parking gratuit,43.65398,6.943708,Grasse,06130
Laboratoire auditif à La Trinité,13 boulevard du général de gaulle 06340 la trinité,43.741362,7.310996,La Trinité,06340
Centre auditif à Le Cannet Carnot,112 boulevard carnot 06110 le cannet a côté de mercedes,43.565914,7.016376,Le Cannet,06110
Magasin d'appareils auditifs à Le Cannet Roosevelt,65 avenue franklin roosevelt 06110 le cannet leclerc rocheville,43.572179,7.000673,Le Cannet,06110
Laboratoire auditif à Mandelieu,571 avenue de cannes 06210 mandelieu-la-napoule face sortie d’autoroute a8 – 40 parking escota gratuit,43.545011,6.937699,Mandelieu-la-Napoule,06210
Laboratoire audition à Menton,12 avenue boyer 06500 menton le majestic,43.77479,7.496697,Menton,06500
Centre audition à Mougins,616 avenue saint-martin 06250 mougins face à grand frais parking gratuit,43.609071,6.982203,Mougins,06250
Correction auditive à Nice Californie,272 avenue de la californie 06200 nice,43.677656,7.228513,Nice,06200
Centre audition à Nice Gambetta,"11 boulevard gambetta 06000 nice bus 23, cv : arrêt gambetta / promenade",48.652826,4.97474,Bettancourt-la-Ferrée,52100
Audioprothésiste à Nice Gorbella,11 boulevard gorbella 06100 nice tram l1 : arrêt gorbella bus l : arrêt gorbella,45.428951,5.824562,Corbel,73160
Laboratoire d'audition à Nice Joffre,"12 rue du maréchal joffre 06000 nice bus 08, 38, p : arrêt longchamp tram l2 : arrêt jean médecin",47.258955,5.289551,Longchamp,21110
Vos audioprothésistes de Nice Médecin,"68 avenue jean médecin 06000 nice tram l1 arrêt gare thiers bus 57, 87 arrêt gare thiers / médecin",49.151593,2.569186,Thiers-sur-Thève,60520
Votre audioprothésiste de Nice République,44 avenue de la république 06300 nice bus 82 arret boyer tram l1 arrêt garibaldi,43.967145,3.520612,Arre,30120
Votre audioprothésiste de Saint Laurent du Var,748 avenue du général de gaulle 06700 saint-laurent-du-var,43.668893,7.191826,Saint-Laurent-du-Var,06700
Laboratoire d'audition à Saint-Martin-du-Var,4 avenue pasteur 06670 saint-martin-du-var,43.821992,7.191138,Saint-Martin-du-Var,06670
Correction auditive à Sospel,4 avenue jean médecin 06380 sospel immeuble des 4 trèfles,43.877901,7.446555,Sospel,06380
Audition Conseil à Valbonne,12 boulevard carnot 06560 valbonne,43.642435,7.009581,Valbonne,06560
Centre audition à Aix-en-Provence Pasteur,"14 avenue pasteur 13100 aix-en-provence parking, 1/2 heure gratuite",49.139658,1.187599,Heudreville-sur-Eure,27400
Vos audioprothésistes d’Aix-en-Provence Thiers,23 rue thiers 13100 aix-en-provence,43.527645,5.451965,Aix-en-Provence,13100
Audioprothésistes à Allauch,589 avenue du 7ème régiment des tirailleurs algériens 13190 allauch parking privé bus 144 rtm : arrêt hôpital mille écus,43.33764,5.472871,Allauch,13190
Magasin d'appareil auditif à Arles,27 rue de la république 13200 arles,43.676331,4.62752,Arles,13200
Audioprothésiste à Aubagne,29 rue de la république 13400 aubagne parking beaumond gratuit 1h,43.291984,5.569003,Aubagne,13400
Audioprothésiste à Auriol,zac le pujol 13390 auriol parking gratuit devant le centre bus ligne 8 et 9 : arrêt « les artauds »,43.369995,5.656465,Auriol,13390
Centre auditif à Berre-l’Etang,5 avenue de la libération 13130 berre-l’étang,43.476655,5.167624,Berre-l'Étang,13130
Audioprothésiste à Éguilles,18 rue du grand logis 13510 éguilles,43.568918,5.354576,Éguilles,13510
Centre audition à Gardanne,4 boulevard bontemps 13120 gardanne,43.454175,5.469359,Gardanne,13120
Centre d'audition à Istres,34 avenue hélène boucher 13800 istres,43.511481,4.988185,Istres,13800
Audioprothésiste à La Ciotat,"83 rue des poilus 13600 la ciotat stationnements proche : parking indigo première 1h gratuite : parc du centre parking port de plaisance bus 10 et 31, arrêt « la croix de malte »",44.778246,2.636104,Lacroix-Barrez,12600
Audioprothésiste à Lambesc,3 avenue du 8 mai 1945 13410 lambesc,43.648956,5.263615,Lambesc,13410
Audioprothésiste aux Pennes Mirabeau,71 avenue françois mitterrand 13170 les pennes mirabeau,43.379586,5.351075,Les Pennes-Mirabeau,13170
Laboratoire auditif à Marignane,3 cours mirabeau 13700 marignane face à la mairie,43.417441,5.21602,Marignane,13700
Audioprothésiste à Marseille 3 Cadenat,15 place cadenat 13003 marseille bus 52 arrêt « belle de mai » bus 33-34 arrêt « belle de mai loubon » parking gratuit sur place l’après-midi (le matin marché),43.312423,5.387206,Marseille,13003
Centre d'audition à Marseille 4 Cinq Avenues,2 boulevard georges clemenceau 13004 marseille métro 1 : cinq avenues-longchamp tram 2 : cinq avenues bus 6 – 7 – 7b – 7t – 41n – 81 : arrêt cinq avenues,43.301822,5.39733,Marseille,13004
Centre auditif à Marseille 7 Endoume,38 rue d’endoume 13007 marseille bus 54 – 55 – 60 – 61 – 80 – 81 arrêt saint-victor,43.28912,5.366334,Marseille,13007
Centre auditif à Marseille 8 Prado,142 avenue du prado 13008 marseille métro ligne 2 station périer bus 19-21 : arrêt prado bus 73-74 : arrêt périer parking souterrain prado/périer,43.279614,5.386913,Marseille,13008
Correction auditive à Marseille Cabot,"93 boulevard du cabot 13009 marseille bus 24, 24b, 24t, 24s : arrêt le cabot",44.186149,5.493482,Barret-de-Lioure,26570
Centre d’audition à Marseille 9 Mazargues,637 avenue de mazargues 13009 marseille bus 22 – 22s : arrêt l’aïllaude parking assuré devant le centre,43.251325,5.394892,Marseille,13009
Centre auditif à Marseille 12 Saint-Barnabé,"68 rue montaigne 13012 marseille métro st-barnabé bus lignes 7, 10, 67, 509 arrêt st-barnabé la croix rocade l2 sortie saint-barnabé parking au carrefour",48.137405,-2.70249,Saint-Barnabé,22600
Magasin d'aides auditives à Martigues,18 quai kléber 13500 martigues,43.405464,5.056182,Martigues,13500
Laboratoire audition à Salon-de-Provence,5 rue des frères j. & r. kennedy 13300 salon-de-provence fontaine moussue,,,,
Laboratoire de correction auditive à Tarascon,9-11 cours aristide briand 13150 tarascon parking facile accès aisé aux personnes à mobilité réduite,43.803414,4.657053,Tarascon,13150
Audioprothésiste Audition Conseil à Trets,7 boulevard de la république 13530 trets 1h de parking offerte avec le disque,43.447749,5.684737,Trets,13530
Centre auditif à Velaux,39 avenue jules andraud 13880 velaux,43.523306,5.258258,Velaux,13880
Magasin d'appareils auditifs à Venelles,3 rond-point de la gare 13770 venelles,43.587489,5.47566,Venelles,13770
Magasin d'audioprothèses à Vitrolles,3 arcade du colonel de courson 13127 vitrolles,43.447622,5.248142,Vitrolles,13127
Audioprothésiste à Gap,2 rue pasteur 05000 gap place arrêt 30 min,44.560203,6.080378,Gap,05000
Laboratoire auditif à Bandol,la porte d’azur – 5 rue jenner 83150 bandol,43.142303,5.750362,Bandol,83150
Audioprothésiste à Carcès,25 rue maréchal foch 83570 carcès,43.476451,6.182274,Carcès,83570
Laboratoire auditif à Cavalaire-sur-Mer,375 avenue maréchal lyautey 83240 cavalaire-sur-mer résidence le centre – entrée b,43.17206,6.528509,Cavalaire-sur-Mer,83240
Centre audition à Cogolin,67 avenue georges clemenceau 83310 cogolin résidence du parc,43.250319,6.539299,Cogolin,83310
Audioprothésiste à Cuers,1 avenue maréchal foch 83390 cuers,43.237587,6.071987,Cuers,83390
Centre auditif à Draguignan,28 boulevard marx dormoy 83300 draguignan,43.535853,6.464681,Draguignan,83300
Laboratoire audition à Frejus,220 avenue de lattre de tassigny 83600 fréjus,43.433371,6.745828,Fréjus,83600
Les audioprothésistes de Hyères Centre,13 avenue gambetta 83400 hyères,43.118708,6.128759,Hyères,83400
Audioprothésiste à Hyères la Gare,66 avenue alexis godillot 83400 hyères audition conseil hyères – la gare,43.109621,6.124344,Hyères,83400
Audioprothésiste à La Crau,397 chemin de l’estagnol 83260 la crau la moutonne,43.125419,6.073449,La Crau,83260
à La Garde,164 avenue sadi carnot 83130 la garde,43.124204,6.007157,La Garde,83130
Audioprothésistes à La Seyne-sur-Mer Cléry,8 avenue hugues cléry 83500 la seyne-sur-mer espace mar-vivo,43.081243,5.885806,La Seyne-sur-Mer,83500
Centre d’audition La Seyne-sur-Mer Le Port,rue pierre renaudel 83500 la seyne-sur-mer le port,43.103274,5.880216,La Seyne-sur-Mer,83500
Centre auditif à La Seyne-sur-Mer Rome,489 avenue de rome 83500 la seyne-sur-mer espace santé 2 – zac les playes,43.104964,5.852056,La Seyne-sur-Mer,83500
Centre audition à La Valette-du-Var,90 avenue anatole france 83160 la valette-du-var,43.137152,5.980559,La Valette-du-Var,83160
Centre auditif au Beausset,3 boulevard de la libération 83330 le beausset les bougainvillées ii,43.196399,5.801621,Le Beausset,83330
Audioprothésiste à Le Luc-en-Provence,,,,,
Audioprothésiste au Pradet,151 avenue de la première dfl 83220 le pradet,43.106661,6.020341,Le Pradet,83220
Correction Auditive à Lorgues,8 avenue allongue 83510 lorgues,43.492588,6.359831,Lorgues,83510
Votre audioprothésiste à Ollioules,139 chemin des deux frères 83190 ollioules espace gamma,43.125744,5.855126,Ollioules,83190
Audioprothésistes à Puget-sur-Argens,,,,,
Centre auditif à Saint-Cyr-sur-Mer,42 rue de la république 83270 saint-cyr-sur-mer,43.181786,5.711136,Saint-Cyr-sur-Mer,83270
Centre d’audition à Saint-Maximin-la-Sainte-Baume,32 rue gutenberg 83470 saint-maximin-la-sainte-baume,43.45434,5.857982,Saint-Maximin-la-Sainte-Baume,83470
Laboratoire auditif à Saint-Raphaël,126 rue jean aicard 83700 saint-raphaël parking place coullet,43.422418,6.768678,Saint-Raphaël,83700
Audioprothésiste à Saint-Raphaël,112 place pierre coullet 83700 saint-raphaël immeuble saint-louis,43.423577,6.768143,Saint-Raphaël,83700
Centre auditif à Saint-Tropez,résidence du port – 2ème étage 38 rue du 11 novembre 1918 83990 saint-tropez,43.271592,6.636426,Saint-Tropez,83990
Magasins d'aides auditives à Sainte-Maxime,9 rue félix martin 83120 sainte-maxime,43.309826,6.636515,Sainte-Maxime,83120
Correction auditive à Salernes,434 route de draguignan 83690 salernes,43.559416,6.248014,Salernes,83690
Centre auditif à Sanary,4 rue granet 83110 sanary-sur-mer place cavet,43.117347,5.80436,Sanary-sur-Mer,83110
Audioprothésiste à Six-Fours-les-Plages,74 rue de la république 83140 six-fours-les-plages,43.093243,5.838716,Six-Fours-les-Plages,83140
Audioprothésiste à Toulon Centre,173 boulevard maréchal leclerc 83000 toulon,43.123759,5.950167,Toulon,83100
Audioprothésiste à Toulon Est,366 avenue françois cuzin 83000 toulon,43.122561,5.945805,Toulon,83000
Centre audition Toulon Mourillon,,,,,
Audioprothésiste à Toulon Ouest,quartier du pont du las 401 avenue du xvème corps 83200 toulon,43.129848,5.90706,Toulon,83200
Centre auditif à Avignon,20 boulevard saint-roch 84000 avignon stationnement gratuit sur le parking de novotel,43.942785,4.802292,Avignon,84000
Laboratoire auditif à Bollène,avenue jean giono 84500 bollène parking intermarché,44.285741,4.750879,Bollène,84500
Audioprothésiste à Carpentras,500 avenue jean henri fabre 84200 carpentras,44.051143,5.03605,Carpentras,84200
Audioprothésiste à Cavaillon,104 avenue gabriel péri 84300 cavaillon,43.834458,5.040782,Cavaillon,84300
Centre d'audition à l’Isle-sur-la-Sorgue,rue du dr tallet 84800 l’isle-sur-la-sorgue,43.920544,5.051976,L'Isle-sur-la-Sorgue,84800
Correction auditive au Pontet,1 avenue françois lascour 84130 le pontet,43.961024,4.857708,Le Pontet,84130
Audioprothésiste à Monteux,22 boulevard trewey 84170 monteux,44.033559,4.99672,Monteux,84170
Centre d'audition à Orange,30 cours aristide briand 84100 orange,44.137303,4.805124,Orange,84100
Centre auditif à Pertuis,7 rue colbert 84120 pertuis,43.693851,5.503749,Pertuis,84120
Centre d'audition à Bressuire,16 place des anciens combattants 79300 bressuire,46.839204,-0.493451,Bressuire,79300
Magasin d'appareils auditifs à Bergerac,34 avenue du général de gaulle 24100 bergerac,44.845069,0.473109,Bergerac,24100
Centre auditif à Montignac,route de thonac 24290 montignac chez l’opticien parking privé et accès handicapé,45.022161,1.116082,Thonac,24290
Audioprothésiste à Périgueux,123 avenue georges pompidou 24750 champcevinel chez l’optique des romains (anciennement optique en 1 clin d’œil),45.197878,0.739771,Champcevinel,24750
Magasin d'appareils auditifs à Sarlat-la-Canéda,5 avenue de la dordogne 24200 sarlat-la-canéda,44.873351,1.21135,Sarlat-la-Canéda,24200
Correction auditive à Seignosse,1668 avenue charles de gaulle 40510 seignosse,43.687112,-1.373912,Seignosse,40510
Audioprothésiste à Boé,avenue de lacapelette 47550 boé zac de trenque parking privé et accès handicapé,44.179367,0.627654,Boé,47550
Audioprothésiste à Marmande,18 av. françois mitterand 47200 marmande,44.510465,0.138825,Marmande,47200
Magasin d'appareils auditifs à Montayral,,,,,
Audioprothésiste à Villeneuve-sur-Lot,rue marguerite et rené filhol 47300 villeneuve-sur-lot espace santé de parasol parking privé et accès handicapé,44.407166,0.738632,Villeneuve-sur-Lot,47300
Centre d’audition à Anglet,62 avenue de bayonne 64600 anglet immeuble futura,43.482253,-1.506296,Anglet,64600
Centre d’audition à Biarritz,le diorama 5 boulevard de cascais 64200 biarritz,43.47806,-1.544083,Biarritz,64200
Centre auditif à Pau Carnot,,,,,
Laboratoire auditif à Pau Le Hameau,,,,,
Centre auditif à Basse Terre,place st françois 97100 basse-terre face à la cathédrale,15.995194,-61.730153,Basse-Terre,97100
Laboratoire auditif Le Moule,79 boulevard rougé 97160 le moule,16.330522,-61.344871,Le Moule,97160
Centre auditif aux Abymes,,,,,
Correction de la surdité à Pointe-à-Pitre,,,,,
Magasin d'appareils auditifs à Curepipe Ile Maurice,,,,,
Audioprothésiste à Grand-Baie,,,,,
Audioprothésiste au Lamentin,,,,,
Centre auditif à Le Marin,,,,,
Laboratoire d'audition à Sainte-Marie,centre commercial lassalle 97230 sainte-marie devant la mairie,14.778122,-60.99461,Sainte-Marie,97230
Laboratoire d'audition à Schoelcher,,,,,
Audioprothésiste à Boussy-Saint-Antoine,,,,,
Audioprothésiste à Gif-sur-Yvette,,,,,
Audioprothésiste à Boulogne-Billancourt,256 boulevard jean-jaurès 92100 boulogne-billancourt,48.827519,2.246833,Boulogne-Billancourt,92100
Audioprothésiste à Sceaux,9 rue des écoles 92330 sceaux,48.776937,2.294538,Sceaux,92330
Audioprothésiste à Paris 7,"64 rue du bac 75007 paris métro rue du bac bus 69, 68, 63, 87, 84, 94, 83. arrêt rue du bac – rené char",45.70004,-0.495523,Dompierre-sur-Charente,17610
Audioprothésiste à Paris 11,125 rue du faubourg saint-antoine 75011 paris,48.851113,2.377278,Paris,75011
Audioprothésiste à Paris 14,19 rue d’odessa 75014 paris,48.841908,2.324748,Paris,75014
Audioprothésiste à Paris 15,60 rue lecourbe 75015 paris,48.843887,2.306629,Paris,75015
Audioprothésiste à Sarcelles,,,,,
Correction auditive à Villeneuve-Saint-Georges,11 avenue carnot 94190 villeneuve-saint-georges,48.733095,2.448167,Villeneuve-Saint-Georges,94190
Centre d'audition à Vincennes,15 avenue du château 94300 vincennes,48.845978,2.436576,Vincennes,94300
Audioprothésiste à Versailles Paroisse,9 rue de la paroisse 78000 versailles,48.808213,2.126351,Versailles,78000
Audioprothésiste à Ajaccio Napoléon,,,,,
Audioprothésiste à Ajaccio Stiletto,pôle d’activité du stiletto 20090 ajaccio pôle d’activité du stiletto – route du géant casino (à côté de sport 2000),41.918936,8.738803,Ajaccio,20000
Audioprothésiste à Bastia – Rue Santa Madalena,,,,,
Audioprothésiste à Bastia – Boulevard Paoli,26 boulevard paoli 20200 bastia,42.698775,9.449548,Bastia,20200
Audioprothésiste à Borgo,,,,,
