shop_name,address,latitude,longitude,city,postcode
Audioprothésiste CHAMANT Optical Center,"6, Avenue du Poteau 60300 Chamant",49.216698,2.595482,Chamant,60300
Audioprothésiste CHÂTEAURENARD Optical Center,"698, Boulevard Ernest Genevet 13160 Chateaurenard",43.887916,4.85368,Châteaurenard,13160
Audioprothésiste AUBIÈRE Optical Center,127 Avenue de Cournon 63170 Aubière,45.755981,3.149182,Aubière,63170
Audioprothésiste DRANCY Optical Center,"140, Avenue Henri Barbusse 93700 Drancy",48.920326,2.452644,Drancy,93700
Audioprothésiste  DINARD - PLEURTUIT Optical Center,ZAC de la Ville Es Meniers 35730 Pleurtuit,48.614237,-2.060204,Pleurtuit,35730
Audioprothésiste QUINCY-SOUS-SÉNART Optical Center,Rue de la marnière 91480 Quincy sous senart,48.683396,2.536436,Quincy-sous-Sénart,91480
Audioprothésiste DUCOS Optical Center,Rond Point de Genipa - Bâtiment B2 - Centre d’affaire Plazza 97224 Ducos,14.549879,-60.96857,Ducos,97224
Audioprothésiste CHÂTENAY-MALABRY Optical Center,"26, cours du commerce 92290 Chatenay malabry",48.76443,2.291584,Châtenay-Malabry,92290
Audioprothésiste CRÉPY-EN-VALOIS Optical Center,Zone commerciale la Croix Cailleux 60800 Crepy en valois,49.2391,2.885245,Crépy-en-Valois,60800
Audioprothésiste DOUARNENEZ Optical Center,7 rue Edouard Branly 29100 Douarnenez,48.09107,-4.347226,Douarnenez,29100
Audioprothésiste SÈTE Optical Center,"60, Boulevard Camille Blanc 34200 Sete",43.407512,3.667471,Sète,34200
Audioprothésiste  LE MARIN Optical Center,"2LD, Ancienne Usine du Marin 97290 Le marin",14.48479,-60.844134,Le Marin,97290
Audioprothésiste  NICE-SAINT-ISIDORE Optical Center,"140, Boulevard des Jardiniers 06200 Nice",43.709048,7.192472,Nice,06200
Audioprothésiste CHAMPAGNOLE Optical Center,"50, Avenue du Maréchal de Lattre de Tassigny 39300 Champagnole",46.74782,5.915208,Champagnole,39300
Audioprothésiste VILLEFRANCHE-DE-ROUERGUE Optical Center,"514, route de Montauban 12200 Villefranche de rouergue",44.360807,2.00482,Villefranche-de-Rouergue,12200
Audioprothésiste MONTESSON Optical Center,"283, Avenue Gabriel Péri 78360 Montesson",48.930867,2.145515,Montesson,78360
Audioprothésiste  BERGERAC - LA CAVAILLE Optical Center,"117, Avenue Charles de Gaulle 24100 Bergerac",44.840519,0.462529,Bergerac,24100
Audioprothésiste SAINT-CANNAT Optical Center,"5, Avenue de L’Europe 13760 Saint-cannat",43.611812,5.322791,Saint-Cannat,13760
Audioprothésiste SAINT-MARCELLIN Optical Center,ZI Chemin des Gameux 38160 Chatte,45.144782,5.305725,Chatte,38160
Audioprothésiste CARCASSONNE - ROCADEST Optical Center,"4, rue Joséphine Baker 11000 Carcassonne",43.226248,2.363769,Carcassonne,11000
Audioprothésiste MEAUX - BOUVIN Optical Center,"4, Avenue Jean Bouvin 77100 Meaux",48.954791,2.911526,Meaux,77100
Audioprothésiste PONTIVY - NIEL Optical Center,ZAC de St Niel 56300 Pontivy,48.067967,-2.949526,Pontivy,56300
Audioprothésiste AVRANCHES Optical Center,ZAC de la Baie 50300 Avranches,48.687795,-1.359198,Avranches,50300
Audioprothésiste CHÂLONS-EN-CHAMPAGNE - FAGNIÈRES Optical Center,"1, Chemin de la Terrière 51510 Fagnieres",48.959744,4.314357,Fagnières,51510
Audioprothésiste DOULLENS Optical Center,"36, rue Henri Dunant 80600 Doullens",50.15999,2.345287,Doullens,80600
Audioprothésiste LE MANS SUD Optical Center,11 rue Roger de la Fresnaye 72100 Le mans,47.9754,0.217001,Le Mans,72100
Audioprothésiste SAINT-QUENTIN - HARLY Optical Center,178 rue de Guise 02100 Saint-quentin,49.840521,3.313947,Saint-Quentin,02100
Audioprothésiste LUÇON Optical Center,119 chemin des Roches  Rond point Jean Monnet 85400 Luçon,46.459894,-1.145563,Luçon,85400
Audioprothésiste LIMOGES - BOISSEUIL Optical Center,Zone commerciale Boisseuil-Le Vigen 87110 Le vigen,45.784295,1.311646,Le Vigen,87110
Audioprothésiste CREUTZWALD Optical Center,1 rue St Flour 57150 Creutzwald,49.188215,6.698786,Creutzwald,57150
Audioprothésiste SAINT-AVOLD Optical Center,7 rue De Brack 57500 Saint avold,49.116272,6.708627,Saint-Avold,57500
Audioprothésiste  ÉPERNAY - PIERRY Optical Center,PAC les Forges 51530 Pierry,49.026419,3.946979,Pierry,51530
Audioprothésiste FORBACH Optical Center,210 rue Nationale 57600 Forbach,49.180459,6.888197,Forbach,57600
Audioprothésiste OYONNAX - ARBENT Optical Center,"Zone commerciale d'ARBENT - Point B - 900, Avenue du 19 Mars 1962 01100 Arbent",46.284011,5.667538,Arbent,01100
Audioprothésiste GRÉSY-SUR-AIX Optical Center,"35, rue des Allobroges 73100 Grésy-sur-aix",45.718036,5.921187,Grésy-sur-Aix,73100
Audioprothésiste MÂCON Optical Center,117 route de Lyon 71000 Macon,46.283698,4.806068,Mâcon,71000
Audioprothésiste CHALON-SUR-SAÔNE-ZAC CHALON 2 Optical Center,"7, rue René Cassin 71100 Chalon sur saone",46.774277,4.865412,Chalon-sur-Saône,71100
Audioprothésiste CAEN - MONDEVILLE Optical Center,18 rue Aristide Boucicaut 14120 Mondeville,49.163386,-0.300016,Mondeville,14120
Audioprothésiste LONS-LE-SAUNIER - MONTMOROT Optical Center,Zone D'Activite Chantrans 39570 Montmorot,46.668433,5.524053,Montmorot,39570
Audioprothésiste CONFLANS-EN-JARNISY Optical Center,"ZAC du Val de l'Orne, rue Paul Filiot 54800 Conflans en jarnisy",49.165006,5.839082,Conflans-en-Jarnisy,54800
Audioprothésiste PARIS GOBELINS 13EME Optical Center,31 Avenue des Gobelins 75013 Paris,48.836295,2.352512,Paris,75013
Audioprothésiste NANTERRE - UNIVERSITE Optical Center,36 allée de Corse 92000 Nanterre,48.893155,2.223139,Nanterre,92000
Audioprothésiste SAINT JEAN DE LA RUELLE Optical Center,Zone Ciale des 3 Fontaines 45140 Saint-jean-de-la-ruelle,47.912615,1.867502,Saint-Jean-de-la-Ruelle,45140
Audioprothésiste SALLANCHES Optical Center,505 Clos de l'Île Roche 74700 Sallanches,45.932077,6.652979,Sallanches,74700
Audioprothésiste AUTUN Optical Center,"ZAC de Bellevue, Avenue Pierre Brossolette 71400 Autun",46.96321,4.305325,Autun,71400
Audioprothésiste MAYENNE - Optical Center,515 rue de la Peyennières 53100 Mayenne,48.287197,-0.613008,Mayenne,53100
Audioprothésiste CAUDEBEC-LÈS-ELBEUF Optical Center,1233 rue aux saulniers - Promenade de l'Oison - Zone E.Leclerc 76320 Caudebec les elbeuf,49.287176,1.037094,Caudebec-lès-Elbeuf,76320
Audioprothésiste LAON Optical Center,"5, place Victor Hugo 02000 Laon",49.570529,3.63347,Laon,02000
Audioprothésiste CHECY Optical Center,20 rue Gustave Eiffel 45430 Checy,47.905135,2.032592,Chécy,45430
Audioprothésiste GUISE Optical Center,60 rue de l'Europe 02120 Guise,49.904974,3.645734,Guise,02120
Audioprothésiste LA CELLE-SAINT-CLOUD Optical Center,18 Avenue de la Jonchère 78170 La celle-saint-cloud,48.859458,2.147127,La Celle-Saint-Cloud,78170
Audioprothésiste CERNAY Optical Center,3 rue de Normandie 68700 Cernay,47.793345,7.173267,Cernay,68700
Audioprothésiste COUDEKERQUE-BRANCHE Optical Center,"48, route de Bergues 59210 Coudekerque branche",51.012161,2.379373,Coudekerque-Branche,59210
Audioprothésiste FOUESNANT Optical Center,1 Pôle Cial Cascade 29170 Fouesnant,47.862601,-3.992861,Fouesnant,29170
Audioprothésiste LESPARRE-MÉDOC Optical Center,24 route de Bordeaux 33340 Lesparre médoc,45.299197,-0.931903,Lesparre-Médoc,33340
Audioprothésiste GRANDE SYNTHE Optical Center,Centre commercial Auchan 59760 Grande synthe,51.011837,2.287962,Grande-Synthe,59760
Audioprothésiste GAILLAC Optical Center,178 avenue Saint-Exupéry 81600 Gaillac,43.89609,1.883475,Gaillac,81600
Audioprothésiste ONET LE CHATEAU Optical Center,Avenue Joël Pilon 12850 Onet le chateau,44.393012,2.600169,Onet-le-Château,12850
Audioprothésiste FLERS-EN-ESCREBIEUX - Optical Center,Zone Commerciale Carrefour Flers 59128 Flers en escrebieux,50.398197,3.045897,Flers-en-Escrebieux,59128
Audioprothésiste SAINT-CYR-SUR-LOIRE - Optical Center,"12, Bd André-Georges Voisin 37540 Saint-cyr-sur-loire",47.429312,0.663411,Saint-Cyr-sur-Loire,37540
Audioprothésiste MEYZIEU Optical Center,"32, rue Paul Cézanne 69330 Meyzieu",45.767978,4.98691,Meyzieu,69330
Audioprothésiste CHÂTEAUROUX - SAINT-MAUR Optical Center,"66, avenu de l'Occitanie 36250 Saint maur",46.78672,1.658158,Saint-Maur,36250
Audioprothésiste OULLINS Optical Center,141 Grande Rue 69600 Oullins,45.713398,4.805589,Oullins,69600
Audioprothésiste RETHEL Optical Center,ZI de l'Étoile 08300 Rethel,49.512292,4.366697,Rethel,08300
Audioprothésiste  BOURCEFRANC-LE-CHAPUS Optical Center,ZAC du Riveau 17560 Bourcefranc le chapus,45.837793,-1.13407,Bourcefranc-le-Chapus,17560
Audioprothésiste PONT-À-MOUSSON Optical Center,123 route de Briey 54700 Pont a mousson,48.91908,6.037907,Pont-à-Mousson,54700
Audioprothésiste EURALILLE Optical Center,"100, Avenue Willy Brandt 59777 Euralille",49.569491,-1.725135,Virandeville,50690
Audioprothésiste LIMOUX Optical Center,1 avenue François Clamens 11300 Limoux,43.065153,2.216397,Limoux,11300
Audioprothésiste LE PONT-DE-BEAUVOISIN Optical Center,Route départementale 1006 73330 Le pont de beauvoisin,45.536011,5.672981,Le Pont-de-Beauvoisin,73330
Audioprothésiste GANNAT Optical Center,3 avenue des Portes Occitanes 03800 Gannat,46.082533,3.200934,Gannat,03800
Audioprothésiste NEUFCHÂTEL-EN-BRAY Optical Center,rue du Moulin 76270 Neufchatel en bray,49.731106,1.435489,Neufchâtel-en-Bray,76270
Audioprothésiste ARRAS - CENTRE-VILLE Optical Center,23-25 rue Ernestale 62000 Arras,50.289764,2.773902,Arras,62000
Audioprothésiste ARGELÈS-SUR-MER Optical Center,rue des Hérons 66700 Argeles sur mer,42.55686,3.012085,Argelès-sur-Mer,66700
Audioprothésiste SCEAUX  Optical Center,81 rue Houdan 92330 Sceaux,48.778878,2.289211,Sceaux,92330
Audioprothésiste CHÂTEAU-DU-LOIR Optical Center,49 rue Nationale 72500 Vouvray sur loir,47.688038,0.430525,Montval-sur-Loir,72500
Audioprothésiste SAINT-JACQUES-DE-LA-LANDE Optical Center,139 rue du Temple de Blosne 35136 Saint-jacques-de-la-lande,48.084928,-1.70738,Saint-Jacques-de-la-Lande,35136
Audioprothésiste RAYMOND POINCARÉ - 16ÈME Optical Center,95 av Raymond Poincaré 75016 Paris,48.870833,2.28501,Paris,75116
Audioprothésiste MÛRS-ERIGNÉ Optical Center,5 rue Aimé de Soland 49610 Murs erigne,47.399073,-0.531475,Mûrs-Erigné,49610
Audioprothésiste MIMIZAN Optical Center,52 Avenue de Bordeaux 40200 Mimizan,44.205709,-1.22133,Mimizan,40200
Audioprothésiste SAINTE-MAXIME Optical Center,"114, Avenue Mathias 83120 Sainte-maxime",43.33274,6.644982,Sainte-Maxime,83120
Audioprothésiste  NEMOURS Optical Center,113 route de Moret 77140 Nemours,48.278976,2.698723,Nemours,77140
Audioprothésiste LA FERTÉ-BERNARD Optical Center,ZI Les Recollets 72400 La ferte bernard,48.190544,0.654801,La Ferté-Bernard,72400
Audioprothésiste SOYONS Optical Center,Route de Valence 07130 Soyons,44.918925,4.859805,Soyons,07130
Audioprothésiste LA SEYNE Optical Center,2017 av Pierre Auguste Renoir 83500 La seyne sur mer,43.085263,5.858133,La Seyne-sur-Mer,83500
Audioprothésiste ALES Optical Center,Impasse du Gardonnet 30100 Ales,44.110399,4.098916,Alès,30100
Audioprothésiste  DRAGUIGNAN Optical Center,"155, Avenue du Général de Gaulle 83300 Draguignan",43.52855,6.472132,Draguignan,83300
Audioprothésiste MONTPELLIER - JACOU Optical Center,20 rue Louis Breguet 34830 Jacou,43.65917,3.90419,Jacou,34830
Audioprothésiste SARCELLES -MY PLACE Optical Center,3 boulevard François Mitterrand 95200 Sarcelles,48.989466,2.375906,Sarcelles,95200
Audioprothésiste GAP Optical Center,68 avenue Émile Didier 05000 Gap,44.566778,6.095668,Gap,05000
Audioprothésiste TRETS Optical Center,ZA la Burlière 13530 Trets,43.450929,5.681108,Trets,13530
Audioprothésiste OLORON-SAINTE-MARIE Optical Center,4 rue Frédéric Ariès 64400 Oloron-sainte-marie,43.18123,-0.618126,Oloron-Sainte-Marie,64400
Audioprothésiste MONTAUBAN-AUSSONNE Optical Center,709 route du Nord 82000 Montauban,44.041604,1.383749,Montauban,82000
Audioprothésiste MUZILLAC Optical Center,rue des Silènes 56190 Muzillac,47.560106,-2.509133,Muzillac,56190
Audioprothésiste SAINT-GILLES-CROIX-DE-VIE Optical Center,"2, rue des Potiers 85800 Saint-gilles-croix-de-vie",46.69397,-1.913319,Saint-Gilles-Croix-de-Vie,85800
Audioprothésiste BLAYE Optical Center,7 avenue Mercure 33390 Saint-martin-lacaussade,45.130001,-0.642968,Saint-Martin-Lacaussade,33390
Audioprothésiste NOISY LE SEC Optical Center,215 rue de Paris 93130 Noisy le sec,48.901231,2.45665,Noisy-le-Sec,93130
Audioprothésiste BAGNOLET Optical Center,8 allée Simone Veil 93170 Bagnolet,48.867602,2.420945,Bagnolet,93170
Audioprothésiste SAVENAY Optical Center,ZAC de la Colleraye 44260 Savenay,47.370833,-1.939858,Savenay,44260
Audioprothésiste ROUFFIAC TOLOSAN Optical Center,4 impasse du Clos du Loup 31180 Rouffiac tolosan,43.668676,1.512583,Rouffiac-Tolosan,31180
Audioprothésiste LAVAUR Optical Center,25 allée Jean Jaurès 81500 Lavaur,43.69993,1.816028,Lavaur,81500
Audioprothésiste CAHORS Optical Center,457 avenue Anatole de Monzie 46000 Cahors,44.436767,1.442755,Cahors,46000
Audioprothésiste ROANNE Optical Center,32 rue Alsace Lorraine 42300 Roanne,46.036525,4.06803,Roanne,42300
Audioprothésiste - SAINT-JEAN-DE-VEDAS - Optical Center,99 avenue de la Condamine 34430 Saint-jean-de-vedas,43.570367,3.839026,Saint-Jean-de-Védas,34430
Audioprothésiste DAMMARIE-LES-LYS - MELUN-SUD Optical Center,"465, avenue André Ampère 77190 Dammarie les lys",48.50815,2.608366,Dammarie-les-Lys,77190
Audioprothésiste ECULLY - GRAND OUEST Optical Center,8 chemin de Pontet et Crases 69130 Ecully,45.785924,4.774474,Écully,69130
Audioprothésiste MONTÉVRAIN - LE CLOS DU CHÊNE Optical Center,ZAC Le Clos du Chêne 77144 Montévrain,48.872043,2.749599,Montévrain,77144
Audioprothésiste  COUILLY-PONT-AUX-DAMES Optical Center,69 Avenue de l'ensoleillée 77860 Couilly pont aux dames,48.870994,2.873146,Couilly-Pont-aux-Dames,77860
Audioprothésiste SÉBASTOPOL - BEAUBOURG - 4ÈME Optical Center,"20, Boulevard Sébastopol 75004 Paris",48.860264,2.349424,Paris,75004
Audioprothésiste ALBI - LE SEQUESTRE Optical Center,8 avenue des Marannes 81990 Le sequestre,43.915279,2.107285,Le Sequestre,81990
Audioprothésiste CASTRES Optical Center,ZAC de Mélou 81100 Castres,43.59032,2.215863,Castres,81100
Audioprothésiste SAINT-BRIEUC - LANGUEUX Optical Center,12 rue Ambroise Paré 22360 Langueux,48.498582,-2.731126,Langueux,22360
Audioprothésiste GARDANNE Optical Center,Rue du Petit Chemin d'Aix 13120 Gardanne,43.472163,5.465607,Gardanne,13120
Audioprothésiste PERONNE Optical Center,2 rue de Madrid 80200 Péronne,49.940975,2.930391,Péronne,80200
Audioprothésiste SAINT-JEAN-D'ILLAC Optical Center,55 Allée Jean Jacques Rousseau 33127 Saint-jean-d'illac,44.810261,-0.775212,Saint-Jean-d'Illac,33127
Audioprothésiste LE PIAN MEDOC Optical Center,372 route de Pauillac 33290 Le pian médoc,44.954598,-0.629258,Le Pian-Médoc,33290
Audioprothésiste AULNOY-LEZ-VALENCIENNES Optical Center,Parc Activités Jules Mousseron 59300 Aulnoy lez valenciennes,50.331301,3.512878,Aulnoy-lez-Valenciennes,59300
Audioprothésiste HENIN-BEAUMONT Optical Center,13 boulevard Olof Palme 62110 Hénin-beaumont,50.394767,2.977224,Hénin-Beaumont,62110
Audioprothésiste TIGNIEU-JAMEYZIEU Optical Center,Centre commercial Place du Dauphiné 38230 Tignieu jameyzieu,45.747516,5.184121,Tignieu-Jameyzieu,38230
Audioprothésiste VICHY Optical Center,Allée des Ailes 03200 Vichy,46.138099,3.41555,Vichy,03200
Audioprothésiste FEURS Optical Center,Zone du Forum - Route de St-Etienne 42110 Feurs,45.743593,4.222528,Feurs,42110
Audioprothésiste SAINT-MARD Optical Center,avenue de la Fontaine du Berger 77230 Saint-mard,49.032101,2.679564,Saint-Mard,77230
Audioprothésiste NOGENT SUR MARNE Optical Center,10 avenue Georges Clemenceau 94130 Nogent sur marne,48.835668,2.472088,Nogent-sur-Marne,94130
Audioprothésiste VARENNES-SUR-SEINE Optical Center,Route du Petit Fossard 77130 Varennes sur seine,48.367196,2.957299,Varennes-sur-Seine,77130
Audioprothésiste REMIREMONT Optical Center,8 rue Faubourg d'Alsace 88200 Remiremont,48.001836,6.613203,Remiremont,88200
Audioprothésiste  ALLONNES Optical Center,"1, rue de la B�rardi�re 72700 Allonnes",50.272494,1.667336,Rue,80120
Audioprothésiste FOUQUIERES-LES-BETHUNE Optical Center,Avenue du Prieure Saint Pry 62232 Fouquières-lès-béthune,50.513587,2.621658,Fouquières-lès-Béthune,62232
Audioprothésiste  CHAMBÉRY - CHAMNORD Optical Center,"142, rue Eugène Ducretet 73000 Chambéry",45.595345,5.896428,Chambéry,73000
Audioprothésiste NOGENT SUR OISE Optical Center,3 avenue de L'Europe 60180 Nogent sur oise,49.270365,2.482168,Nogent-sur-Oise,60180
Audioprothésiste THIERS Optical Center,"31, Avenue du Général de Gaulle 63300 Thiers",45.843283,3.511932,Thiers,63300
Audioprothésiste COLMAR Optical Center,3 route Ingersheim 68000 Colmar,48.081772,7.352748,Colmar,68000
Audioprothésiste TALANGE Optical Center,D55 - ZI du Triangle 57525 Talange,49.241151,6.173428,Talange,57525
Audioprothésiste COSNE SUR LOIRE Optical Center,Champ de la Dispute 58200 Cosne cours sur loire,47.437226,2.987854,Cosne-Cours-sur-Loire,58200
Audioprothésiste REIMS CORMONTREUIL Optical Center,10A rue des Laps 51350 Cormontreuil,49.215263,4.044554,Cormontreuil,51350
Audioprothésiste  GIEN Optical Center,rue Bosserie 45500 Gien,47.706132,2.636669,Gien,45500
Audioprothésiste AMILLY Optical Center,529 rue Saint Firmin des Vignes 45200 Amilly,47.97707,2.737045,Amilly,45200
Audioprothésiste  REIMS - CENTRE-VILLE Optical Center,"24, rue Colbert 51100 Reims",49.257146,4.03261,Reims,51100
Audioprothésiste BRIOUDE Optical Center,4 rue Abel Jonget 43100 Brioude,45.307081,3.374101,Brioude,43100
Audioprothésiste BLOIS Optical Center,64 rue Denis Papin 41000 Blois,47.587254,1.332732,Blois,41000
Audioprothésiste VENDOME Optical Center,133 Faubourg Chartrain 41100 Vendome,47.802993,1.070571,Vendôme,41100
Audioprothésiste  BAIN-DE-BRETAGNE Optical Center,Parc d'activités château Gaillard 35470 Bain de bretagne,47.857445,-1.688271,Bain-de-Bretagne,35470
Audioprothésiste MONTBRISON Optical Center,rue Maisonnette 42600 Montbrison,45.598092,4.086191,Montbrison,42600
Audioprothésiste PORNIC Optical Center,1 rue du traité de Lisbonne 44210 Pornic,47.127727,-2.123965,Pornic,44210
Audioprothésiste VAUXBUIN Optical Center,Les Portes de Soissons 02200 Vauxbuin,49.381166,3.333327,Soissons,02200
Audioprothésiste CARCASSONNE Optical Center,44 boulevard Denis Papin 11000 Carcassonne,43.210877,2.326534,Carcassonne,11000
Audioprothésiste MILLAU Optical Center,151 boulevard Georges Brassens 12100 Millau,44.117191,3.069959,Millau,12100
Audioprothésiste LIBOURNE Optical Center,"14,avenue du Général de Gaulle 33500 Libourne",44.907125,-0.231434,Libourne,33500
Audioprothésiste SAINT FLOUR Optical Center,ZAC Montplain 15100 Saint-flour,45.040146,3.070815,Saint-Flour,15100
Audioprothésiste BARBEREY SAINT SULPICE Optical Center,centre commercial Casino 10600 Barberey saint sulpice,48.331368,4.024839,Barberey-Saint-Sulpice,10600
Audioprothésiste FOIX Optical Center,48 rue Delcassé 09000 Foix,42.964171,1.607732,Foix,09000
Audioprothésiste ALTKIRCH Optical Center,6 route de Carspach 68130 Altkirch,47.611433,7.217203,Carspach,68130
Audioprothésiste FOURMIES Optical Center,65 C rue Théophile Legrand 59610 Fourmies,50.02722,4.032131,Fourmies,59610
Audioprothésiste TAVERS Optical Center,Route Nationale 152 45190 Tavers,47.753985,1.591519,Tavers,45190
Audioprothésiste AUTERIVE Optical Center,106 route de Toulouse 31190 Auterive,43.364785,1.455942,Auterive,31190
Audioprothésiste AUXERRE Optical Center,141 rue de Paris 89000 Auxerre,47.800185,3.568232,Auxerre,89000
Audioprothésiste EVIAN LES BAINS-PUBLIER Optical Center,Shop'In Publier - RD1005 74500 Publier,46.385458,6.537408,Publier,74500
Audioprothésiste  ROCHEFORT Optical Center,"14, rue Villeneuve Montigny 17300 Rochefort",45.955585,-0.978971,Rochefort,17300
Audioprothésiste AVALLON Optical Center,22 Place Vauban 89200 Avallon,47.489837,3.909333,Avallon,89200
Audioprothésiste SENS Optical Center,183 avenue Senigallia 89100 Sens,48.184392,3.287056,Sens,89100
Audioprothésiste SAINTE-CLOTILDE Optical Center,Le Village 97490 Saint denis,-20.897801,55.470776,Saint-Denis,97400
Audioprothésiste REVEL Optical Center,16 avenue de Castelnaudary 31250 Revel,43.455927,1.999902,Revel,31250
Audioprothésiste CHÂTEAU-THIERRY Optical Center,ZAC Le Raidon 02400 Chateau thierry,49.047463,3.392863,Château-Thierry,02400
Audioprothésiste COULOMMIERS Optical Center,4 rue du Grand Morin 77120 Coulommiers,48.805398,3.093694,Coulommiers,77120
Audioprothésiste  ROMILLY-SUR-SEINE Optical Center,"129, Avenue Diderot 10100 Romilly sur seine",48.509456,3.715298,Romilly-sur-Seine,10100
Audioprothésiste BISCAROSSE Optical Center,Rue Joseph Cugnot 40600 Biscarosse,44.382694,-1.149108,Biscarrosse,40600
Audioprothésiste ISNEAUVILLE Optical Center,239 rue du Mont Perreux 76230 Isneauville,49.490727,1.14568,Isneauville,76230
Audioprothésiste ROMANS-SUR-ISERE Optical Center,7 rue Pierre Sémard 26100 Romans sur isère,45.046298,5.049883,Romans-sur-Isère,26100
Audioprothésiste ALENCON Optical Center,155 rue de Bretagne 61000 Alençon,48.432331,0.070833,Alençon,61000
Audioprothésiste MARIGNANE Optical Center,Avenue du 8 Mai 1945 13700 Marignane,43.408631,5.208691,Marignane,13700
Audioprothésiste LANNION Optical Center,Rond Point Saint Marc 22300 Lannion,48.734315,-3.444554,Lannion,22300
Audioprothésiste L'ISLE D'ABEAU Optical Center,26 rue de Sayes 38080 L'isle d'abeau,45.613369,5.228065,L'Isle-d'Abeau,38080
Audioprothésiste  SAINT-GERMAIN - JUSSIEU - 5ÈME Optical Center,"13, Boulevard Saint-Germain 75005 Paris",48.849311,2.354031,Paris,75005
Audioprothésiste MERS-LES-BAINS Optical Center,Avenue Pierre et Marie Curie 80350 Mers les bains,50.065663,1.389929,Mers-les-Bains,80350
Audioprothésiste BREST-IROISE Optical Center,118 boulevard de Plymouth 29200 Brest,48.38652,-4.53105,Brest,29200
Audioprothésiste CARPENTRAS Optical Center,126 avenue Jean Henri Fabre 84200 Carpentras,44.053822,5.040867,Carpentras,84200
Audioprothésiste BOURG-EN-BRESSE-LANEUVE Optical Center,262 route de Paris 01440 Viriat,46.217124,5.21337,Viriat,01440
Audioprothésiste BÈGLES Optical Center,rue des Frères Lumière 33130 Bègles,44.792382,-0.534978,Bègles,33130
Audioprothésiste SAINT-PIERRE-DES-CORPS Optical Center,"32, Avenue Jacques Duclos- À l’extérieur du Centre commercial Les Atlantes 37700 Saint-pierre-des-corps",47.379439,0.722424,Saint-Pierre-des-Corps,37700
Audioprothésiste ANTONY Optical Center,70 avenue Aristide Briand 92160 Antony,48.757289,2.306646,Antony,92160
Audioprothésiste VALENCE-LES COULEURES Optical Center,Le Plateau des Couleures 26000 Valence,44.951782,4.932207,Valence,26000
Audioprothésiste PLOËRMEL Optical Center,Rue du Général John Wood 56800 Ploërmel,47.929566,-2.383525,Ploërmel,56800
Audioprothésiste AMIENS - DURY Optical Center,1 place des Bouleaux 80480 Dury,49.861466,2.27853,Dury,80480
Audioprothésiste LAVAL-GRENOUX Optical Center,102 avenue du Maréchal de Lattre de Tassigny 53000 Laval,48.07788,-0.797729,Laval,53000
Audioprothésiste ANTIBES Optical Center,1630 chemin Combes 06600 Antibes,43.602477,7.088179,Antibes,06600
Audioprothésiste VILLEMOMBLE Optical Center,60 allée du Plateau 93250 Villemomble,48.877932,2.503785,Villemomble,93250
Audioprothésiste PERPIGNAN-CLAIRA Optical Center,rue Henri Chrétien 66600 Rivesaltes,42.77447,2.909116,Rivesaltes,66600
Audioprothésiste CESSON-SÉVIGNÉ Optical Center,9 rue Rocher 35510 Cesson sevigne,48.111431,-1.589659,Cesson-Sévigné,35510
Audioprothésiste SAUMUR Optical Center,boulevard Mar Juin 49400 Saumur,47.266866,-0.08959,Saumur,49400
Audioprothésiste SEDAN Optical Center,20 avenue Philippoteaux 08200 Sedan,49.697519,4.942978,Sedan,08200
Audioprothésiste VIRY-NOUREUIL Optical Center,31 Zone d'Aménagement Concertée les Terrages 02300 Viry noureuil,49.635023,3.255615,Viry-Noureuil,02300
Audioprothésiste CRÉON Optical Center,51 avenue Entre 2 Mers 33670 Créon,44.772008,-0.341388,Créon,33670
Audioprothésiste PROUVY Optical Center,7 route Nationale 59121 Prouvy,50.331875,3.451362,Prouvy,59220
Audioprothésiste BOIS-D'ARCY Optical Center,50 avenue Jean Jaurès 78390 Bois d'arcy,48.799984,2.036776,Bois-d'Arcy,78390
Audioprothésiste CASTELNAUDARY Optical Center,916 avenue Pyrénées 11400 Castelnaudary,43.306053,1.957284,Castelnaudary,11400
Audioprothésiste PARIS Porte de Saint-Ouen 18EME Optical Center,114 avenue de Saint Ouen 75018 Paris,48.894656,2.328167,Paris,75018
Audioprothésiste SAINT-ORENS-DE-GAMEVILLE Optical Center,7 avenue Toulouse 31650 Saint orens de gameville,43.556462,1.53027,Saint-Orens-de-Gameville,31650
Audioprothésiste VENDIN-LE-VIEIL-LENS Optical Center,route Bassée 62880 Vendin le vieil,50.457853,2.81587,Vendin-le-Vieil,62880
Audioprothésiste ORLÉANS-PORTE SUD Optical Center,43 rue Chabassières 45100 Orléans,47.882702,1.8983,Orléans,45100
Audioprothésiste LIÉVIN Optical Center,zone d'aménagement concerté An Deux Mille 62800 Liévin,50.40855,2.793279,Liévin,62800
Audioprothésiste TARBES-IBOS Optical Center,19 route Pau 65000 Tarbes,43.237835,0.043859,Tarbes,65000
Audioprothésiste VITRÉ Optical Center,1 rue Gutenberg 35500 Vitré,48.120915,-1.230149,Vitré,35500
Audioprothésiste ISTRES Optical Center,Chemin du Bord de Crau 13800 Istres,43.521813,4.963296,Istres,13800
Audioprothésiste CROLLES Optical Center,rue Belledonne 38920 Crolles,45.285,5.887038,Crolles,38920
Audioprothésiste MARSEILLE-SAINT-LOUP Optical Center,159 boulevard de pont de Vivaux 13010 Marseille,43.281218,5.422716,Marseille,13010
Audioprothésiste TARNOS Optical Center,D 810 64340 Boucau,43.525345,-1.492103,Boucau,64340
Audioprothésiste DINAN Optical Center,avenue Aublette 22100 Quévert,48.447637,-2.081274,Quévert,22100
Audioprothésiste SARREBOURG Optical Center,17 rue Dessirier 57400 Buhl lorraine,48.737319,7.078881,Buhl-Lorraine,57400
Audioprothésiste  CONCARNEAU Optical Center,"4, rue René Madec, Zone de Keramperu 29900 Concarneau",47.890568,-3.91531,Concarneau,29900
Audioprothésiste CHÂTEAU-GONTIER-AZÉ Optical Center,17 route Sable 53200 Aze,47.832563,-0.686387,Azé,53200
Audioprothésiste SAINT-MARTIN-BOULOGNE Optical Center,L'Inquetrie 62280 Saint martin boulogne,50.728336,1.626263,Saint-Martin-Boulogne,62280
Audioprothésiste LIBERCOURT-CARVIN Optical Center,zone industrielle Les Botiaux 62820 Libercourt,50.477728,3.016417,Libercourt,62820
Audioprothésiste LAXOU-LA SAPINIÈRE Optical Center,6 rue Saône 54520 Laxou,48.696079,6.128632,Laxou,54520
Audioprothésiste BALARUC-LE-VIEUX Optical Center,31 avenue Montpellier 34540 Balaruc le vieux,43.462301,3.687843,Balaruc-le-Vieux,34540
Audioprothésiste  OBERHOFFEN-SUR-MODER Optical Center,"8, rue du Commerce – Hall 2 67240 Oberhoffen sur moder",48.771848,7.870956,Oberhoffen-sur-Moder,67240
Audioprothésiste  PARAY-LE-MONIAL Optical Center,Z.A. du Champ Bossu 71600 Paray le monial,46.4679,4.116457,Paray-le-Monial,71600
Audioprothésiste CHARTRES - BARJOUVILLE Optical Center,"45, rue des Pierres Missigault 28630 Barjouville",48.413493,1.46489,Barjouville,28630
Audioprothésiste SAINT-ÉGRÈVE Optical Center,38 zone d'aménagement concerté Iles 38120 Saint egrève,45.238999,5.661359,Saint-Égrève,38120
Audioprothésiste BAGNOLS-SUR-CÈZE Optical Center,2 avenue Ernest Euzéby 30200 Bagnols sur ceze,44.155036,4.61498,Bagnols-sur-Cèze,30200
Audioprothésiste  JARRY - BAIE-MAHAULT Optical Center,ZI DE JARRY 97122 Baie-mahault,16.237477,-61.561366,Baie-Mahault,97122
Audioprothésiste PARIS Maison de la Radio 16EME Optical Center,6 avenue de Versailles 75016 Paris,48.851047,2.277676,Paris,75016
Audioprothésiste  FENOUILLET Optical Center,"165, route de Paris 31150 Fenouillet",43.697328,1.399353,Fenouillet,31150
Audioprothésiste  LE LAMENTIN Optical Center,ZI La Jambette 97232 Le lamentin,14.614791,-61.035862,Le Lamentin,97232
Audioprothésiste LAMÉZIÈRE-ZAC CAP MALO Optical Center,avenue Phare du Grand Jardin 35520 Melesse,48.199755,-1.725845,Melesse,35520
Audioprothésiste  GUINGAMP Optical Center,"54B, rue du Maréchal Foch 22200 Guingamp",48.563022,-3.165401,Guingamp,22200
Audioprothésiste MARQUETTE-LEZ-LILLE Optical Center,"26, rue des Moissons 59520 Marquette lez lille",50.681598,3.065524,Marquette-lez-Lille,59520
Audioprothésiste PARIS Porte d'Aubervilliers 19EME Optical Center,187 bis boulevard Macdonald 75019 Paris,48.898703,2.374102,Paris,75019
Audioprothésiste ORMESSON-CHENNEVIÈRES-SUR-MARNE Optical Center,avenue de Pince Vent 94490 Ormesson sur marne,48.788771,2.547446,Ormesson-sur-Marne,94490
Audioprothésiste MONTREUIL-GRANDANGLE Optical Center,15 rue Lumieres 93100 Montreuil,48.861312,2.441601,Montreuil,93100
Audioprothésiste  NOEUX-LES-MINES Optical Center,Avenue du Lac 62290 Noeux les mines,50.472257,2.680649,Nœux-les-Mines,62290
Audioprothésiste TRÉLISSAC Optical Center,Centre commercial La Feuilleraie 24750 Trelissac,45.190394,0.766852,Trélissac,24750
Audioprothésiste BRON Optical Center,"160, Avenue Franklin Roosevelt 69500 Bron",45.732961,4.91017,Bron,69500
Audioprothésiste VERNON Optical Center,rue Virolet 27200 Vernon,49.096897,1.467824,Vernon,27200
Audioprothésiste LATESTE-DE-BUCH Optical Center,401 avenue Vulcain 33260 La teste de buch,44.614511,-1.121849,La Teste-de-Buch,33260
Audioprothésiste TARARE Optical Center,"1, place de la République 69170 Tarare",45.895624,4.428651,Tarare,69170
Audioprothésiste PLAISANCE-DU-TOUCH Optical Center,"39, route de Toulouse 31830 Plaisance du touch",43.57183,1.312217,Plaisance-du-Touch,31830
Audioprothésiste CANNES - CENTRE-VILLE Optical Center,5 place de la gare 06400 Cannes,43.553587,7.018883,Cannes,06400
Audioprothésiste  SAINT-BRIEUC - PLÉRIN Optical Center,Espace commercial du Chêne Vert 22190 Plerin,48.529732,-2.750086,Plérin,22190
Audioprothésiste PLACE JEANNE D'ARC - 13ÈME Optical Center,"26, place Jeanne d'Arc 75013 Paris 13e arrondissement",48.829974,2.369033,Paris,75013
Audioprothésiste LYON-RÉPUBLIQUE Optical Center,20 rue Childebert 69002 Lyon,45.760089,4.836631,Lyon,69002
Audioprothésiste COUTRAS Optical Center,22 lieu-dit Atelier 33230 Coutras,45.051387,-0.114239,Coutras,33230
Audioprothésiste BRIGNAIS Optical Center,Route de Lyon 69530 Brignais,45.679314,4.774524,Brignais,69530
Audioprothésiste BOURGES - SAINT-GERMAIN-DU-PUY Optical Center,"9081, rue des Vignes 18390 Saint germain du puy",47.097586,2.458475,Saint-Germain-du-Puy,18390
Audioprothésiste HOUSSEN Optical Center,Rue du Mariafeld 68125 Houssen,48.128555,7.363465,Houssen,68125
Audioprothésiste IVRY SUR SEINE Optical Center,"12, place du Général de Gaulle 94200 Ivry sur seine",48.812561,2.371458,Ivry-sur-Seine,94200
Audioprothésiste HAZEBROUCK Optical Center,109 rue Merville 59190 Hazebrouck,50.714988,2.542918,Hazebrouck,59190
Audioprothésiste PERTUIS Optical Center,"368, route d'Aix-en-Provence 84120 Pertuis",43.673153,5.497512,Pertuis,84120
Audioprothésiste VILLENEUVE LOUBET Optical Center,1725 route départementale 6007 06270 Villeneuve loubet,43.633847,7.134035,Villeneuve-Loubet,06270
Audioprothésiste SABLÉ-SUR-SARTHE Optical Center,La Martinière 2 72300 Sable sur sarthe,47.839,-0.306965,Sablé-sur-Sarthe,72300
Audioprothésiste SAINT-CHAMOND Optical Center,"2B, Square Croix Gauthier 42400 Saint-chamond",45.47573,4.507637,Saint-Chamond,42400
Audioprothésiste BLOIS - VINEUIL Optical Center,"4, rue Lavoisier 41350 Vineuil",47.572615,1.371609,Vineuil,41350
Audioprothésiste GRASSE Optical Center,309 route de Cannes 06130 Grasse,43.625108,6.964782,Grasse,06130
Audioprothésiste  GEISPOLSHEIM - LA VIGIE Optical Center,"5C, rue du Fort 67118 Geispolsheim",48.524113,7.690679,Geispolsheim,67118
Audioprothésiste  MARSEILLE - BONNEVEINE Optical Center,"33, Avenue de Hambourg 13008 Marseille 8e arrondissement",43.253894,5.384172,Marseille,13008
Audioprothésiste MONTBÉLIARD Optical Center,"41-43, Avenue des Alliés 25200 Montbeliard",47.512648,6.799071,Montbéliard,25200
Audioprothésiste  ÉTOILE - GRANDE ARMÉE - 16ÈME Optical Center,"5, Avenue de la Grande Armée 75116 Paris 16e arrondissement",48.605778,4.778402,Sainte-Marie-du-Lac-Nuisement,51290
Audioprothésiste  LA-GARENNE-COLOMBES Optical Center,"3, place de Belgique 92250 La garenne colombes",48.907107,2.240816,La Garenne-Colombes,92250
Audioprothésiste MIONS-SAINT-PRIEST Optical Center,13 rue Galilée 69800 Saint priest,45.68486,4.959717,Saint-Priest,69800
Audioprothésiste MORSCHWILLER-LE-BAS Optical Center,2 rue Source 68790 Morschwiller le bas,47.736691,7.284821,Morschwiller-le-Bas,68790
Audioprothésiste BEAUNE Optical Center,16 boulevard Jules Ferry 21200 Beaune,47.023044,4.843051,Beaune,21200
Audioprothésiste BOLBEC - GRUCHET-LE-VALASSE Optical Center,342 rue de l'Abbaye 76210 Gruchet le valasse,49.541857,0.505432,Gruchet-le-Valasse,76210
Audioprothésiste ÉPINAL-TERRES-SAINT-JEAN Optical Center,avenue Terres St Jean 88000 Epinal,48.192024,6.474933,Épinal,88000
Audioprothésiste AVIGNON - MISTRAL 7 Optical Center,"380, Avenue Marcou Delanglade 84140 Avignon",43.919644,4.869532,Avignon,84140
Audioprothésiste RAMBOUILLET Optical Center,77 rue Louvière 78120 Rambouillet,48.6446,1.845872,Rambouillet,78120
Audioprothésiste  GUÉRANDE Optical Center,"3, rue de la briquerie 44350 Guerande",47.324668,-2.411171,Guérande,44350
Audioprothésiste  PITHIVIERS Optical Center,ZAC de Senives 45300 Pithiviers,48.191998,2.253568,Pithiviers,45300
Audioprothésiste BAR-LE-DUC Optical Center,77 rue Ernest Bradfer 55000 Bar le duc,48.765662,5.17733,Bar-le-Duc,55000
Audioprothésiste VÉNISSIEUX Optical Center,"92, Boulevard Irène Joliot-Curie 69200 Venissieux",45.711116,4.881836,Vénissieux,69200
Audioprothésiste GONESSE  Optical Center,Rond-point de Bonneuil 95500 Gonesse,48.981561,2.443482,Gonesse,95500
Audioprothésiste  MONTPARNASSE - 15ÈME Optical Center,"10, rue de l'Arrivée 75015 Paris 15e arrondissement",48.843491,2.321932,Paris,75015
Audioprothésiste AURILLAC Optical Center,26 rue Carmes 15000 Aurillac,44.926524,2.442921,Aurillac,15000
Audioprothésiste CHAMBOURCY Optical Center,13 rue Mur Du Parc 78240 Chambourcy,48.910063,2.031702,Chambourcy,78240
Audioprothésiste PARIS Ledru Rollin 12EME Optical Center,63 bis avenue Ledru Rollin 75012 Paris,48.84922,2.373273,Paris,75012
Audioprothésiste PODENSAC Optical Center,77 cours Mar Foch 33720 Podensac,44.655394,-0.363987,Podensac,33720
Audioprothésiste SAINT-GÉRÉON-ANCENIS  Optical Center,720 boulevard Prairie 44150 Saint gereon,47.375661,-1.196585,Saint-Géréon,44150
Audioprothésiste LOCHES Optical Center,route Vauzelles 37600 Loches,47.130214,0.97788,Loches,37600
Audioprothésiste SECLIN Optical Center,90 rue Commerce 59113 Seclin,50.546869,3.05257,Seclin,59113
Audioprothésiste CLUSES-SCIONZIER Optical Center,90 avenue Lacs 74950 Scionzier,46.064568,6.550981,Scionzier,74950
Audioprothésiste PARIS Saint-Lazare 8EME Optical Center,18 rue de la Pépinière 75008 Paris,48.875161,2.321829,Paris,75008
Audioprothésiste LOURDES Optical Center,69 avenue Alexandre Marqui 65100 Lourdes,43.106441,-0.040301,Lourdes,65100
Audioprothésiste OLLIOULES Optical Center,212 chemin Delphiniums 83190 Ollioules,43.122638,5.846637,Ollioules,83190
Audioprothésiste LONGWY-MONT-SAINT-MARTIN Optical Center,Pole Européen 54350 Mont saint martin,49.542436,5.798929,Mont-Saint-Martin,54350
Audioprothésiste TULLE Optical Center,19 quai Continsouza 19000 Tulle,45.272639,1.775189,Tulle,19000
Audioprothésiste DIJON-CHENOVE Optical Center,51 rue de Longvic 21300 Chenove,47.285845,5.019407,Chenôve,21300
Audioprothésiste PROVINS Optical Center,4 avenue Poigny 77160 Provins,48.546311,3.286286,Poigny,77160
Audioprothésiste AURAY Optical Center,5 rue Belgique 56400 Auray,47.665648,-3.006564,Auray,56400
Audioprothésiste SAINT-JEAN-DE-LUZ Optical Center,125 avenue André Ithurralde 64500 Saint jean de luz,43.399488,-1.640852,Saint-Jean-de-Luz,64500
Audioprothésiste BORDEAUX-LAC Optical Center,impasse Doct Jean Vincent 33300 Bordeaux,44.877121,-0.56131,Bordeaux,33000
Audioprothésiste CASTELSARRASIN Optical Center,113 route Moissac 82100 Castelsarrasin,44.073978,1.093444,Castelsarrasin,82100
Audioprothésiste DOLE Optical Center,"3, rue Léon Bel 39100 Dole",47.107222,5.505664,Dole,39100
Audioprothésiste AVIGNON-LES ANGLES Optical Center,6 avenue Tavel 30133 Les angles,43.961382,4.748637,Les Angles,30133
Audioprothésiste WASQUEHAL Optical Center,6 rue Jean Jaurès 59290 Wasquehal,50.6789,3.136156,Wasquehal,59290
Audioprothésiste ANGOULINS Optical Center,ZAC des Fourneaux 17690 Angoulins,46.105115,-1.105865,Angoulins,17690
Audioprothésiste LIVRY-GARGAN Optical Center,62 boulevard Europe 93190 Livry gargan,48.9272,2.55099,Livry-Gargan,93190
Audioprothésiste FÉCAMP-SAINT-LÉONARD Optical Center,333 rue Briqueterie 76400 Saint leonard,49.729537,0.364265,Saint-Léonard,76400
Audioprothésiste MONTROUGE Optical Center,3 place Jules Ferry 92120 Montrouge,48.812047,2.325692,Montrouge,92120
Audioprothésiste ISSOIRE Optical Center,4 rue Nelson Mandela 63500 Issoire,45.551915,3.264486,Issoire,63500
Audioprothésiste FRANCHEVILLE-BELAIR Optical Center,34 avenue Table de Pierre 69340 Francheville,45.747426,4.754667,Francheville,69340
Audioprothésiste CHARLEVILLE-MEZIÈRES-LA FRANCHEVILLE Optical Center,allée Cardamine 08000 La francheville,49.73755,4.707582,La Francheville,08000
Audioprothésiste SAINT-DIÉ-DES-VOSGES Optical Center,4 rue Alphonse Matter 88100 Saint die des vosges,48.290433,6.942382,Saint-Dié-des-Vosges,88100
Audioprothésiste DIEPPE Optical Center,avenue Canadiens 76200 Dieppe,49.90457,1.077049,Dieppe,76370
Audioprothésiste ARLES Optical Center,6 rue Bourdigues 13200 Arles,43.664157,4.63891,Arles,13200
Audioprothésiste  LE MANS NORD - LA CHAPELLE-SAINT-AUBIN Optical Center,"61, rue du Moulin aux Moines 72650 La chapelle-saint-aubin",48.036899,0.177499,La Chapelle-Saint-Aubin,72650
Audioprothésiste  VALENCIENNES - PETITE-FORÊT Optical Center,Rue Anatole France 59494 Petite-forêt,50.382579,3.478607,Petite-Forêt,59494
Audioprothésiste SAINT-ANDRÉ-DE-CUBZAC Optical Center,1470 avenue Europe 33240 Saint andre de cubzac,45.013646,-0.426437,Saint-André-de-Cubzac,33240
Audioprothésiste DREUX Optical Center,rue Bas Buissons 28100 Dreux,48.753,1.340664,Dreux,28100
Audioprothésiste  HUNINGUE Optical Center,"9, rue St-Louis 68330 Huningue",47.592404,7.576861,Huningue,68330
Audioprothésiste MONTGERON Optical Center,"28, rue Mercure 91230 Montgeron",48.7134,2.435891,Montgeron,91230
Audioprothésiste NOYON Optical Center,ZAC Auchan du Mont Renaud 60400 Noyon,49.564649,2.981469,Noyon,60400
Audioprothésiste LAGNY-SUR-MARNE-SAINT-THIBAULT-DES-VIGNES Optical Center,avenue Gén Leclerc 77400 Lagny sur marne,48.872271,2.685161,Lagny-sur-Marne,77400
Audioprothésiste SAINT-GAUDENS Optical Center,boulevard Landes 31800 Estancarbon,43.114871,0.765738,Estancarbon,31800
Audioprothésiste PUGET-SUR-ARGENS Optical Center,route Nationale 7 83480 Puget sur argens,43.462584,6.696724,Puget-sur-Argens,83480
Audioprothésiste MABLY Optical Center,rue Alfred de Musset 42300 Mably,46.060631,4.059439,Mably,42300
Audioprothésiste BIGANOS Optical Center,23 route Lacs 33380 Biganos,44.634775,-0.964234,Biganos,33380
Audioprothésiste LA FLÈCHE Optical Center,Monnerie 72200 La fleche,47.701832,-0.05235,La Flèche,72200
Audioprothésiste PORTET-SUR-GARONNE Optical Center,5 avenue de l'Enclos 31120 Portet sur garonne,43.533894,1.398746,Portet-sur-Garonne,31120
Audioprothésiste CLERMONT-L'HÉRAULT Optical Center,4 rue Servent 34800 Clermont l'herault,43.618308,3.451848,Clermont-l'Hérault,34800
Audioprothésiste COMPIÈGNE Optical Center,10 rue Magenta 60200 Compiegne,49.416578,2.826861,Compiègne,60200
Audioprothésiste SAINT-BRICE-SOUS-FORET  Optical Center,Zae Les Perruches 95350 Saint brice sous foret,49.003327,2.363636,Saint-Brice-sous-Forêt,95350
Audioprothésiste  MARSEILLE - SAKAKINI Optical Center,"1, Boulevard de Sakakini 13004 Marseille 4e arrondissement",43.298935,5.401464,Marseille,13004
Audioprothésiste PARIS Voltaire 11EME Optical Center,117 boulevard Voltaire 75011 Paris,48.85715,2.381537,Paris,75011
Audioprothésiste BAILLEUL Optical Center,route  de Steenwerck 59270 Bailleul,50.71973,2.761286,Bailleul,59270
Audioprothésiste MONT-DE-MARSAN Optical Center,584 avenue Mar Foch 40000 Mont de marsan,43.896142,-0.491404,Mont-de-Marsan,40000
Audioprothésiste VILLABÉ Optical Center,3 rue Plaine 91100 Villabe,48.587375,2.446051,Villabé,91100
Audioprothésiste GUÉRET Optical Center,8 avenue Berry 23000 Gueret,46.175746,1.874619,Guéret,23000
Audioprothésiste TAILLECOURT Optical Center,3 rue Croisée 25400 Taillecourt,47.493177,6.840582,Taillecourt,25400
Audioprothésiste REDON Optical Center,1 rue Jean Baptiste Lelièvre 35600 Redon,47.666833,-2.071212,Redon,35600
Audioprothésiste VESOUL Optical Center,rue Petit Montmarin 70000 Vesoul,47.637283,6.150297,Vesoul,70000
Audioprothésiste CREIL-SAINT-MAXIMIN Optical Center,12 rue Claire Lacombe 60740 Saint maximin,49.238503,2.465331,Saint-Maximin,60740
Audioprothésiste LENS Optical Center,28 place Jean Jaurès 62300 Lens,50.429328,2.831712,Lens,62300
Audioprothésiste THONON-LES-BAINS - ANTHY Optical Center,"20, Avenue Pré Robert Nord - Zac d'Anthy - Espace Leman 3 74200 Anthy sur leman",46.350356,6.433349,Anthy-sur-Léman,74200
Audioprothésiste VERT-SAINT-DENIS-MELUN Optical Center,25 route Départementale 306 77240 Vert saint denis,48.565379,2.612423,Vert-Saint-Denis,77240
Audioprothésiste  SAINT-MALO - LA MADELEINE Optical Center,11 rue de la Saulaie 35400 Saint-malo,48.622752,-1.991187,Saint-Malo,35400
Audioprothésiste TOULON-CENTRE-VILLE Optical Center,15 boulevard Strasbourg 83000 Toulon,43.124999,5.93144,Toulon,83000
Audioprothésiste BRUAY-LA-BUISSIÈRE Optical Center,rue Jean Joseph Etienne Lenoir 62700 Bruay la buissiere,50.495357,2.58584,Bruay-la-Buissière,62700
Audioprothésiste MANTES - BUCHELAY  Optical Center,centre commercial Auchan 78200 Buchelay,48.980313,1.672716,Buchelay,78200
Audioprothésiste SAINT-DIZIER Optical Center,5 avenue Pierre Bérégovoy 52100 Saint dizier,48.628422,4.958068,Saint-Dizier,52100
Audioprothésiste DECINES-CHARPIEU Optical Center,219 avenue Franklin Roosevelt 69150 Decines charpieu,45.746504,4.933162,Décines-Charpieu,69150
Audioprothésiste ROMORANTIN-LANTHENAY Optical Center,8 boulevard Paul Boncour 41200 Romorantin lanthenay,47.358498,1.739533,Romorantin-Lanthenay,41200
Audioprothésiste BOURG-EN-BRESSE-ZI LA CROIX BLANCHE Optical Center,17 rue Jean Louis Carra 01000 Bourg en bresse,46.203133,5.245025,Bourg-en-Bresse,01000
Audioprothésiste VILLIERS-SUR-MARNE Optical Center,7 boulevard Jean Monnet 94350 Villiers sur marne,48.834958,2.539602,Villiers-sur-Marne,94350
Audioprothésiste VITRY-SUR-SEINE Optical Center,1 rue Eugène Hénaff 94400 Vitry sur seine,48.794364,2.417246,Vitry-sur-Seine,94400
Audioprothésiste SAVERNE-OTTERSWILLER Optical Center,15  Commerce 67700 Otterswiller,48.727729,7.373668,Otterswiller,67700
Audioprothésiste MOULINS Optical Center,105 route Lyon 03000 Moulins,46.548385,3.339781,Moulins,03000
Audioprothésiste CHAMBRAY-LÈS-TOURS Optical Center,90 avenue Grand Sud 37170 Chambray les tours,47.341255,0.703161,Chambray-lès-Tours,37170
Audioprothésiste PÉROLS Optical Center,avenue Mer 34470 Perols,43.557827,3.964133,Pérols,34470
Audioprothésiste AVIGNON-LE PONTET Optical Center,route Carpentras 84130 Le pontet,43.972742,4.870574,Le Pontet,84130
Audioprothésiste VILLENEUVE-SUR-LOT Optical Center,24 avenue Jacques Bordeneuve 47300 Villeneuve sur lot,44.404485,0.696947,Villeneuve-sur-Lot,47300
Audioprothésiste AGEN - BOE  Optical Center,"26, Avenue de Lacapelette 47550 Boe",44.17853,0.631225,Boé,47550
Audioprothésiste AUBENAS Optical Center,"2, rue de la Garenche, ZAC du Ponson Moulon 07200 Aubenas",44.617887,4.403437,Aubenas,07200
Audioprothésiste RUEIL-MALMAISON Optical Center,"57, Avenue Paul Doumer 92500 Rueil malmaison",48.881998,2.186833,Rueil-Malmaison,92500
Audioprothésiste MORLAIX-SAINT-MARTIN-DES-CHAMPS Optical Center,rue Goarem Vraz 29600 Saint martin des champs,48.578044,-3.861086,Saint-Martin-des-Champs,29600
Audioprothésiste AMIENS Optical Center,16 rue Victor Hugo 80000 Amiens,49.891981,2.302267,Amiens,80000
Audioprothésiste POITIERS - SUD Optical Center,Zone commerciale Auchan Sud 86000 Poitiers,46.58046,0.35449,Poitiers,86000
Audioprothésiste SAINT-PARRES-AUX-TERTRES-TROYES Optical Center,14  Aire des Moissons 10410 Saint parres aux tertres,48.293337,4.1295,Saint-Parres-aux-Tertres,10410
Audioprothésiste  PONTIVY Optical Center,ZAC Albert de Mun 56300 Pontivy,48.041412,-2.960884,Pontivy,56300
Audioprothésiste LE BOURGET Optical Center,77 avenue Division Leclerc 93350 Le bourget,48.936104,2.426318,Le Bourget,93350
Audioprothésiste SAINT-MALO-SAINT-SERVAN Optical Center,89 rue Georges Clemenceau 35400 Saint malo,48.638006,-2.016695,Saint-Malo,35400
Audioprothésiste NIORT-BESSINES Optical Center,rue Peuplier Noir 79000 Bessines,46.302792,-0.490622,Bessines,79000
Audioprothésiste  MONTCEAU-LES-MINES Optical Center,234 Avenue du Maréchal Leclerc 71300 Montceau les mines,46.682378,4.372602,Montceau-les-Mines,71300
Audioprothésiste ARRAS OUEST Optical Center,Rue Ampère 62000 Arras,50.298053,2.738542,Arras,62000
Audioprothésiste ANGOULÊME-CHAMPNIERS Optical Center,219 rue Aretier 16430 Champniers,45.692279,0.179838,Champniers,16430
Audioprothésiste CHÂTELLERAULT Optical Center,2 allée Argenson 86100 Chatellerault,46.841066,0.548922,Châtellerault,86100
Audioprothésiste  NANTES - LA BEAUJOIRE Optical Center,ZI de CARQUEFOU 44300 Nantes,47.268734,-1.512141,Nantes,44300
Audioprothésiste MONTÉLIMAR Optical Center,175 route Marseille 26200 Montelimar,44.536262,4.746276,Montélimar,26200
Audioprothésiste  ÉVREUX - GUICHAINVILLE Optical Center,Zone commerciale Carrefour 27930 Guichainville,48.974974,1.158048,Guichainville,27930
Audioprothésiste DECHY-SIN-LE-NOBLE Optical Center,rue James Tobin 59187 Dechy,50.345084,3.111994,Dechy,59187
Audioprothésiste LE RAINCY Optical Center,1 place Gén de Gaulle 93340 Le raincy,48.890137,2.511764,Le Raincy,93340
Audioprothésiste BREST-KERGARADEC Optical Center,229 rue Gouesnou 29200 Brest,48.42285,-4.466623,Brest,29200
Audioprothésiste METZ-SEMÉCOURT Optical Center,ZAC Euromoselle Sud 57280 Fèves,49.195696,6.119134,Fèves,57280
Audioprothésiste SAINT-ÉTIENNE-MONTHIEU Optical Center,ZAC Géant Casino 42100 Saint etienne,45.418772,4.294007,Saint-Étienne,42000
Audioprothésiste TOULON-LES ESPALUNS Optical Center,245 avenue Université 83160 La valette du var,43.13631,6.002016,La Valette-du-Var,83160
Audioprothésiste CHÂTEAU-D'OLONNE Optical Center,"ZAC les Océanes - 12, rue du Maréchal Juin - Le Château d'Olonne 85180 Les sables d'olonne",46.485529,-1.743581,Château-d'Olonne,85180
Audioprothésiste  SAINT-QUENTIN - FAYET Optical Center,ZAC le Forum de Picardie 02100 Fayet,49.867938,3.251298,Fayet,02100
Audioprothésiste SÉLESTAT Optical Center,6 rue Waldkirch 67600 Selestat,48.280291,7.45821,Sélestat,67600
Audioprothésiste BÉZIERS Optical Center,rue Louis Joseph Gay Lussac 34500 Beziers,43.347304,3.257785,Béziers,34500
Audioprothésiste CHAMBLY  Optical Center,rue Henri Becquerel 60230 Chambly,49.157396,2.250571,Chambly,60230
Audioprothésiste ESSEY-LÈS-NANCY Optical Center,ZAC de la Porte Verte 54270 Essey les nancy,48.700417,6.230707,Essey-lès-Nancy,54270
Audioprothésiste MONCEL-LÈS-LUNEVILLE Optical Center,4 rue Saulcy 54300 Moncel les luneville,48.577586,6.516751,Moncel-lès-Lunéville,54300
Audioprothésiste SEYSSES-MURET Optical Center,rue Danielle Casanova 31600 Seysses,43.490422,1.317774,Seysses,31600
Audioprothésiste VANNES-ATLANVILLE Optical Center,16 rue Jacques Rueff 56000 Vannes,47.6668,-2.792155,Vannes,56000
Audioprothésiste BESANÇON - CHÂTEAUFARINE Optical Center,"14, rue André Breton 25058 Besançon",47.214745,5.952396,Besançon,25000
Audioprothésiste AIX-LES-MILLES - LA PIOLINE Optical Center,ZAC de la Pioline 13290 Aix en provence,43.506499,5.40796,Aix-en-Provence,13290
Audioprothésiste ILLZACH-ILE NAPOLEON Optical Center,13 rue Berne 68110 Illzach,47.770921,7.382419,Illzach,68110
Audioprothésiste PAU Optical Center,"3, Boulevard du commandant René Mouchotte 64000 Pau",43.30606,-0.33161,Pau,64000
Audioprothésiste BESANÇON - VALENTIN Optical Center,Espace Valentin 25480 École-valentin,47.273611,5.995861,École-Valentin,25480
Audioprothésiste LISIEUX Optical Center,route Paris 14100 Lisieux,49.146596,0.259093,Lisieux,14100
Audioprothésiste POITIERS-CHASSENEUIL Optical Center,20 allée Haut Poitou 86360 Chasseneuil du poitou,46.649861,0.363214,Chasseneuil-du-Poitou,86360
Audioprothésiste MARTIGUES-SAINT-MITRE-LES-REMPARTS Optical Center,12 rue des Roseaux 13920 Saint mitre les remparts,43.440692,5.035129,Saint-Mitre-les-Remparts,13920
Audioprothésiste BERGERAC - CREYSSE Optical Center,ZAE Porte de la Dordogne 24100 Creysse,44.872685,0.53953,Creysse,24100
Audioprothésiste LYON-VAISE Optical Center,64 rue St Cyr 69009 Lyon,45.783477,4.808162,Lyon,69009
Audioprothésiste  MAUBEUGE Optical Center,"1, porte de Mons 59600 Maubeuge",50.283327,3.97463,Maubeuge,59600
Audioprothésiste SAINT-BRIEUC-CENTRE-VILLE Optical Center,6 rue Poissonnerie 22000 Saint brieuc,48.513964,-2.762163,Saint-Brieuc,22000
Audioprothésiste PARIS Porte des Lilas 19EME Optical Center,15 avenue Porte des Lilas 75019 Paris,48.878255,2.409717,Paris,75019
Audioprothésiste ARMENTIÈRES Optical Center,60 rue Lille 59280 Armentieres,50.684172,2.880144,Armentières,59280
Audioprothésiste CHELLES Optical Center,21 avenue Mar Foch 77500 Chelles,48.87214,2.578581,Chelles,77500
Audioprothésiste PÉRIGUEUX Optical Center,4 rue Prés Wilson 24000 Perigueux,45.184095,0.725881,Périgueux,24000
Audioprothésiste MARSEILLE-PRADO Optical Center,263 avenue du Prado 13008 Marseille,43.274166,5.39077,Marseille,13008
Audioprothésiste BELFORT Optical Center,9 boulevard Henri Dunant 90000 Belfort,47.627142,6.860903,Belfort,90000
Audioprothésiste LE BLANC-MESNIL Optical Center,13 bis avenue Henri Barbusse 93150 Le blanc mesnil,48.936633,2.458211,Le Blanc-Mesnil,93150
Audioprothésiste GRAND ÉPAGNY Optical Center,48 rue de la Mandallaz 74330 Epagny,45.939163,6.079628,Epagny Metz-Tessy,74330
Audioprothésiste ÉPINAL - GOLBEY Optical Center,"69, rue du Général Leclerc 88190 Golbey",48.190789,6.418514,Golbey,88190
Audioprothésiste TRIGNAC Optical Center,Fontaine au Brun 44570 Trignac,47.299545,-2.208957,Trignac,44570
Audioprothésiste LOMME-M.I.N Optical Center,115 rue des Fusillés 59160 Lille,50.638439,2.969139,Lille,59160
Audioprothésiste ROYAN Optical Center,30 rue Antoine de Lavoisier 17200 Royan,45.632307,-0.984888,Royan,17200
Audioprothésiste SEYSSINS Optical Center,100 avenue du général de Gaulle 38180 Seyssins,45.16005,5.693855,Seyssins,38180
Audioprothésiste AULNAY-SOUS-BOIS Optical Center,26 boulevard Strasbourg 93600 Aulnay sous bois,48.928326,2.491214,Aulnay-sous-Bois,93600
Audioprothésiste SALAISE-SUR-SANNE Optical Center,151 rue Glières 38150 Salaise sur sanne,45.343968,4.803274,Salaise-sur-Sanne,38150
Audioprothésiste SCHILTIGHEIM Optical Center,11 rue Erstein 67300 Schiltigheim,48.611144,7.73999,Schiltigheim,67300
Audioprothésiste VÉLIZY  Optical Center,37 avenue de l'Europe 78140 Vélizy villacoublay,48.781737,2.218805,Vélizy-Villacoublay,78140
Audioprothésiste COLOMIERS Optical Center,ZAC du Perget 31770 Colomiers,43.610256,1.30823,Colomiers,31770
Audioprothésiste ASNIÈRES-SUR-SEINE Optical Center,96 rue des Bourguignons 92600 Asnières sur seine,48.915024,2.275227,Asnières-sur-Seine,92600
Audioprothésiste CHOLET Optical Center,rue Sorel Tracy 49300 Cholet,47.07339,-0.841959,Cholet,49300
Audioprothésiste MARMANDE Optical Center,6 avenue François Mitterrand 47200 Marmande,44.508442,0.143323,Marmande,47200
Audioprothésiste LAVAL-SAINT-BERTHEVIN Optical Center,90 boulevard Louis Armand 53940 Saint berthevin,48.066259,-0.805285,Saint-Berthevin,53940
Audioprothésiste PESSAC Optical Center,8 avenue Gustave Eiffel 33600 Pessac,44.785992,-0.641464,Pessac,33600
Audioprothésiste VANDOEUVRE-LÈS-NANCY Optical Center,ZAC le Reveilleux 54500 Vandoeuvre les nancy,48.661904,6.186696,Vandœuvre-lès-Nancy,54500
Audioprothésiste SAINT-SÉBASTIEN-SUR-LOIRE Optical Center,329 route de Clisson 44230 Saint sébastien sur loire,47.188058,-1.491668,Saint-Sébastien-sur-Loire,44230
Audioprothésiste SAINT-MARTIN-D'HÈRES Optical Center,104 avenue Gabriel Péri 38400 Saint martin d'hères,45.185151,5.763537,Saint-Martin-d'Hères,38400
Audioprothésiste SAINT-MÉDARD-EN-JALLES Optical Center,2 avenue Berlincan 33160 Saint medard en jalles,44.881462,-0.688597,Saint-Médard-en-Jalles,33160
Audioprothésiste  MANOSQUE Optical Center,30 Avenue de la Libération 04100 Manosque,43.822329,5.791609,Manosque,04100
Audioprothésiste SARREGUEMINES Optical Center,1 rue Maréchal Kellermann 57200 Sarreguemines,49.114904,7.093172,Sarreguemines,57200
Audioprothésiste DOMMARTIN-LÈS-TOUL Optical Center,Pôle Cial Jeanne d'Arc 54200 Dommartin-lès-toul,48.670502,5.913753,Dommartin-lès-Toul,54200
Audioprothésiste MONTLUÇON Optical Center,"24, rue Albert Einstein 03100 Montluçon",46.348934,2.606072,Montluçon,03100
Audioprothésiste  SHOPPING PARC - CARRÉ SÉNART Optical Center,3 Allée du Préambule 77127 Lieusaint,48.616119,2.547927,Lieusaint,77127
Audioprothésiste PIERRE-BÉNITE Optical Center,25 chemin Mûriers 69310 Pierre benite,45.694989,4.823866,Pierre-Bénite,69310
Audioprothésiste NARBONNE-BONNE-SOURCE Optical Center,Boulevard de Creissel 11100 Narbonne,43.17783,3.028952,Narbonne,11100
Audioprothésiste LEERS-LYS-LEZ-LANNOY Optical Center,rue des Verdiers 59451 Lys lez lannoy,50.677802,3.220708,Lys-lez-Lannoy,59390
Audioprothésiste ABBEVILLE - VAUCHELLES Optical Center,Parc d'Activités de Vauchelles-les-Quesnoy 80132 Vauchelles les quesnoy,50.104507,1.888847,Vauchelles-les-Quesnoy,80132
Audioprothésiste SAINT-OMER-ARQUES Optical Center,11 avenue Frais Fonds 62510 Arques,50.733918,2.273316,Arques,62510
Audioprothésiste COMPIÈGNE-ZAC JAUX-VENETTE Optical Center,57 avenue Europe 60280 Venette,49.409931,2.777945,Venette,60280
Audioprothésiste CAMBRAI Optical Center,"11, place Aristide Briand 59400 Cambrai",50.175704,3.235878,Cambrai,59400
Audioprothésiste CHÂLONS-EN-CHAMPAGNE - SAINT-MEMMIE Optical Center,"14, Avenue Mercuria 51470 Saint-memmie",48.944812,4.38674,Saint-Memmie,51470
Audioprothésiste FONTAINEBLEAU-AVON Optical Center,20 avenue Franklin Roosevelt 77210 Avon,48.414186,2.715945,Avon,77210
Audioprothésiste VERDUN HAUDAINVILLE Optical Center,"145, route de Metz 55100 Haudainville",49.142379,5.40953,Haudainville,55100
Audioprothésiste LIMONEST Optical Center,1022 Route Nationale 6 69760 Limonest,45.815132,4.775607,Limonest,69760
Audioprothésiste NEVERS Optical Center,36 boulevard Grands Prés des Bordes 58000 Nevers,46.993482,3.122922,Nevers,58000
Audioprothésiste LESQUIN Optical Center,Zone commerciale Auchan Faches Thumesnil 59810 Lesquin,50.590865,3.111269,Lesquin,59810
Audioprothésiste CANNES - LA BOCCA Optical Center,Allée Maryse Bastié 06150 Cannes,43.552672,6.957384,Cannes,06150
Audioprothésiste LONGUEAU Optical Center,1 avenue de L’Arc 80330 Longueau,49.8683,2.37124,Longueau,80330
Audioprothésiste FLINS-SUR-SEINE Optical Center,ld La Michardière - chemins D14 78410 Flins sur seine,48.962486,1.869922,Flins-sur-Seine,78410
Audioprothésiste CALUIRE-ET-CUIRE Optical Center,86 avenue Général Leclerc 69300 Caluire et cuire,45.804262,4.863457,Caluire-et-Cuire,69300
Audioprothésiste VOIRON Optical Center,"30, cours Becquart Castelbon 38500 Voiron",45.363917,5.590774,Voiron,38500
Audioprothésiste QUIMPER - GOURVILY Optical Center,ZAC de GOURVILY 29000 Quimper,48.015336,-4.083732,Quimper,29000
Audioprothésiste BOULOGNE-SUR-MER Optical Center,"57-59, rue Victor Hugo 62200 Boulogne sur mer",50.724006,1.603705,Boulogne-sur-Mer,62200
Audioprothésiste PAMIERS-SAINT-JEAN-DU-FALGA Optical Center,18 avenue Pyrénées 09100 Saint jean du falga,43.096052,1.624425,Saint-Jean-du-Falga,09100
Audioprothésiste FOUGÈRES Optical Center,4 rue Français Libres 35300 Fougeres,48.346165,-1.181075,Fougères,35300
Audioprothésiste CHÂTEAUBRIANT Optical Center,1 rue Président Kennedy 44110 Chateaubriant,47.705916,-1.383865,Châteaubriant,44110
Audioprothésiste ANGERS-GRANDMAINE Optical Center,ZAC du Centre Ouest Lac de Maine 49000 Angers,47.462553,-0.59544,Angers,49000
Audioprothésiste LONS-LESCAR Optical Center,72 boulevard Charles de Gaulle 64140 Lons,43.311601,-0.413574,Lons,64140
Audioprothésiste AMBÉRIEU-EN-BUGEY Optical Center,Lieu-dit Terreau 01500 Amberieu en bugey,45.948828,5.364684,Ambérieu-en-Bugey,01500
Audioprothésiste BEYNOST Optical Center,chemin des Malettes 01700 Beynost,45.822755,4.99813,Beynost,01700
Audioprothésiste RONCQ Optical Center,442 rue Lille 59223 Roncq,50.767511,3.121305,Roncq,59223
Audioprothésiste BRIE-COMTE-ROBERT Optical Center,ZAC de la Haie Passart 77170 Brie comte robert,48.691387,2.599153,Brie-Comte-Robert,77170
Audioprothésiste DOURGES Optical Center,Boulevard Schweitzer 62119 Dourges,50.416658,2.975867,Dourges,62119
Audioprothésiste AUBAGNE Optical Center,zone d'aménagement concerté Pastre 13400 Aubagne,43.291943,5.595313,Aubagne,13400
Audioprothésiste RENNES-SAINT-GRÉGOIRE Optical Center,119 avenue Gros Malhon 35000 Rennes,48.133451,-1.685922,Rennes,35000
Audioprothésiste PLAISIR - LES CLAYES-SOUS-BOIS  Optical Center,ZI des Dames 78340 Les clayes sous bois,48.827001,1.973979,Les Clayes-sous-Bois,78340
Audioprothésiste LANGON  Optical Center,85 cours Mar de Lattre de Tassigny 33210 Langon,44.547408,-0.244066,Langon,33210
Audioprothésiste DAX Optical Center,34 boulevard Sports 40100 Dax,43.711148,-1.045471,Dax,40100
Audioprothésiste ORGEVAL Optical Center,12 rue Normandie 78630 Orgeval,48.930746,1.976513,Orgeval,78630
Audioprothésiste POITIERS-GRAND-LARGE Optical Center,avenue 11 Novembre 86000 Poitiers,46.5675,0.366623,Poitiers,86000
Audioprothésiste SCHWEIGHOUSE-SUR-MODER Optical Center,2 place du Geisselbronn 67590 Schweighouse sur moder,48.831004,7.742408,Schweighouse-sur-Moder,67590
Audioprothésiste GIVORS Optical Center,rue Paix 69700 Givors,45.57894,4.734209,Givors,69700
Audioprothésiste TOULOUSE-BALMA Optical Center,49 route de Lavaur 31240 L'union,43.637012,1.498518,L'Union,31240
Audioprothésiste PONTARLIER Optical Center,9 route de Besançon 25300 Doubs,46.923955,6.343586,Doubs,25300
Audioprothésiste MULHOUSE-KINGERSHEIM Optical Center,169 rue Richwiller 68260 Kingersheim,47.788839,7.312507,Kingersheim,68260
Audioprothésiste LE CREUSOT Optical Center,79 avenue République 71200 Le creusot,46.791382,4.448292,Le Creusot,71200
Audioprothésiste DOUAI Optical Center,81 rue Paris 59500 Douai,50.366916,3.081475,Douai,59500
Audioprothésiste  ORANGE - COUDOULET Optical Center,6 Avenue de l'Europe 84100 Orange,44.12118,4.840396,Orange,84100
Audioprothésiste ÉTAMPES-MORIGNY Optical Center,route Nationale 20 91150 Morigny champigny,48.445138,2.185334,Morigny-Champigny,91150
Audioprothésiste MOZAC Optical Center,104 avenue Jean Jaurès 63200 Mozac,45.889686,3.075071,Mozac,63200
Audioprothésiste LYON-FRÈRES LUMIÈRE Optical Center,39 avenue des Frères lumière 69008 Lyon,45.745686,4.864479,Lyon,69008
Audioprothésiste ANNONAY-DAVÉZIEUX Optical Center,Route de Lyon 07430 Davezieux,45.259644,4.700422,Davézieux,07430
Audioprothésiste VIENNE Optical Center,place Camille Jouffray 38200 Vienne,45.538979,4.872072,Vienne,38200
Audioprothésiste STRASBOURG-LAMEINAU Optical Center,331 avenue de Colmar 67100 Strasbourg,48.548203,7.741064,Strasbourg,67100
Audioprothésiste SAINT-GEORGES-DES-COTEAUX - SAINTES  Optical Center,5 rue Bellegarde 17810 Saint georges des coteaux,45.751996,-0.677707,Saint-Georges-des-Coteaux,17810
Audioprothésiste BRIVE-LA-GAILLARDE Optical Center,33 avenue Jean Charles Rivet 19100 Brive la gaillarde,45.149889,1.495818,Brive-la-Gaillarde,19100
Audioprothésiste L'ISLE-ADAM  Optical Center,boulevard Tilsit 95290 L' isle adam,49.126669,2.245613,L'Isle-Adam,95290
Audioprothésiste TOURS - NORD Optical Center,Zone commerciale de l'Horloge 37100 Tours,47.395079,0.68505,Tours,37000
Audioprothésiste SAINT-BONNET-DE-MURE Optical Center,106 avenue Charles de Gaulle 69720 Saint bonnet de mure,45.690479,5.029373,Saint-Bonnet-de-Mure,69720
Audioprothésiste MAREUIL-LÈS-MEAUX Optical Center,Parc d'activité de la Haute Borne 77100 Mareuil-lès-meaux,48.940202,2.878432,Mareuil-lès-Meaux,77100
Audioprothésiste LE MANS - LES HUNAUDIÈRES Optical Center,"1, Boulevard des Hunaudières - RN 138 - Axe Le Mans - Tours à Ruaudin 72230 Ruaudin",47.961453,0.245644,Ruaudin,72230
Audioprothésiste AUCH Optical Center,30 avenue Pyrénées 32000 Auch,43.637705,0.583967,Auch,32000
Audioprothésiste CHÂTEAUROUX-LE POINÇONNET Optical Center,5290 route Montluçon 36330 Le poinconnet,46.789737,1.744794,Le Poinçonnet,36330
Audioprothésiste LANESTER Optical Center,rue Andrei Sakharov 56600 Lanester,47.776741,-3.340279,Lanester,56600
Audioprothésiste SAINT-ANDRÉ-LES-VERGERS-TROYES Optical Center,9 avenue Charles de Refuge 10120 Saint andre les vergers,48.282158,4.054201,Saint-André-les-Vergers,10120
Audioprothésiste TARBES Optical Center,50 avenue Maréchal Joffre 65000 Tarbes,43.239456,0.068291,Tarbes,65000
Audioprothésiste REZÉ Optical Center,4 BIS R ORDRONNEAU 44400 Rezé,47.194082,-1.574025,Rezé,44400
Audioprothésiste NANTES Optical Center,11 allée des Tanneurs 44000 Nantes,47.21972,-1.556299,Nantes,44000
Audioprothésiste CHERBOURG Optical Center,39 rue Albert Mahieu 50100 Cherbourg en cotentin,49.638818,-1.625211,Cherbourg-en-Cotentin,50100
Audioprothésiste ORLÉANS-SARAN Optical Center,2458 route Nationale 20 45770 Saran,47.959749,1.889869,Saran,45770
Audioprothésiste DAUMESNIL - 12ÈME Optical Center,"223, Avenue Daumesnil 75012 Paris",48.838294,2.399699,Paris,75012
Audioprothésiste BOURGOIN-JALLIEU Optical Center,10 avenue Henri Barbusse 38300 Bourgoin jallieu,45.594513,5.269828,Bourgoin-Jallieu,38300
Audioprothésiste MONTPELLIER Optical Center,"26, allée Jules Milhau 34000 Montpellier",43.609244,3.881865,Montpellier,34000
Audioprothésiste THIONVILLE Optical Center,Zone du Linking 57100 Thionville,49.352708,6.136496,Thionville,57100
Audioprothésiste CLAYE-SOUILLY Optical Center,14 rue Ernest Sarron 77410 Claye souilly,48.950501,2.667575,Claye-Souilly,77410
Audioprothésiste SAINTE-EULALIE Optical Center,Zone commerciale Grand Tour 33560 Sainte-eulalie,44.9069,-0.475118,Sainte-Eulalie,33560
Audioprothésiste NARBONNE-CENTRE-VILLE Optical Center,8 rue Droite 11100 Narbonne,43.184121,3.004453,Narbonne,11100
Audioprothésiste OSNY Optical Center,ZAC de l'Oseraie 95520 Osny,49.0721,2.067595,Osny,95520
Audioprothésiste METZ-CENTRE-VILLE Optical Center,38 en Fournirue 57000 Metz,49.118672,6.177184,Metz,57000
Audioprothésiste TOURS Optical Center,2 place Résistance 37000 Tours,47.394749,0.685903,Tours,37000
Audioprothésiste BESANÇON-CENTRE-VILLE Optical Center,16 rue République 25000 Besancon,47.239381,6.026171,Besançon,25000
Audioprothésiste PERPIGNAN-POLYGONE-NORD Optical Center,141 chemin Etang Long 66000 Perpignan,42.741978,2.894221,Perpignan,66000
Audioprothésiste ANGOULÊME Optical Center,548 rue Bordeaux 16000 Angouleme,45.63734,0.128631,Angoulême,16000
Audioprothésiste COIGNIÈRES  Optical Center,45 route Nationale 10 78310 Coignières,48.750689,1.93011,Coignières,78310
Audioprothésiste DIJON-QUÉTIGNY Optical Center,Grand Marché Quétigny 21800 Quetigny,47.312106,5.098347,Quetigny,21800
Audioprothésiste  NIORT Optical Center,"41, rue de Gutenberg 79000 Niort",46.337591,-0.398458,Niort,79000
Audioprothésiste AIX-EN-PROVENCE Optical Center,9 avenue Victor Hugo 13100 Aix en provence,43.525314,5.446423,Aix-en-Provence,13100
Audioprothésiste LIMOGES-CENTRE-VILLE Optical Center,42 abenue Garibaldi 87000 Limoges,45.835829,1.260301,Limoges,87000
Audioprothésiste TOULOUSE-PURPAN Optical Center,47 route de bayonne 31300 Toulouse,43.608041,1.392553,Toulouse,31300
Audioprothésiste PLAN-DE-CAMPAGNE Optical Center,Chemin de grande campagne 13480 Cabries,43.420756,5.361512,Cabriès,13480
Audioprothésiste VILLEFRANCHE-SUR-SAONE Optical Center,161 rue Nationale 69400 Villefranche sur saone,45.993937,4.719091,Villefranche-sur-Saône,69400
Audioprothésiste PONTAULT-COMBAULT Optical Center,1 rue du Fort 77340 Pontault combault,48.779899,2.60795,Pontault-Combault,77340
Audioprothésiste CABESTANY - MAS GUÉRIDO Optical Center,Mas Guérido 66330 Cabestany,42.675537,2.93557,Cabestany,66330
Audioprothésiste LABÈGE Optical Center,94 place du Commerce 31670 Labège,43.552188,1.504354,Labège,31670
Audioprothésiste LAVAL Optical Center,avenue Communauté Européenne 53000 Laval,48.056065,-0.736867,Laval,53000
Audioprothésiste BOURGES Optical Center,13 place Gordaine 18000 Bourges,47.085839,2.398882,Bourges,18000
Audioprothésiste BRÉTIGNY-SUR-ORGE Optical Center,rue Poitou 91220 Bretigny sur orge,48.587328,2.296784,Brétigny-sur-Orge,91220
Audioprothésiste VENDENHEIM Optical Center,Zone Commerciale 67550 Vendenheim,48.65898,7.728534,Vendenheim,67550
Audioprothésiste BEAUVAIS Optical Center,12 rue Arago 60000 Beauvais,49.412224,2.119009,Beauvais,60000
Audioprothésiste FLOIRAC Optical Center,Zone commerciale de VIMENEY  Bât.2 33270 Floirac,44.817512,-0.528759,Floirac,33270
Audioprothésiste CALAIS-COQUELLES Optical Center,chemin Bergnieulles 62231 Coquelles,50.945316,1.803426,Coquelles,62231
Audioprothésiste LYON-PERRACHE Optical Center,8 place Carnot 69002 Lyon,45.751258,4.829262,Lyon,69002
Audioprothésiste  NANCY - FROUARD Optical Center,ZAC du Saule Gaillard 54390 Frouard,48.746528,6.148582,Frouard,54390
Audioprothésiste AUBIÈRE Optical Center,127 avenue Cournon 63170 Aubiere,45.755981,3.149182,Aubière,63170
Audioprothésiste ORVAULT Optical Center,248 route de Vannes 44700 Orvault,47.245115,-1.601097,Orvault,44700
Audioprothésiste NANCY-CENTRE-VILLE Optical Center,37 rue de la Visitation 54000 Nancy,48.690408,6.180469,Nancy,54000
Audioprothésiste JOUY-AUX-ARCHES Optical Center,Zone d'Activités Parc Aravis 57130 Jouy aux arches,49.060872,6.077333,Jouy-aux-Arches,57130
Audioprothésiste  MARSEILLE - LA VALENTINE Optical Center,111 route de la Valentine 13011 Marseille 11e arrondissement,43.290779,5.473748,Marseille,13011
Audioprothésiste STRASBOURG-CENTRE-VILLE Optical Center,25 rue du Vieux Marché aux Vins 67000 Strasbourg,48.583986,7.741808,Strasbourg,67000
Audioprothésiste MEYLAN Optical Center,"2, Boulevard des Alpes 38240 Meylan",45.202423,5.761861,Meylan,38240
Audioprothésiste  CHANTEPIE Optical Center,Zone d'Activités des Logettes 35135 Chantepie,48.084189,-1.626348,Chantepie,35135
Audioprothésiste SAINT-MANDÉ Optical Center,63 avenue Paris 94160 Saint mande,48.845409,2.427917,Saint-Mandé,94160
Audioprothésiste BONNEUIL-SUR-MARNE Optical Center,ZAC Parc des Varennes 94380 Bonneuil sur marne,48.771014,2.483737,Bonneuil-sur-Marne,94380
Audioprothésiste ORLÉANS Optical Center,6 rue Albert 1er 45000 Orleans,47.83047,1.924253,Orléans,45100
Audioprothésiste STRASBOURG-HAUTEPIERRE Optical Center,30 rue Charles Péguy 67200 Strasbourg,48.588732,7.697742,Strasbourg,67200
Audioprothésiste SAINT-HERBLAIN Optical Center,Pôle ATLANTIS 44800 Saint-herblain,47.210927,-1.666987,Saint-Herblain,44800
Audioprothésiste LOMME Optical Center,Rue du Grand But 59160 Lille,50.64573,2.974528,Lille,59160
Audioprothésiste ANNEMASSE Optical Center,11 rue de Genève 74100 Annemasse,46.192593,6.231554,Annemasse,74100
Audioprothésiste DUNKERQUE Optical Center,37 rue Nationale 59140 Dunkerque,51.03303,2.378172,Dunkerque,59140
Audioprothésiste VALENCE - CENTRE-VILLE Optical Center,"3, rue Pasteur 26000 Valence",44.929131,4.891172,Valence,26000
Audioprothésiste SAINT-NAZAIRE Optical Center,"70, rue du Général de Gaulle 44600 Saint-nazaire",47.274497,-2.214669,Saint-Nazaire,44600
Audioprothésiste PERPIGNAN-CENTRE-VILLE Optical Center,47 boulevard Clemenceau 66000 Perpignan,42.699229,2.888757,Perpignan,66000
Audioprothésiste OLIVET - LA SOURCE Optical Center,ZAC des Provinces 45160 Olivet,47.854802,1.929878,Olivet,45160
Audioprothésiste SAINT-DENIS Optical Center,100 rue Gabriel Péri 93200 Saint denis,48.938818,2.356733,Saint-Denis,93200
Audioprothésiste VILLENEUVE-D'ASCQ Optical Center,10 rue du Vaisseau 59650 Villeneuve d'ascq,50.616232,3.126192,Villeneuve-d'Ascq,59650
Audioprothésiste PARIS Lecourbe 15EME Optical Center,167 rue Lecourbe 75015 Paris,48.841233,2.298244,Paris,75015
Audioprothésiste FRANCONVILLE Optical Center,362 rue du Général Leclerc 95130 Franconville,48.989523,2.205366,Franconville,95130
Audioprothésiste CLERMONT-FERRAND Optical Center,47 rue Blatin 63000 Clermont ferrand,45.776644,3.077643,Clermont-Ferrand,63000
Audioprothésiste - ÉCOLES - 5ÈME Optical Center,"46, rue des Écoles 75005 Paris",48.849512,2.345567,Paris,75005
Audioprothésiste  MÉRIGNAC Optical Center,"231-233, Avenue de la Marne 33700 Merignac",44.832821,-0.641981,Mérignac,33700
Audioprothésiste  NÎMES Optical Center,"Immeuble Actipolis D2 - Ville Active - 442, Avenue Jean Prouvé 30900 Nimes",43.813543,4.348252,Nîmes,30900
Audioprothésiste VERSAILLES PAROISSE  Optical Center,20 rue de la Paroisse 78000 Versailles,48.807896,2.126882,Versailles,78000
Audioprothésiste  ORLY Optical Center,Galerie du Centre commercial ORLYDIS (Leclerc) 94310 Orly,48.742967,2.408179,Orly,94310
Audioprothésiste PUILBOREAU-LA ROCHELLE Optical Center,zone d'aménagement concerté Beaulieu 2000 17138 Puilboreau,46.17654,-1.11509,Puilboreau,17138
Audioprothésiste  NEUILLY CENTRE-VILLE Optical Center,"152, Avenue Charles de Gaulle 92200 Neuilly sur seine",48.88433,2.262919,Neuilly-sur-Seine,92200
Audioprothésiste  LORIENT Optical Center,"2, rue de Liège 56100 Lorient",47.749154,-3.363722,Lorient,56100
Audioprothésiste SAINT-GERMAIN-EN-LAYE Optical Center,9 rue de la Salle 78100 Saint germain en laye,48.897051,2.093238,Saint-Germain-en-Laye,78100
Audioprothésiste ANNECY Optical Center,10 bis Avenue de Genève 74000 Annecy,45.957937,6.125648,Annecy,74370
Audioprothésiste LE MANS Optical Center,9 rue St Charles 72000 Le mans,48.002834,0.198398,Le Mans,72000
Audioprothésiste LIMOGES-NORD Optical Center,2 rue Léon Serpollet 87280 Limoges,45.88225,1.286225,Limoges,87280
Audioprothésiste VILLENAVE-D'ORNON Optical Center,Centre Commercial Géant 33140 Villenave d'ornon,44.781201,-0.573344,Villenave-d'Ornon,33140
Audioprothésiste VILLEURBANNE Optical Center,"67, cours Emile Zola 69100 Villeurbanne",45.77114,4.868775,Villeurbanne,69100
Audioprothésiste BATIGNOLLES - 17ÈME Optical Center,"88, Boulevard des Batignolles 75017 Paris",48.881768,2.317774,Paris,75017
Audioprothésiste VITROLLES Optical Center,41 avenue Denis Padovani 13127 Vitrolles,43.436105,5.258149,Vitrolles,13127
Audioprothésiste BIARRITZ Optical Center,20 avenue Marne 64200 Biarritz,43.484529,-1.554229,Biarritz,64200
Audioprothésiste  NICE Optical Center,"2, rue Raynardi 06000 Nice",43.699671,7.266782,Nice,06000
Audioprothésiste CRÉTEIL Optical Center,2 boulevard Jean-Baptiste oudry 94000 Créteil,48.776335,2.455711,Créteil,94000
Audioprothésiste MARSEILLE-ROME Optical Center,37 rue de Rome 13001 Marseille,43.294355,5.379015,Marseille,13001
Audioprothésiste CERGY  PONTOISE  Optical Center,6 place des Cerclades 95000 Cergy,49.036623,2.081348,Cergy,95000
Audioprothésiste BREST Optical Center,14 rue Colbert 29200 Brest,48.388617,-4.48673,Brest,29200
Audioprothésiste PARIS Gare de L'Est 10EME Optical Center,123-125 rue du Faubourg Saint Martin 75010 Paris,48.875094,2.358972,Paris,75010
Audioprothésiste CNIT-LA DÉFENSE Optical Center,2 place de la Défense 92800 Puteaux,48.891775,2.241034,Puteaux,92800
Audioprothésiste PARIS Nation Charonne 20EME Optical Center,48 boulevard de Charonne 75020 Paris,48.851706,2.398476,Paris,75020
Audioprothésiste BOULOGNE-JEAN-JAURÈS Optical Center,211 boulevard Jean Jaurès 92100 Boulogne billancourt,48.832699,2.244149,Boulogne-Billancourt,92100
Audioprothésiste SAINT-ÉTIENNE Optical Center,"8, rue du Grand Moulin 42000 Saint-etienne",45.437234,4.389076,Saint-Étienne,42000
Audioprothésiste RENNES Optical Center,27 rue Vasselot 35000 Rennes,48.108663,-1.677532,Rennes,35000
Audioprothésiste PARIS Victor Hugo 16EME Optical Center,185 avenue Victor Hugo 75016 Paris,48.86568,2.276242,Paris,75016
Audioprothésiste BORDEAUX-CENTRE-VILLE Optical Center,52 cours Alsace Lorraine 33000 Bordeaux,44.846564,-0.605665,Bordeaux,33200
Audioprothésiste VANNES - SÉNÉ Optical Center,"14, Avenue de Geispolsheim 56860 Sene",47.651305,-2.722337,Séné,56860
Audioprothésiste LYON-PART-DIEU Optical Center,29 boulevard Eugène Deruelle 69003 Lyon,45.763154,4.855155,Lyon,69003
Audioprothésiste ANGERS - CENTRE-VILLE  Optical Center,2 bis rue Paul Bert 49100 Angers,47.466188,-0.552571,Angers,49100
Audioprothésiste PARIS Pereire Niel 17EME Optical Center,87 avenue Niel 75017 Paris,48.883582,2.296492,Paris,75017
Audioprothésiste TOULOUSE-CAPITOLE Optical Center,9 rue Kennedy 31000 Toulouse,43.605785,1.445145,Toulouse,31000
Audioprothésiste LYON - BOURSE Optical Center,"4, rue de la Bourse 69001 Lyon",45.765679,4.836779,Lyon,69001
Audioprothésiste ANGERS-SAINT BARTHÉLEMY D'ANJOU Optical Center,25 rue de Malmouche 49124 Saint barthélémy d'anjou,47.468805,-0.518379,Saint-Barthélemy-d'Anjou,49124
Audioprothésiste DIJON-AHUY Optical Center,ZAC des Grandes Varennes 21121 Ahuy,47.355242,5.039157,Ahuy,21121
Audioprothésiste LILLE Optical Center,1 place Louise de Bettignies 59000 Lille,50.640355,3.06435,Lille,59800
Audioprothésiste BOULOGNE-REINE Optical Center,83 route de la Reine 92100 Boulogne billancourt,48.839658,2.238924,Boulogne-Billancourt,92100
Audioprothésiste PARIS Oberkampf 11EME Optical Center,"43, Boulevard Voltaire 75011 Paris",48.864036,2.369979,Paris,75011
Audioprothésiste SAINT-LAURENT-BLANGY Optical Center,34 Avenue Roger Salengro 62223 Saint-laurent-blangy,50.292751,2.79355,Saint-Laurent-Blangy,62223
Audioprothésiste  CERGY - AREN' PARK Optical Center,"28, Avenue de la Plaine des Sports 95800 Cergy",49.053734,2.050454,Cergy,95800
Audioprothésiste PARIS-JEAN-JAURES Optical Center,"47, Avenue Jean Jaurès 75019 Paris",48.884278,2.375308,Paris,75019
Audioprothésiste LOUVIERS Optical Center,19 Boulevard du Docteur Postel 27400 Louviers,49.210436,1.173075,Louviers,27400
Audioprothésiste GRENOBLE Optical Center,1 r Docteur Mazet 38000 Grenoble,45.192062,5.721315,Grenoble,38000
Audioprothésiste ANGERS-SAINT SERGE Optical Center,3 Avenue Jean Joxé 49100 Angers,47.486647,-0.539461,Angers,49100
Audioprothésiste LYON-JEAN-JAURÈS Optical Center,45-47 avenue Jean Jaurès 69007 Lyon,45.750134,4.844873,Lyon,69007
